code,region,long_name,short_name,latitude,longitude
S02367,Veneto,Villabartolomea,Villabartolomea,45.153.057,11.348.728
S02331,Veneto,Villafranca Di Verona,Villafranca D.V.,45.349.801,10.849.016
S02145,Veneto,Villaverla Montecchio,Villaverla,45.656.998,11.524.271
S02141,Veneto,Anconetta,Anconetta,45.565.249,11.567.865
S02513,Veneto,Ve Asseggiano,Ve Asseggiano,45.499.357,12.178.101
S05708,Veneto,Polesella,Polesella,44.961.039,11.738.498
S02585,Veneto,Ponte Di Brenta,Ponte Di Brenta,45.429.216,11.947.734
S03200,Veneto,Portogruaro Caorle,Portogruaro C.,45.781.438,12.832.375
S02736,Veneto,Stazione Per L`Alpago,Stazione Alpago,46.137.574,12.316.066
S02579,Veneto,Grisignano Di Zocco,Grisignano Z.,4.548.638,11.710.762
S02539,Veneto,Istrana,Istrana,45.676.539,12.102.781
S02566,Veneto,Alano Fener Valdobbiadene,Alano Fener Val.,4.590.229,11.944.546
S02666,Veneto,S. Dona` Di Piave,S.Dona' Di Piave,4.563.983,12.559.791
S05704,Veneto,S.Elena - Este,S.Elena - Este,45.199.209,11.712.883
S02526,Veneto,S.Giorgio Delle Pertiche,S.Giorgio D.Pert,45.542.538,11.917.455
S02562,Veneto,S.Giustina Cesio,S.Giustina Cesio,46.077.655,1.204.294
S02435,Veneto,S.Martino Buon Albergo,S.Martino B.A.,45.421.559,11.089.155
S02536,Veneto,S.Martino Di Lupari,S.Martino Di Lup,45.655.928,11.857.227
S02503,Veneto,S.Nazario,S.Nazario,45.838.117,11.691.321
S02557,Veneto,Fae`Fortogna,Fae'Fortogna,46.239.439,12.294.121
S02143,Veneto,Thiene,Thiene,45.700.697,11.475.407
S02760,Veneto,Olmi Spercenigo,Olmi S.,45.679.467,12.338.101
S02761,Veneto,S.Biagio Di Callalta,S.Biagio C.,45.686.134,12.374.316
S02762,Veneto,Fagare,Fagare,4.570.705,12.444.296
S02763,Veneto,Ponte Di Piave,Ponte Piave,45.719.624,12.460.683
S02765,Veneto,Oderzo,Oderzo,45.775.304,1.249.293
S02766,Veneto,Gorgo Al Monticano,Gorgo Montic.,45.784.444,12.553.737
S02767,Veneto,Motta Di Livenza,Motta Liv.,45.779.114,12.607.118
S02768,Veneto,Pramaggiore,Pramaggiore,45.774.579,12.718.413
S02769,Veneto,Annone Veneto,Annone Veneto,45.774.904,12.680.334
S02440,Veneto,San Bonifacio,San Bonifacio,4.540.276,1.127.406
S02053,Veneto,Posto Comunicazione Dolce`,P.C. Dolce',45.601.513,10.850.588
S02733,Veneto,Vittorio Veneto,Vittorio Veneto,45.989.946,1.229.327
S02532,Veneto,Carmignano Di Brenta,Carmignano Di Br,45.621.354,11.714.891
S02437,Veneto,Caldiero,Caldiero,4.541.407,11.169.753
S02527,Veneto,Campodarsego,Campodarsego,45.505.721,11.900.894
S05417,Veneto,Ceregnano,Ceregnano,4.505.062,11.870.958
S02514,Veneto,Trebaseleghe,Trebaseleghe,45.581.509,12.040.046
S02592,Veneto,Venezia Porto Marghera,V.Porto Marghera,45.472.381,12.256.536
S02516,Veneto,Spinea,Spinea,45.491.568,12.177.168
S02713,Veneto,S.Trovaso,S.Trovaso,45.627.623,12.233.886
S02594,Veneto,Venezia Marittima,Ve Marittima,4.543.995,12.320.091
S02591,Veneto,Gr Sc Mestre St,Gr Sc St,45.466.808,12.242.832
S02319,Veneto,Primolano,Primolano,45.965.315,11.700.899
S02670,Veneto,Quarto D`Altino,Quarto D'Altino,45.574.576,12.365.032
S02501,Veneto,S.Marino,S.Marino,45.897.699,11.692.241
S02706,Veneto,Conegliano,Conegliano,45.884.706,12.298.909
S02558,Veneto,Ponte Nelle Alpi Polpet,Ponte Nelle Alpi,46.182.328,12.277.604
S02565,Veneto,Quero Vas,Quero Vas,45.939.306,11.920.189
S02508,Veneto,Resana,Resana,45.634.081,11.964.251
S02373,Veneto,Lendinara,Lendinara,45.081.816,11.591.667
S02433,Veneto,Verona Porta Vescovo,Verona P.Vescovo,45.435.552,11.018.841
S02715,Veneto,Preganziol,Preganziol,4.560.367,1.223.138
S05303,Veneto,Roncanova Di Gazzo Ver.,Roncanova,45.142.207,11.097.995
S02521,Veneto,Rosa`,Rosa',4.572.054,11.775.799
S05424,Veneto,Rosolina,Rosolina,45.075.548,12.239.663
S02522,Veneto,Rossano Veneto,Rossano Veneto,45.702.039,11.784.812
S05706,Veneto,Rovigo,Rovigo,45.076.993,11.780.892
S02735,Veneto,S.Croce Del Lago,S.Croce Del Lago,46.094.795,12.324.068
S02088,Veneto,Peschiera Del Garda,Peschiera Garda,45.438.502,10.702.509
S02705,Veneto,Pianzano,Pianzano,45.913.397,12.388.168
S02509,Veneto,Piombino Dese,Piombino Dese,4.560.944,1.200.058
S02559,Veneto,Belluno,Belluno,46.141.594,12.209.703
S02391,Veneto,Bevilacqua,Bevilacqua,45.230.145,11.398.643
S02588,Veneto,Mira Mirano,Mira Mirano,45.462.943,12.118.789
S02717,Veneto,Mogliano Veneto,Mogliano Veneto,45.561.964,1.223.274
S05703,Veneto,Monselice,Monselice,45.246.116,1.174.789
S02392,Veneto,Montagnana,Montagnana,45.228.238,11.459.873
S02443,Veneto,Montebello,Montebello,4.545.251,11.390.803
S02570,Veneto,Montebelluna,Montebelluna,45.776.434,12.054
S02667,Veneto,Fossalta Di Piave,Fossalta Piave,45.624.215,12.500.393
S03201,Veneto,Fossalta Di Portogruaro,Fossalta Di P.,4.578.324,12.907.473
S02374,Veneto,Fratta,Fratta,45.038.673,11.642.598
S02524,Veneto,Fratte Centro,Fratte Centro,45.585.849,11.906.637
S02671,Veneto,Gaggio,Gaggio,45.551.893,12.326.027
S02541,Veneto,Galliera Veneta Tombolo,Galliera Ven.Tom,45.652.901,11.828.066
S02510,Veneto,Noale Scorze`,Noale Scorze',45.553.833,12.074.888
S05310,Veneto,Nogara,Nogara,45.179.937,11.070.572
S02734,Veneto,Nove,Nove,46.050.895,12.313.312
S02704,Veneto,Orsago,Orsago,45.928.068,12.434.259
S02395,Veneto,Ospedaletto Euganeo,Ospedaletto Eug.,45.221.706,11.606.553
S02554,Veneto,Ospitale Di Cadore,Ospitale Di Cad.,46.325.771,12.318.429
S02581,Veneto,Padova,Padova,45.417.846,11.880.794
S02540,Veneto,Paese,Paese,45.669.207,12.161.677
S02602,Veneto,Paese Castagnole,Paese Castagnole,45.691.182,12.182.619
S02600,Veneto,Trevignano Signoressa,Trevignano Sign.,4.574.789,12.103.123
S02712,Veneto,Treviso C.,Treviso C.,45.659.608,1.224.614
S02568,Veneto,Levada,Levada,45.850.158,12.006.657
S02530,Veneto,Lisiera,Lisiera,45.578.581,11.610.695
S02663,Veneto,Lison,Lison,45.751.947,12.759.416
S02556,Veneto,Longarone Zoldo,Longarone Zoldo,46.267.466,12.301.953
S02441,Veneto,Lonigo,Lonigo,45.413.269,11.345.016
S05423,Veneto,Loreo,Loreo,45.059.476,12.191.569
S02512,Veneto,Maerne Di Martellago,Maerne Di Mart.,45.514.799,12.150.629
S02142,Veneto,Marano,Marano,45.706.864,114.246
S02668,Veneto,Meolo,Meolo,4.561.319,12.453.969
S02580,Veneto,Mestrino,Mestrino,45.457.878,11.773.859
S02587,Veneto,Dolo,Dolo,45.453.466,1.207.161
S02055,Veneto,Domegliara,Domegliara,45.522.348,10.820.408
S02330,Veneto,Dossobuono,Dossobuono,45.392.382,10.914.831
S02146,Veneto,Dueville,Dueville,45.635,11.546.108
S02396,Veneto,Este,Este,45.220.954,11.662.931
S02575,Veneto,Fanzolo,Fanzolo,45.708.253,11.992.069
S05710,Veneto,Occhiobello,Occhiobello,44.899.384,11.621.197
S02672,Veneto,Venezia Carpenedo,Venezia Carpen.,45.506.697,12.247.609
S02589,Veneto,Venezia Mestre,Venezia Mestre,45.482.123,12.232.069
S02593,Veneto,Venezia Santa Lucia,Venezia S.Lucia,45.441.569,12.320.882
S02061,Veneto,Verona Ca` Di David,Vr CÃ  Di David,45.384.406,10.994.897
S02430,Veneto,Verona Porta Nuova,Verona P.Nuova,45.428.603,10.982.377
S02446,Veneto,Vicenza,Vicenza,45.541.102,11.540.762
S02528,Veneto,Vigodarzere,Vigodarzere,45.453.289,11.891.641
S02586,Veneto,Vigonza Pianiga,Vigonza Pianiga,45.442.799,12.017.977
S02523,Veneto,Villa Del Conte,Villa Del Conte,45.607.701,11.852.518
S05700,Veneto,Abano Terme,Abano Terme,45.355.199,11.811.533
S05420,Veneto,Adria,Adria,4.506.058,12.054.228
S02538,Veneto,Albaredo,Albaredo,45.670.265,12.015.104
S02444,Veneto,Altavilla Tavernelle,Altavilla Tav.,45.511.805,11.454.702
S05707,Veneto,Arqua`,Arqua',45.006.465,11.748.518
S02370,Veneto,Badia Polesine,Badia Polesine,45.094.439,11.484.722
S02383,Veneto,Bonferraro,Bonferraro,45.185.651,11.009.247
S02390,Veneto,Boschi S.Anna,Boschi S.Anna,45.217.328,11.362.302
S02363,Veneto,Bovolone,Bovolone,45.254.446,11.123.862
S05709,Veneto,P.C.Canaro,P.C. Canaro,44.923.012,11.675.223
S02502,Veneto,Carpane`Valstagna,Carpane'Valstag.,45.860.128,11.661.183
S02506,Veneto,Cassola,Cassola,45.732.291,11.795.866
S02507,Veneto,Castello Di Godego,Castello Godego,45.688.082,1.187.759
S02368,Veneto,Castagnaro,Castagnaro,45.119.349,11.403.936
S02537,Veneto,Castelfranco Veneto,Castelfranco V.,45.666.439,11.934.315
S02093,Veneto,Castelnuovo,Castelnuovo D.G.,45.430.843,10.758.273
S05425,Veneto,Cavanella D`Adige,Cavan.Adige,45.111.263,12.249.312
S05422,Veneto,Cavanella Po,Cavanella Po,45.052.208,12.134.893
S02147,Veneto,Cavazzale,Cavazzale,45.596.079,11.569.823
S02665,Veneto,Ceggia,Ceggia,45.688.394,12.633.987
S02364,Veneto,Cerea,Cerea,45.196.556,11.213.921
S02563,Veneto,Busche Lentiai Mel,Busche Lentiai M,46.040.092,11.979.251
S05428,Veneto,Chioggia,Chioggia,45.210.243,12.275.235
S02500,Veneto,Cismon Del Grappa,Cismon D.Grappa,45.919.664,11.729.272
S02535,Veneto,Cittadella,Cittadella,45.643.868,11.789.857
S02140,Veneto,Schio,Schio,45.710.848,11.355.508
S02560,Veneto,Sedico Bribano,Sedico Bribano,46.095.424,12.086.508
S02732,Veneto,Soffratta,Soffratta,45.976.377,12.299.346
S02504,Veneto,Solagna,Solagna,45.815.434,1.172.134
S02709,Veneto,Spresiano,Spresiano,4.577.763,12.266.984
S05705,Veneto,Stanghella,Stanghella,4.513.209,11.749.094
S02708,Veneto,Susegana,Susegana,45.821.054,12.258.364
S02662,Veneto,Teglio Veneto,Teglio Veneto,45.809.887,12.858.938
S05701,Veneto,Terme Euganee-Abano-Montegr.,Terme Euganee,4.532.744,1.179.604
S02564,Veneto,Feltre,Feltre,46.012.884,11.911.493
S02534,Veneto,Fontaniva,Fontaniva,45.634.723,11.749.038
S02569,Veneto,Cornuda,Cornuda,45.833.846,12.012.886
S02375,Veneto,Costa,Costa,45.045.766,11.696.511
S05307,Veneto,Isola Della Scala,Isola D. Scala,45.269.474,11.013.312
S05418,Veneto,Lama,Lama,45.043.466,11.913.123
S02710,Veneto,Lancenigo,Lancenigo,45.710.087,12.265.663
S02366,Veneto,Legnago,Legnago,45.189.034,11.304.724
S02578,Veneto,Lerino,Lerino,45.518.725,1.163.567
S05419,Veneto,Baricetta,Baricetta,45.060.889,11.995.348
S02520,Veneto,Bassano Del Grappa,Bassano Del Gr.,45.766.697,11.741.525
S05702,Veneto,Battaglia Terme,Battaglia Terme,45.291.475,1.177.838
S02531,Veneto,S.Pietro In Gu`,S.Pietro In Gu',45.605.039,11.673.157
S02664,Veneto,S. Stino Di Livenza,S. Stino Di Liv.,45.721.088,12.682.769
S02394,Veneto,Saletto,Saletto,4.522.274,11.535.093
S02511,Veneto,Salzano Robegano,Salzano Robegano,45.535.378,12.111.485
S02384,Veneto,Sanguinetto,Sanguinetto,45.188.811,11.152.467
S02567,Veneto,Pederobba Cavaso Possagno,Pederobba Cav.P.,45.877.299,11.965.222
S02553,Veneto,Perarolo Di Cadore,Perarolo Di Cad.,46.386.277,12.352.493
S02052,Veneto,Peri,Peri,45.658.402,10.900.314
S02332,Veneto,Mozzecane,Mozzecane,45.306.687,10.823.657
S05301,Veneto,Buttapietra,Buttapietra,45.338.787,10.988.059
S02550,Veneto,Calalzo Pieve Cadore Cortina,Calalzo Pc Cort.,46.443.829,12.388.668
S02525,Veneto,Camposampiero,Camposampiero,45.568.922,11.928.293
S02601,Veneto,Postioma,Postioma,45.715.862,12.148.248
S02505,Veneto,Pove Del Grappa Campese,Pove S.G.Campese,45.803.248,11.719.936
S00148,Valle D'Aosta,Donnaz,Donnaz,45.602.713,7.769.563
S00134,Valle D'Aosta,Arvier,Arvier,45.704.259,7.166.681
S00146,Valle D'Aosta,Aosta Viale Europa,Aosta V.Europa,45.733.294,7.297.371
S00133,Valle D'Aosta,Avise,Avise,45.706.296,7.131.285
S00135,Valle D'Aosta,Villeneuve,Villeneuve,45.706.648,7.213.481
S00149,Valle D'Aosta,Pont Saint Martin,Pont S.Martin,45.589.834,7.795.024
S00140,Valle D'Aosta,Nus,Nus,45.738.786,74.712
S00145,Valle D'Aosta,Verres,Verres,45.659.822,7.690.012
S00162,Valle D'Aosta,Derby,Derby,45.730.289,7.087.018
S00136,Valle D'Aosta,Sarre,Sarre,45.717.919,7.258.468
S00144,Valle D'Aosta,Montjovet,Montjovet,45.704.586,7.666.871
S00131,Valle D'Aosta,Morgex,Morgex,45.757.055,7.033.898
S00130,Valle D'Aosta,Pre` Saint Didier,Pre' S. Didier,457.636,699.105
S00138,Valle D'Aosta,Quart,Quart,45.741.372,7.414.645
S00147,Valle D'Aosta,Hone Bard,Hone Bard,45.613.918,7.741.345
S00132,Valle D'Aosta,La Salle,La Salle,45.744.637,7.061.987
S00161,Valle D'Aosta,Saint Pierre,Saint Pierre,45.708.146,7.229.338
S00141,Valle D'Aosta,Chambave,Chambave,45.744.163,7.557.301
S00142,Valle D'Aosta,Chatillon Saint Vincent,Chatillon S.V.,457.434,7.619.309
S00137,Valle D'Aosta,Aosta,Aosta,4.573.407,7.322.424
S00143,Valle D'Aosta,Aosta Istituto,Aosta Istituto,45.732.938,7.303.076
S08202,Umbria,Allerona-Castel Viscardo,Allerona,4.278.502,12.035.236
S08206,Umbria,Alviano,Alviano,42.591.917,12.259.583
S07008,Umbria,Assisi,Assisi,43.058.921,12.585.304
S08207,Umbria,Attigliano,Attigliano,42.518.054,12.294.761
S07009,Umbria,Cannara,Cannara,43.019.591,12.628.709
S07215,Umbria,Capodacqua Pieve Fanonica,Capodacqua P.F.,43.026.769,127.541
S06923,Umbria,Castiglion Del Lago,Castigl.Del Lago,43.123.195,12.032.077
S07216,Umbria,Scanzano Belfiore,Scanzano B.,42.983.918,12.737.692
S07226,Umbria,Terni,Terni,42.570.768,12.651.091
S07430,Umbria,Terni Cospea,Terni Cospea,42.549.615,12.625.075
S07217,Umbria,Foligno,Foligno,42.954.261,12.711.096
S06924,Umbria,Pm Panicale Sanfatucchio,P.M.Panicale S.,43.065.535,12.056.347
S07001,Umbria,Passignano Sul Trasimeno,Passignano T.,43.188.324,12.133.128
S08224,Umbria,Pc Allerona,P.C.  Allerona,42.804.432,12.016.229
S07225,Umbria,Giuncano,Giuncano,42.647.802,12.637.694
S07211,Umbria,Gualdo Tadino,Gualdo T.,43.233.475,127.672
S07224,Umbria,Baiano Di Spoleto,Baiano Di S.,42.726.238,12.663.615
S08204,Umbria,Baschi-Montecchio,Baschi Montecc.,4.268.685,12.203.496
S07007,Umbria,Bastia,Bastia,4.307.133,12.547.735
S08225,Umbria,Pc Orvieto,P.C. Orvieto,41.979.641,12.508.456
S07229,Umbria,Nera Montoro,Nera Montoro,42.497.855,12.476.587
S07219,Umbria,Campello,Campello,42.822.814,12.761.253
S07004,Umbria,Perugia,Perugia,43.103.808,12.375.567
S07005,Umbria,Perugia Ponte S.Giovanni,Perugia P.S.G.,43.091.801,12.438.239
S07014,Umbria,Monte Melino,Monte Melino,43.106.303,12.249.698
S07209,Umbria,Fossato Di Vico Gubbio,Fossato Di V.G.,43.283.798,12.757.258
S07212,Umbria,Gaifana,Gaifana,43.181.837,12.784.148
S08203,Umbria,Orvieto,Orvieto,42.723.379,12.127.412
S07012,Umbria,Ospedalicchio,Ospedalicchio,43.082.369,12.506.572
S07011,Umbria,Torricella,Torricella,43.159.149,12.188.249
S07218,Umbria,Trevi,Trevi,428.762,12.733.709
S07000,Umbria,Tuoro Sul Trasimeno,Tuoro Sul Tr.,43.196.631,120.796
S07002,Umbria,Magione,Magione,43.137.356,12.202.238
S07003,Umbria,Ellera Corciano,Ellera Corciano,43.094.699,12.318.574
S07230,Umbria,Narni Amelia,Narni Amelia,4.253.128,12.519.592
S07213,Umbria,Nocera Umbra,Nocera Umbra,43.100.663,12.767.207
S07233,Umbria,Ponte Parrano Di Nocera Umbra,Ponte Parrano,43.137.437,12.776.376
S07221,Umbria,Spoleto,Spoleto,42.748.121,12.736.142
S07220,Umbria,S.Giacomo Di Spoleto,S.Giacomo Di S.,4.279.015,12.755.445
S07214,Umbria,Valtopina,Valtopina,4.305.689,12.755.068
S07010,Umbria,Spello,Spello,429.844,12.668.884
S07235,Umbria,S.Liberato,S.Liberato,42.478.853,12.443.006
S07400,Umbria,Stroncone,Stroncone,42.517.955,1.265.372
S07401,Umbria,Marmore,Marmore,42.547.499,12.715.224
S08200,Umbria,Citta` Della Pieve,Citta' D. Pieve,42.936.221,11.971.127
S08201,Umbria,Fabro-Ficulle,Fabro Ficulle,42.874.851,1.204.123
S08205,Umbria,Castiglione In Teverina,Castiglione In T,42.648.544,12.234.913
S02050,Trentino Alto Adige,Avio,Avio,45.733.892,10.955.842
S02226,Trentino Alto Adige,Bolzano Sud,Bolzano Sud,46.472.617,1.133.334
S02051,Trentino Alto Adige,Borghetto,Borghetto,45.696.721,10.927.083
S02208,Trentino Alto Adige,Castelbello,Castelbello,46.626.994,10.897.884
S02105,Trentino Alto Adige,Casteldarne,Casteldarne,46.797.708,11.844.223
S02014,Trentino Alto Adige,Bressanone,Bressanone,46.710.088,11.649.677
S02030,Trentino Alto Adige,Bronzolo,Bronzolo,4.640.505,11.315.833
S02107,Trentino Alto Adige,Brunico,Brunico,46.794.922,11.929.989
S02017,Trentino Alto Adige,Chiusa,Chiusa,46.642.611,11.572.678
S02209,Trentino Alto Adige,Ciardes,Ciardes,46.635.274,10.940.542
S02206,Trentino Alto Adige,Coldrano-Martello,Coldrano-Martell,46.618.902,10.821.204
S02005,Trentino Alto Adige,Colle Isarco,Colle Isarco,46.937.951,11.441.336
S02048,Trentino Alto Adige,Serravalle,Serravalle,45.808.184,11.014.942
S02224,Trentino Alto Adige,Settequerce,Settequerce,46.508.448,11.264.785
S02205,Trentino Alto Adige,Silandro,Silandro,46.625.613,10.766.327
S02202,Trentino Alto Adige,Spondigna-Prato Venosta,Spondigna-Prato,46.634.571,1.060.999
S02223,Trentino Alto Adige,Terlano-Andriano,Terlano-Andriano,46.528.517,11.248.394
S02317,Trentino Alto Adige,Grigno,Grigno,46.015.059,11.624.984
S02207,Trentino Alto Adige,Laces,Laces,46.619.692,1.085.863
S02029,Trentino Alto Adige,Laives,Laives,4.643.409,11.323.533
S02204,Trentino Alto Adige,Lasa,Lasa,46.618.617,10.694.828
S02037,Trentino Alto Adige,Lavis,Lavis,46.148.306,11.095.993
S02046,Trentino Alto Adige,Mori,Mori,45.861.216,11.002.648
S02211,Trentino Alto Adige,Naturno,Naturno,46.645.095,11.004.303
S02308,Trentino Alto Adige,Caldonazzo,Caldonazzo,45.997.575,11.264.815
S02007,Trentino Alto Adige,Campo Di Trens,Campo Di Trens,46.869.076,11.488.231
S02312,Trentino Alto Adige,Roncegno Bagni-Marter,Roncegno,4.603.618,11.398.818
S02306,Trentino Alto Adige,S.Cristoforo Al Lago-Ischia,S.Cristoforo,46.039.743,1.123.375
S02111,Trentino Alto Adige,Monguelfo Valle Di Casies,Monguelfo,46.752.775,12.107.264
S02031,Trentino Alto Adige,Ora,Ora,4.636.092,11.296.781
S02203,Trentino Alto Adige,Oris,Oris,46.626.672,10.645.989
S02110,Trentino Alto Adige,Valdaora - Anterselva,Valdaora - Anter,46.769.231,1.202.898
S02309,Trentino Alto Adige,Levico,Levico,46.005.729,1.130.493
S02033,Trentino Alto Adige,Magre`- Cortaccia,Magre'-Cortaccia,46.287.976,11.232.646
S02200,Trentino Alto Adige,Malles Venosta,Malles Venosta,46.684.542,10.546.445
S02217,Trentino Alto Adige,Merano Maia Bassa,Merano Maia Bass,46.656.202,11.147.931
S02035,Trentino Alto Adige,Mezzocorona,Mezzocorona,46.207.258,11.128.595
S02113,Trentino Alto Adige,Dobbiaco,Dobbiaco,46.725.049,12.225.122
S02032,Trentino Alto Adige,Egna-Termeno,Egna-Termeno,46.319.418,11.257.177
S02305,Trentino Alto Adige,Pergine,Pergine,46.062.482,11.232.637
S02112,Trentino Alto Adige,Villabassa - Braies,Villabassa,46.736.492,12.167.041
S02300,Trentino Alto Adige,Villazzano,Villazzano,46.045.911,1.113.906
S02222,Trentino Alto Adige,Vilpiano-Nalles,Vilpiano-Nalles,46.554.251,11.220.143
S02225,Trentino Alto Adige,Ponte D`Adige,Ponte D'Adige,46.485.444,11.297.719
S02020,Trentino Alto Adige,Ponte Gardena,Ponte Gardena,466.012,1.153.251
S02201,Trentino Alto Adige,Sluderno-Glorenza,Sluderno-Glorenz,46.664.329,10.581.832
S02315,Trentino Alto Adige,Strigno,Strigno,46.051.003,11.514.327
S02049,Trentino Alto Adige,Ala,Ala,45.760.087,10.996.775
S02318,Trentino Alto Adige,Tezze Di Grigno,Tezze Di Grigno,45.990.485,11.669.726
S02212,Trentino Alto Adige,Plaus,Plaus,4.665.844,11.041.057
S02214,Trentino Alto Adige,Marlengo,Marlengo,46.664.558,11.138.577
S02314,Trentino Alto Adige,Borgo Valsugana Est,Borgo Valsug. E.,4.605.224,11.462.119
S02307,Trentino Alto Adige,Calceranica,Calceranica,46.007.384,11.240.713
S02103,Trentino Alto Adige,Vandoies,Vandoies,46.814.822,11.723.079
S02003,Trentino Alto Adige,Trento S.Chiara,Trento S.Chiara,46.056.242,1.113.624
S02102,Trentino Alto Adige,Rio Di Pusteria,Rio Di Pusteria,4.679.712,11.670.028
S02034,Trentino Alto Adige,Salorno,Salorno,46.245.842,11.202.681
S02219,Trentino Alto Adige,Lana-Postal,Lana-Postal,46.608.079,11.182.252
S02006,Trentino Alto Adige,Vipiteno,Vipiteno,46.895.732,11.440.206
S02313,Trentino Alto Adige,Borgo Valsugana Centro,Borgo Valsugana,46.051.182,11.453.967
S02044,Trentino Alto Adige,Rovereto,Rovereto,45.890.985,11.033.518
S02038,Trentino Alto Adige,Trento,Trento,46.072.414,11.118.941
S02026,Trentino Alto Adige,Bolzano,Bolzano,46.496.346,11.358.556
S02011,Trentino Alto Adige,Fortezza,Fortezza,46.788.841,11.609.922
S02114,Trentino Alto Adige,S.Candido,S.Candido,46.732.728,12.271.917
S02216,Trentino Alto Adige,Merano,Merano,46.673.066,11.148.978
S06516,Toscana,Le Piagge,Le Piagge,43.789.684,11.171.665
S06804,Toscana,Cambiano,Cambiano,43.631.183,10.958.997
S06024,Toscana,Castellina Marittima,Castellina Marit,43.406.122,10.495.776
S06302,Toscana,Castelvecchio Pascoli,Castelvecchio P.,4.409.007,10.455.061
S06729,Toscana,Castiglioncello,Castiglioncello,43.404.619,10.414.354
S06803,Toscana,Certaldo,Certaldo,43.547.124,11.037.711
S06430,Toscana,Firenze Statuto,Firenze Statuto,43.787.273,11.249.738
S06920,Toscana,Castiglion Fiorentino,Castigl.Fiorent.,4.334.075,11.914.362
S06925,Toscana,Chiusi C.T.,Chiusi C.T.,43.002.466,11.957.893
S08007,Toscana,Chiarone,Chiarone,42.387.528,11.446.123
S06825,Toscana,Asciano Monte Oliveto Maggiore,Asciano M.O.M.,43.231.706,11.563.621
S06950,Toscana,Binario S.Marco Vecchio,Binario.S.M.V.,43.790.336,11.267.403
S06402,Toscana,Ripafratta,Ripafratta,43.821.711,10.415.733
S06509,Toscana,S.Miniato Fucecchio,S.Miniato F.,43.701.383,10.831.605
S06313,Toscana,S. Pietro A Vico,S. Pietro A Vico,43.875.094,10.530.945
S06508,Toscana,S.Romano Montopoli S.Croce,S.Romano,43.690.575,10.760.152
S06413,Toscana,Serravalle Pistoiese,Serravalle Pist.,43.908.016,1.085.168
S06906,Toscana,Rignano Sull`Arno Reggello,Rignano S.Arno,43.720.834,11.452.383
S06421,Toscana,Firenze S.M.N.,Firenze S.M.N.,43.776.893,11.247.373
S06011,Toscana,Forte Dei Marmi Serravezza Q.,Forte Dei Marmi,4.397.777,1.019.936
S06957,Toscana,Il Cionfo Bin. Le Cure,Cionfo Binlecure,43.786.182,11.268.501
S06904,Toscana,Pontassieve,Pontassieve,43.773.949,11.437.904
S06807,Toscana,Ponte A Elsa,Ponte A Elsa,43.694.385,10.906.008
S06312,Toscana,Ponte A Moriano,Ponte A Moriano,43.908.371,10.534.264
S06869,Toscana,Ponte A Tressa,Ponte A Tressa,43.250.844,1.139.617
S06752,Toscana,Ponte Ginori,Ponte Ginori,43.335.594,10.740.536
S06913,Toscana,Ponticino,Ponticino,43.481.446,1.171.657
S06163,Toscana,Pontremoli,Pontremoli,44.371.976,9.887.795
S06612,Toscana,Popolano,Popolano,44.102.323,11.649.045
S06406,Toscana,Porcari,Porcari,43.831.263,10.619.212
S06037,Toscana,Giuncarico,Giuncarico,42.915.473,11.008.362
S06907,Toscana,Incisa,Incisa,43.656.541,11.452.728
S06914,Toscana,Indicatore,Indicatore,43.480.067,11.803.468
S06514,Toscana,S.Donnino Badia,S.Donnino Badia,43.785.424,11.142.169
S06905,Toscana,S.Ellero,S.Ellero,43.742.143,11.469.621
S06504,Toscana,S.Frediano A Settimo,S.Frediano A S.,43.680.508,10.517.254
S06909,Toscana,S.Giovanni Valdarno,S.Giovanni V.No,4.356.601,11.527.033
S06023,Toscana,Santa Luce,Santa Luce,43.437.248,1.048.971
S06805,Toscana,Poggibonsi,Poggibonsi,43.468.093,11.149.455
S06323,Toscana,Poggio - Careggine - Vagli,Poggio-Car.-Vag.,44.148.541,10.350.626
S06226,Toscana,Equi Terme,Equi Terme,44.170.282,10.153.624
S06922,Toscana,Terontola Cortona,Terontola,43.210.263,12.007.906
S06167,Toscana,Terrarossa - Tresana,Terrarossa-Tres.,44.237.379,9.959.675
S06720,Toscana,Tombolo,Tombolo,43.631.726,10.352.916
S06951,Toscana,Il Cionfo Bin. Salviati,Cionfo Bin.Salvi,43.798.687,11.273.076
S06952,Toscana,Pian Del Mugnone,Pian Del Mugnone,43.813.899,11.265.994
S06953,Toscana,Fiesole Caldine,Fiesole Caldine,43.833.697,11.266.047
S06954,Toscana,Mimmole,Mimmole,43.858.111,11.265.292
S06601,Toscana,Montorsoli,Montorsoli,43.881.903,11.265.484
S06956,Toscana,Cercina,Cercina,43.900.121,11.265.279
S06619,Toscana,Fontebuona,Fontebuona,4.391.751,11.265.553
S06602,Toscana,Vaglia,Vaglia,43.924.442,11.284.576
S06659,Toscana,Campomigliaio,Campomigliaio,43.937.241,11.303.593
S06705,Toscana,Scopeti,Scopeti,43.841.117,11.497.001
S08003,Toscana,Albinia,Albinia,42.502.165,1.121.134
S06811,Toscana,Arbia,Arbia,43.294.393,11.406.225
S05118,Toscana,San Momme`,San Momme',44.027.999,10.914.798
S05135,Toscana,Vernio Montepiano Cantagallo,Vernio,44.043.991,11.152.342
S06029,Toscana,Castagneto Carducci,Castagneto C.,4.316.816,1.056.399
S06306,Toscana,Ghivizzano - Coreglia,Ghivizzano-Cor.,44.027.583,10.510.183
S06350,Toscana,Massarosa Bozzano,Massarosa Bozzan,43.855.652,10.352.022
S06400,Toscana,S.Giuliano Terme,S.Giuliano Terme,43.764.895,10.436.892
S06405,Toscana,Tassignano,Tassignano,43.834.131,10.570.495
S06410,Toscana,Borgo A Buggiano,Borgo A Buggiano,43.880.724,10.730.079
S06411,Toscana,Montecatini Terme,Montecatini T.,43.879.327,10.780.588
S06420,Toscana,Firenze Rifredi,Firenze Rifredi,43.800.873,11.235.729
S06422,Toscana,Prato Porta Al Serraglio,Prato P.Serragl.,43.884.637,11.097.385
S06506,Toscana,Pontedera Casciana Terme,Pontedera C.T.,43.662.145,10.628.773
S06511,Toscana,Montelupo Capraia,Montelupo,43.733.357,11.018.997
S06725,Toscana,Livorno Centrale,Livorno C.Le,4.355.406,10.336.593
S06773,Toscana,Populonia,Populonia,42.996.412,10.540.659
S06774,Toscana,Fiorentina Di Piombino,Fiorentina P.,42.969.321,1.054.235
S06802,Toscana,Castelfiorentino,Castelfiorentino,4.360.542,10.968.048
S06812,Toscana,Castelnuovo Berardenga,Castelnuovo Ber.,43.306.882,11.484.912
S06816,Toscana,S.Giovanni D`Asso,S.Giovanni D'As.,43.153.292,11.593.803
S06823,Toscana,Roccastrada,Roccastrada,42.957.631,11.192.942
S06854,Toscana,Torrita Di Siena,Torrita Di Siena,43.174.187,1.178.758
S06857,Toscana,Serre Di Rapolano,Serre Di Rapol.,43.284.347,11.558.209
S06867,Toscana,Siena Zona Industriale,Siena Zona Ind.,4.326.528,11.376.652
S06871,Toscana,Monteroni D`Arbia,Monteroni D'Arb.,43.230.036,11.419.662
S06874,Toscana,Buonconvento,Buonconvento,43.135.503,11.483.773
S06901,Toscana,Fi Rovezzano,Fi Rovezzano,43.768.657,11.307.372
S06013,Toscana,Aulla Lunigiana,Aulla Lunigiana,44.210.555,9.970.015
S06753,Toscana,Volterra Saline - Pomarance,Volterra Saline,4.335.962,10.808.269
S06031,Toscana,Campiglia Marittima,Campiglia M.Ma,43.017.118,10.586.558
S06324,Toscana,Camporgiano,Camporgiano,44.161.448,10.334.849
S06772,Toscana,Piombino Binari Porto Vecchio,Piomb.Bin.P.V.,42.931.641,10.539.901
S05113,Toscana,Pracchia,Pracchia,4.405.479,1.090.691
S06423,Toscana,Pratignone,Pratignone,43.849.273,11.162.008
S06416,Toscana,Prato Centrale,Prato C.Le,43.878.737,11.109.252
S06728,Toscana,Quercianella,Quercianella,43.454.922,1.037.255
S06850,Toscana,Rapolano Terme,Rapolano Terme,43.283.331,11.602.504
S06401,Toscana,Rigoli,Rigoli,43.789.681,10.419.663
S06851,Toscana,Rigomagno,Rigomagno,43.256.767,11.706.492
S06750,Toscana,Riparbella,Riparbella,43.339.461,10.582.184
S06606,Toscana,Ronta,Ronta,44.009.432,11.434.125
S06730,Toscana,Rosignano,Rosignano,43.387.899,10.438.041
S06703,Toscana,Rufina,Rufina,43.822.236,11.485.072
S06325,Toscana,Piazza Al Serchio,Piazza Al Serch.,44.182.515,10.296.615
S06012,Toscana,Pietrasanta,Pietrasanta,4.395.583,10.229.731
S06770,Toscana,Piombino,Piombino,42.924.854,10.530.959
S06775,Toscana,Piombino Binari Mare,Piomb.Bin.Mare,42.928.931,1.054.525
S06450,Toscana,Pisa Binari Aeroporto,Pisa Bin.Aerop.,43.698.555,10.398.436
S06500,Toscana,Pisa Centrale,Pisa Centrale,4.370.794,10.398.183
S06501,Toscana,Pisa San Rossore,Pisa S.Rossore,43.723.702,10.387.363
S06414,Toscana,Pistoia,Pistoia,43.926.804,10.914.624
S06415,Toscana,Montale Agliana,Montale Agliana,43.912.924,11.008.309
S06856,Toscana,Montallese,Montallese,43.064.888,1.190.928
S06820,Toscana,Monte Antico,Monte Antico,42.981.054,11.359.819
S06408,Toscana,Montecarlo San Salvatore,Montecarlo S.Sal,43.850.798,1.068.537
S06412,Toscana,Montecatini Centro,Montecatini C.,43.881.216,1.077.081
S06038,Toscana,Montepescali,Montepescali,42.869.518,11.068.743
S06855,Toscana,Montepulciano,Montepulciano,43.135.353,11.856.865
S06301,Toscana,Fosciandora - Ceserana,Fosciandora-Ces.,44.118.559,10.444.212
S06351,Toscana,Nozzano,Nozzano,43.829.956,1.040.716
S08004,Toscana,Orbetello,Orbetello,42.450.615,11.248.972
S06022,Toscana,Orciano,Orciano,43.500.263,10.477.566
S06220,Toscana,Pallerone,Pallerone,44.204.232,10.005.173
S06015,Toscana,Torre Del Lago Puccini,Torre Del Lago,43.826.501,10.290.287
S06817,Toscana,Torrenieri,Torrenieri,43.086.602,11.552.385
S06025,Toscana,Vada,Vada,43.352.641,10.470.376
S05136,Toscana,Vaiano,Vaiano,43.961.772,11.130.773
S05117,Toscana,Valdibrana,Valdibrana,43.965.434,10.909.994
S06702,Toscana,Contea Londa,Contea Londa,43.865.124,11.531.603
S06404,Toscana,Lucca,Lucca,43.837.186,10.506.069
S06610,Toscana,Marradi,Marradi,4.407.973,11.619.174
S06009,Toscana,Massa Centro,Massa Centro,44.023.741,10.136.041
S06227,Toscana,Minucciano - Pieve - Casola,Minucciano P. C.,44.194.385,10.193.837
S06426,Toscana,Prato Borgonuovo,Prato Borgonuovo,43.893.216,11.076.222
S06701,Toscana,Dicomano,Dicomano,43.893.489,11.519.148
S06310,Toscana,Diecimo - Pescaglia,Diecimo-Pescagl.,43.959.404,10.507.844
S06510,Toscana,Empoli,Empoli,43.715.708,1.094.915
S06303,Toscana,Barga Gallicano,Barga-Gallicano,44.068.114,10.451.938
S06502,Toscana,Navacchio,Navacchio,43.685.941,10.486.806
S06409,Toscana,Pescia,Pescia,43.886.811,10.686.074
S05116,Toscana,Piteccio,Piteccio,44.009.786,109.013
S06040,Toscana,Viareggio,Viareggio,43.865.947,10.257.886
S06017,Toscana,Vicarello,Vicarello,43.609.253,10.460.442
S06700,Toscana,Vicchio,Vicchio,43.933.463,11.457.634
S06032,Toscana,Vignale Riotorto,Vignale Riotorto,42.967.587,10.667.255
S06166,Toscana,Villafranca - Bagnone,Villafranca-Bagn,44.294.399,9.948.096
S06322,Toscana,Villetta S. Romano,Villetta S. Rom.,44.146.764,10.367.565
S06425,Toscana,Zambra,Zambra,43.825.856,11.206.206
S06603,Toscana,S.Piero A Sieve,S.Piero A Sieve,43.958.317,11.322.742
S06021,Toscana,Fauglia - Lorenzana,Fauglia-Lorenz.,43.551.831,1.050.304
S08001,Toscana,Alberese,Alberese,42.634.158,111.352
S06407,Toscana,Altopascio,Altopascio,43.817.418,10.672.754
S06727,Toscana,Antignano,Antignano,43.492.482,10.328.827
S06915,Toscana,Arezzo,Arezzo,43.461.725,11.874.189
S06813,Toscana,Asciano,Asciano,43.235.245,11.579.237
S06168,Toscana,Aulla,Aulla,44.209.662,9.970.632
S06056,Toscana,Bivio Mortellini,Bivio Mortellini,43.661.224,10.369.478
S06826,Toscana,P.M. Badesse,P.M. Badesse,43.382.144,11.277.136
S06611,Toscana,Biforco,Biforco,44.068.431,11.602.243
S06028,Toscana,Bolgheri,Bolgheri,43.244.664,10.550.548
S06309,Toscana,Borgo A Mozzano,Borgo A Mozzano,43.977.207,10.541.285
S06604,Toscana,Borgo S. Lorenzo,Borgo S.L.,43.959.822,11.380.422
S06704,Toscana,Borgo S.L.Rimorelli,Borgo S.L.Rimor.,43.953.279,11.400.076
S06921,Toscana,Camucia Cortona,Camucia Cortona,43.261.104,11.971.245
S08006,Toscana,Capalbio,Capalbio,42.407.974,11.370.982
S06005,Toscana,Carrara Avenza,Carrara Avenza,44.051.239,10.062.927
S06505,Toscana,Cascina,Cascina,43.674.542,10.545.225
S06751,Toscana,Casino Di Terra,Casino Di Terra,43.328.581,10.662.975
S05122,Toscana,Castagno,Castagno,44.012.359,1.091.538
S06808,Toscana,Castellina Ch,Castellina Ch.,43.408.744,11.212.379
S06300,Toscana,Castelnuovo Di Garfagnana,Castelnuovo Gar.,44.116.351,10.409.054
S06026,Toscana,Cecina,Cecina,4.331.028,10.514.225
S06911,Toscana,Bucine,Bucine,43.480.478,11.617.609
S06822,Toscana,Civitella Paganico,Civitella,4.294.028,11.283.536
S06840,Toscana,Colle Val D`Elsa,Colle V.D'Elsa,43.421.908,11.127.681
S06018,Toscana,Collesalvetti,Collesalvetti,43.586.586,10.470.534
S06902,Toscana,Compiobbi,Compiobbi,43.782.527,11.358.695
S06035,Toscana,Scarlino,Scarlino,42.942.002,10.836.798
S06164,Toscana,Scorcetoli,Scorcetoli,4.434.431,9.911.853
S06418,Toscana,Sesto Fiorentino,Sesto Fiorentino,43.833.297,11.191.941
S06903,Toscana,Sieci,Sieci,43.790.892,11.394.608
S06809,Toscana,Siena,Siena,43.331.708,11.322.972
S06513,Toscana,Signa,Signa,43.775.441,11.095.961
S06852,Toscana,Sinalunga,Sinalunga,43.216.189,11.744.866
S06824,Toscana,Sticciano,Sticciano,42.929.333,11.118.621
S08002,Toscana,Talamone,Talamone,4.256.461,11.164.524
S06900,Toscana,Firenze Campo Marte,Firenze C.Marte,43.776.856,1.127.702
S06515,Toscana,Firenze Cascine,Firenze Cascine,43.792.161,1.119.844
S06419,Toscana,Firenze Castello,Firenze Castello,43.819.444,1.121.838
S06908,Toscana,Figline Valdarno,Figline Valdarno,43.621.596,11.473.652
S06165,Toscana,Filattiera,Filattiera,4.433.137,9.933.352
S06223,Toscana,Fivizzano - Gassano,Fivizzano-Gass.,44.202.672,10.091.691
S06222,Toscana,Fivizzano Rometta - Soliera,F.Rometta-Solie.,44.201.526,1.005.953
S06033,Toscana,Follonica,Follonica,42.926.687,10.755.775
S06304,Toscana,Fornaci Di Barga,Fornaci Di Barga,44.045.253,10.473.173
S06605,Toscana,Panicaglia,Panicaglia,43.978.449,11.407.511
S05115,Toscana,Corbezzi,Corbezzi,43.993.948,10.919.676
S06036,Toscana,Gavorrano,Gavorrano,42.947.959,109.338
S06224,Toscana,Gragnola,Gragnola,44.191.069,10.109.245
S06801,Toscana,Granaiolo,Granaiolo,43.652.244,10.945.223
S06039,Toscana,Grosseto,Grosseto,4.276.728,111.065
S06424,Toscana,Il Neto,Il Neto,43.839.624,11.182.656
S06912,Toscana,Laterina,Laterina,43.496.458,11.660.573
S06308,Toscana,Bagni Di Lucca,Bagni Di Lucca,44.003.447,10.551.631
S06030,Toscana,S. Vincenzo,S. Vincenzo,43.100.366,10.539.823
S06910,Toscana,Montevarchi Terranuova,Montevarchi T.,43.525.165,11.563.983
S06403,Toscana,Doppio Bivio Montuolo,D.B.Montuolo,4.383.172,10.428.321
S06225,Toscana,Monzone-M.Dei Banchi-Isolano,Monzone,44.165.637,10.123.827
S06876,Toscana,Murlo,Murlo,4.311.398,11.400.394
S06417,Toscana,Calenzano,Calenzano,43.856.429,1.114.537
S06043,Toscana,Camaiore Lido Capezzano,Camaiore Lido C.,43.912.176,1.024.765
S12327,Sicilia,Guardia Mangano Santa Venerina,Guardia Mangano,37.661.812,15.169.447
S12332,Sicilia,Catania Centrale,Catania Centrale,37.506.211,15.099.417
S12337,Sicilia,Catania Acquicella,Catania Acq.Lla,37.492.765,15.074.699
S12342,Sicilia,Agnone Di S.,Agnone S.,37.305.203,15.077.155
S12344,Sicilia,Brucoli,Brucoli,37.272.883,15.186.876
S12360,Sicilia,Motta Camastra,Motta Camastra,37.890.651,15.163.764
S12380,Sicilia,Caltanissetta Xirbi,Caltanissetta X.,37.536.296,14.056.902
S12408,Sicilia,Dirillo,Dirillo,37.006.569,1.439.154
S12410,Sicilia,Vittoria,Vittoria,36.958.721,1.452.499
S12412,Sicilia,Donnafugata,Donnafugata,36.882.055,14.568.968
S12417,Sicilia,Modica,Modica,368.529,14.754.255
S12428,Sicilia,S.Teresa Longarini,S.Teresa Longar.,37.006.456,15.246.277
S12430,Sicilia,Gela-Anic,Gela-Anic,37.055.601,14.284.207
S12799,Sicilia,Carini Torre Ciachea,Carini Torre C.,3.816.149,13.219.641
S12244,Sicilia,Catenanuova,Catenanuova,37.562.026,14.688.263
S12121,Sicilia,Orsa,Orsa,38.190.454,13.119.126
S12019,Sicilia,Cefalu`,Cefalu',3.803.285,14.019.526
S12003,Sicilia,Mili Marina,Mili Marina,38.125.758,15.519.042
S12005,Sicilia,Ponte S.Stefano,Ponte S.Stefano,38.097.147,15.503.587
S12006,Sicilia,Villabate,Villabate,38.086.094,13.451.314
S12393,Sicilia,Priolo Soprano,Priolo Soprano,37.092.142,14.377.888
S12416,Sicilia,Ragusa Ibla,Ragusa Ibla,3.693.133,14.750.993
S12383,Sicilia,Serradifalco,Serradifalco,37.431.804,13.883.299
S12420,Sicilia,Pozzallo,Pozzallo,36.733.821,14.848.708
S12201,Sicilia,Sciara A.,Sciara A.,37.903.207,13.774.128
S12349,Sicilia,Siracusa,Siracusa,37.068.906,15.280.896
S12243,Sicilia,Sparagogna,Sparagogna,37.571.355,14.632.266
S12400,Sicilia,Licata,Licata,37.106.024,13.938.114
S12354,Sicilia,Castelluccio Siculo,Castelluc. Sic.,37.302.714,15.137.547
S12061,Sicilia,Torregrotta,Torregrotta,38.208.376,15.352.813
S12131,Sicilia,Tommaso Natale,Tommaso Natale,38.190.283,1.328.819
S12125,Sicilia,Piraineto,Piraineto,38.169.148,1.314.256
S12366,Sicilia,Gole Di Alcantara,Gole Alcantara,37.878.403,15.176.039
S12133,Sicilia,Punta Raisi,Punta Raisi,38.188.892,13.110.059
S12239,Sicilia,Leonforte-Pirato,Leonforte-Pirato,37.606.305,14.376.063
S12009,Sicilia,S.Flavia,S.Flavia,380.826,13.530.625
S12026,Sicilia,Acquedolci-S.Fratello,Acquedolci S.F.,38.058.459,14.587.597
S12034,Sicilia,San Giorgio,San Giorgio,38.173.967,1.494.414
S12037,Sicilia,Oliveri Tindari,Oliveri Tindari,38.128.346,15.056.573
S12055,Sicilia,Palermo Brancaccio,Pa Brancaccio,38.093.141,13.392.508
S12111,Sicilia,S.Nicola Di Mazara,S.Nicola Di M.,37.619.257,12.675.823
S12113,Sicilia,Castelvetrano,Castelvetrano,37.684.977,12.799.552
S12115,Sicilia,Gallitello,Gallitello,37.857.927,12.948.785
S12126,Sicilia,Cinisi Terrasini,Cinisi Terrasini,38.155.314,13.096.673
S12140,Sicilia,Cardillo Zen,Cardillo Z.E.N.,3.817.495,13.296.897
S12204,Sicilia,Roccapalumba-Alia,Roccapalumba-A.,37.793.751,13.673.628
S12235,Sicilia,Mimiani-S.Cataldo,Mimiani-S.Catal.,37.547.382,13.963.966
S12250,Sicilia,Motta Santa Anastasia,Motta S.A.,37.460.389,14.936.912
S12276,Sicilia,Militello,Militello,37.277.194,1.478.317
S12353,Sicilia,Targia,Targia,3.710.963,15.245.908
S12359,Sicilia,Graniti,Graniti,37.869.467,15.208.633
S12363,Sicilia,Mojo-Alcantara Malvagna,Mojo-Alcantara M,37.896.949,15.050.228
S12373,Sicilia,Racalmuto,Racalmuto,37.406.065,1.372.752
S12386,Sicilia,Favarotta,Favarotta,3.720.532,13.913.217
S12414,Sicilia,Ragusa,Ragusa,3.691.927,14.725.677
S12423,Sicilia,S.Paolo,S.Paolo,36.840.355,15.023.799
S12385,Sicilia,Campobello Ravanusa,Campobello Rav.,37.265.731,13.946.251
S12004,Sicilia,Palermo Sampolo,Palermo Sampolo,38.139.247,13.355.021
S12136,Sicilia,Federico,Federico,38.144.862,13.344.966
S12000,Sicilia,Palermo Marittima,Palermo Maritt.,38.130.732,13.360.768
S12381,Sicilia,Caltanissetta Centrale,Caltanissetta C.,3.748.829,14.057.396
S12206,Sicilia,Castronovo Di Sicilia,Castronovo Di S.,37.681.193,13.643.028
S12011,Sicilia,Altavilla M.,Altavilla,38.048.392,13.554.421
S12015,Sicilia,Fiumetorto,Fiumetorto,37.966.939,13.774.781
S12021,Sicilia,Pollina,Pollina,38.018,14.175.943
S12024,Sicilia,Santo Stefano Di Camastra,S.Stefano Di C.,3.801.778,1.435.104
S12027,Sicilia,S.Agata M.,S.Agata M.,38.073.554,14.640.622
S12031,Sicilia,Brolo Ficarra,Brolo Ficarra,38.159.204,14.830.176
S12039,Sicilia,Novara Montalbano Furnari,Novara Mont.Fur.,38.121.516,15.130.702
S12041,Sicilia,Barcellona,Barcellona,3.814.918,15.212.499
S12042,Sicilia,Milazzo,Milazzo,3.821.195,15.244.203
S12050,Sicilia,Villafranca Tirrena,Villafranca T.,38.233.517,1.542.892
S12105,Sicilia,Mozia-Birgi,Mozia-Birgi,37.884.956,12.499.016
S12108,Sicilia,Terrenove,Terrenove,37.748.755,12.480.604
S12110,Sicilia,Mazara Del Vallo,Mazara Del Vallo,37.652.448,12.594.565
S12114,Sicilia,Salemi Gibellina,Salemi Gib.,37.806.619,12.865.517
S12120,Sicilia,Castellammare Del Golfo,Castellammare G.,38.024.309,12.912.209
S12130,Sicilia,Palazzo Reale-Orleans,P.Reale-Orleans,3.810.878,13.353.962
S12152,Sicilia,Segesta Tempio,Segesta Tempio,37.949.585,12.828.118
S12155,Sicilia,Fulgatore,Fulgatore,379.543,12.686.312
S12211,Sicilia,Campofranco,Campofranco,37.510.105,13.686.777
S12212,Sicilia,Comitini,Comitini,37.423.806,136.528
S12213,Sicilia,Agrigento Bassa,Agrigento Bassa,37.319.148,13.588.094
S12231,Sicilia,Valledolmo,Valledolmo,37.709.073,13.756.029
S12240,Sicilia,Dittaino,Dittaino,37.564.605,14.462.429
S12272,Sicilia,Grammichele,Grammichele,37.209.336,14.641.256
S12275,Sicilia,Mineo,Mineo,3.724.572,14.756.907
S12279,Sicilia,Palagonia,Palagonia,37.318.146,14.892.565
S12301,Sicilia,Messina Centrale,Messina Cent.,38.184.975,15.561.278
S12308,Sicilia,Giampilieri,Giampilieri,38.080.121,15.493.863
S12309,Sicilia,Scaletta Zanclea,Scaletta Zanclea,3.804.635,15.465.376
S12312,Sicilia,Roccalumera Mandanici,Roccalumera M.,37.972.946,15.391.411
S12314,Sicilia,Santa Teresa Di Riva,S.Teresa Riva,37.946.295,15.367.682
S12323,Sicilia,Mascali,Mascali,37.765.403,151.942
S12017,Sicilia,Campofelice,Campofelice,37.992.615,13.876.549
S12347,Sicilia,Priolo Melilli,Priolo Melilli,37.157.951,15.197.038
S12241,Sicilia,Raddusa Agira,Raddusa,37.544.858,14.518.863
S12365,Sicilia,Randazzo,Randazzo,37.873.782,14.950.406
S12049,Sicilia,Rometta Messinese,Rometta Messin.,38.228.455,15.405.894
S12422,Sicilia,Rosolini,Rosolini,3.681.598,14.952.955
S12315,Sicilia,S.Alessio Siculo Forza D`Agro`,S.Alessio S.F.A.,37.923.992,15.347.322
S12382,Sicilia,S.Cataldo,S.Cataldo,37.469.615,13.997.659
S12109,Sicilia,Petrosino Strasatti,Petrosino Stras.,37.725.466,12.509.434
S12338,Sicilia,Bicocca,Bicocca,37.460.617,15.044.594
S12203,Sicilia,Montemaggiore,Montemaggiore,37.859.037,13.693.193
S12361,Sicilia,Francavilla,Francavilla,37.899.892,15.132.812
S12139,Sicilia,Francia,Francia,38.155.233,13.321.938
S12313,Sicilia,Furci,Furci,37.961.714,15.380.022
S12358,Sicilia,Gaggi,Gaggi,37.858.532,15.225.095
S12305,Sicilia,Galati,Galati,38.104.511,15.505.313
S12392,Sicilia,Niscemi,Niscemi,37.145,14.403.471
S12311,Sicilia,Nizza Di Sicilia,Nizza Di Sicilia,37.996.937,15.412.334
S12424,Sicilia,Noto,Noto,3.688.247,15.074.523
S12134,Sicilia,Palermo Notarbartolo,Pa Notarbartolo,38.132.261,13.341.572
S12045,Sicilia,Pace Del Mela,Pace Del Mela,38.202.459,15.312.676
S12103,Sicilia,Paceco,Paceco,37.991.354,12.550.844
S12445,Sicilia,Pachino,Pachino,36.710.144,15.094.661
S12002,Sicilia,Palermo Centrale,Palermo C.Le,38.109.187,13.367.515
S12053,Sicilia,Torre Del Lauro,Torre Del Lauro,38.041.045,14.521.179
S12013,Sicilia,Trabia,Trabia,37.996.408,1.365.567
S12100,Sicilia,Trapani,Trapani,38.017.092,12.518.814
S12123,Sicilia,Trappeto,Trappeto,38.065.089,13.036.873
S12303,Sicilia,Tremestieri,Tremestieri,38.150.323,15.535.528
S12022,Sicilia,Tusa,Tusa,38.007.989,14.256.693
S12232,Sicilia,Vallelunga,Vallelunga,37.691.542,13.846.428
S12355,Sicilia,Contesse,Contesse,3.816.193,15.544.717
S12316,Sicilia,Letojanni,Letojanni,37.877.581,15.303.128
S12242,Sicilia,Libertinia,Libertinia,37.545.615,14.591.893
S12104,Sicilia,Marausa,Marausa,3.792.647,12.504.113
S12230,Sicilia,Marcatobianco,Marcatobianco,37.717.381,13.719.922
S12234,Sicilia,Marianopoli,Marianopoli,37.623.011,13.898.901
S12107,Sicilia,Marsala,Marsala,37.793.514,12.443.174
S12444,Sicilia,Marzamemi,Marzamemi,367.309,15.111.238
S12346,Sicilia,Megara G.,Megara G.,37.193.164,15.183.205
S12300,Sicilia,Messina Marittima,Messina Maritt.,3.814.988,15.534.997
S12157,Sicilia,Milo,Milo,37.996.862,12.577.749
S12384,Sicilia,Delia,Delia,37.317.685,13.914.687
S12238,Sicilia,Enna,Enna,37.581.134,14.289.579
S12405,Sicilia,Falconara,Falconara,37.113.529,14.052.516
S12038,Sicilia,Falcone,Falcone,38.119.573,15.080.467
S12394,Sicilia,Piana Del Signore,Piana Del Signor,37.056.089,14.304.292
S12047,Sicilia,Venetico,Venetico,38.216.502,15.367.076
S12135,Sicilia,Vespri,Vespri,38.101.996,13.362.701
S12233,Sicilia,Villalba,Villalba,37.668.526,13.885.155
S12237,Sicilia,Villarosa,Villarosa,37.567.205,14.200.464
S12391,Sicilia,Vituso,Vituso,37.160.465,14.451.623
S12273,Sicilia,Vizzini,Vizzini,37.182.566,14.729.457
S12029,Sicilia,Zappulla,Zappulla,38.116.962,14.703.086
S12248,Sicilia,Portiere Stella,Portiere S.,37.450.341,14.890.175
S12214,Sicilia,Porto Empedocle,Porto Empedocle,37.291.539,13.537.862
S12048,Sicilia,Spadafora,Spadafora,38.221.922,15.377.196
S12317,Sicilia,Taormina,Taormina,37.845.429,15.282.584
S12247,Sicilia,Gerbini,Gerbini,37.473.138,14.845.822
S12129,Sicilia,Isola Delle Femmine,Isola D.Femmine,38.194.784,13.250.188
S12044,Sicilia,S.Filippo-S.Lucia,S.Filippo-S.L.,38.198.143,15.288.334
S12132,Sicilia,S.Lorenzo Colli,S.Lorenzo Colli,3.816.292,13.316.449
S12028,Sicilia,San Marco D`Alunzio T.,S.Marco D'Alunz.,38.094.202,14.675.909
S12252,Sicilia,San Martino Piana,S.Martino Piana,37.455.701,14.996.912
S12409,Sicilia,Acate,Acate,36.996.592,1.442.545
S12328,Sicilia,Acireale,Acireale,37.600.514,15.163.697
S12209,Sicilia,Acquaviva,Acquaviva,37.570.258,13.674.927
S12216,Sicilia,Agrigento Centrale,Agrigento Centr.,37.309.051,13.584.412
S12116,Sicilia,Alcamo,Alcamo,3.793.891,12.926.125
S12150,Sicilia,Alcamo Diramazione,Alcamo Diramaz.,37.978.894,12.915.916
S12320,Sicilia,Alcantara,Alcantara,3.782.145,15.251.158
S12310,Sicilia,Ali` Terme,Ali' Terme,38.013.952,15.435.184
S12370,Sicilia,Aragona Caldare,Aragona Caldare,37.381.097,13.636.837
S12345,Sicilia,Augusta,Augusta,3.724.334,15.218.628
S12426,Sicilia,Avola,Avola,36.907.434,15.125.733
S12008,Sicilia,Bagheria,Bagheria,38.089.905,13.507.215
S12375,Sicilia,Canicatti`,Canicatti',37.359.879,13.855.395
S12330,Sicilia,Cannizzaro,Cannizzaro,3.754.711,15.129.698
S12145,Sicilia,Capaci,Capaci,38.171.794,13.232.398
S12030,Sicilia,Capo D`Orlando-Naso,Capo D'Orlando,38.157.941,14.744.844
S12127,Sicilia,Carini,Carini,38.147.696,13.186.624
S12025,Sicilia,Caronia,Caronia,38.034.475,14.443.761
S12326,Sicilia,Carruba,Carruba,37.694.344,15.196.143
S12427,Sicilia,Cassibile,Cassibile,36.962.581,15.191.895
S12020,Sicilia,Castelbuono,Castelbuono,38.014.606,14.108.578
S12010,Sicilia,Casteldaccia,Casteldaccia,38.060.474,13.536.867
S12362,Sicilia,Castiglione Di Sicilia,Castiglione Di S,3.788.674,15.097.013
S12374,Sicilia,Castrofilippo,Castrofilippo,37.363.751,13.780.842
S12200,Sicilia,Cerda,Cerda,37.953.964,1.378.447
S12153,Sicilia,Bruca,Bruca,37.946.836,12.793.178
S12016,Sicilia,Buonfornello,Buonfornello,37.972.052,13.816.408
S12406,Sicilia,Butera,Butera,37.145.078,14.171.691
S12411,Sicilia,Comiso,Comiso,36.947.184,1.460.037
S12371,Sicilia,Comitini Zolfare,Comitini Zolfare,37.409.955,13.661.007
S12418,Sicilia,Scicli,Scicli,36.789.939,14.698.759
S12278,Sicilia,Scordia,Scordia,37.294.595,14.851.219
S12246,Sicilia,Sferro,Sferro,37.502.031,14.792.131
S12351,Sicilia,Siracusa M.,Siracusa M.,37.057.888,15.293.258
S12106,Sicilia,Spagnuola,Spagnuola,3.783.631,12.477.051
S12040,Sicilia,Terme Vigliatore,Terme Vigliatore,38.133.588,15.164.396
S12014,Sicilia,Termini Imerese,Termini Imerese,37.980.132,13.703.631
S12137,Sicilia,Fiera,Fiera,38.144.004,13.351.336
S12277,Sicilia,Fildidonna,Fildidonna,37.310.867,14.808.848
S12322,Sicilia,Fiumefreddo Di Sicilia,Fiumefreddo Di S,37.795.247,15.205.615
S12124,Sicilia,Partinico,Partinico,3.805.857,13.108.956
S12339,Sicilia,Passomartino,Passomartino,37.396.391,15.009.698
S12036,Sicilia,Patti-San Piero Patti,Patti-San Piero,38.146.905,14.975.331
S12407,Sicilia,Gela,Gela,3.707.283,14.259.461
S12413,Sicilia,Genisi,Genisi,36.882.562,14.623.413
S12138,Sicilia,Giachery,Giachery,38.138.135,13.355.856
S12324,Sicilia,Giarre Riposto,Giarre Riposto,37.730.346,15.193.386
S12033,Sicilia,Giojosa Marea,Giojosa Marea,38.175.149,14.894.794
S12372,Sicilia,Grotte,Grotte,37.409.848,13.702.717
S12236,Sicilia,Imera,Imera,37.533.814,14.125.165
S12421,Sicilia,Ispica,Ispica,3.677.804,14.914.315
S12018,Sicilia,Lascari,Lascari,38.011.672,13.928.633
S12341,Sicilia,Lentini,Lentini,37.300.916,1.499.758
S12340,Sicilia,Lentini Diramazione,Lentini Diramaz.,37.340.009,1.498.141
S12205,Sicilia,Lercara Bassa,Lercara Bassa,37.737.639,13.633.053
S12122,Sicilia,Balestrate,Balestrate,38.053.364,13.007.374
S12012,Sicilia,S.Nicola T.,S.Nicola T.,38.015.817,13.612.755
S12387,Sicilia,S.Oliva,S.Oliva,3.715.773,13.901.587
S12419,Sicilia,Sampieri,Sampieri,3.673.188,14.744.577
S12321,Sicilia,Calatabiano,Calatabiano,37.814.684,15.226.568
S12151,Sicilia,Calatafimi,Calatafimi,37.938.858,12.856.156
S12270,Sicilia,Caltagirone,Caltagirone,37.225.276,14.521.165
S12207,Sicilia,Cammarata S.Giovanni Gemini,Cammarata S.G.G.,37.653.759,13.673.791
S12112,Sicilia,Campobello Di Mazara,Campobello Di M.,37.636.256,12.733.165
S12889,Sardegna,Assemini,Assemini,39.287.603,8.997.936
S12867,Sardegna,Bonorva,Bonorva,40.417.763,8.760.707
S12872,Sardegna,Borore,Borore,40.218.992,8.809.535
S12812,Sardegna,Caniga,Caniga,40.716.116,8.526.395
S12899,Sardegna,Chirialza,Chirialza,40.830.877,936.732
S12970,Sardegna,Cixerri,Cixerri,3.926.982,8.578.934
S12814,Sardegna,Scala Di Giocca,Scala Di Giocca,40.698.881,859.695
S12954,Sardegna,Siliqua,Siliqua,39.297.005,8.813.078
S12876,Sardegna,Solarussa,Solarussa,39.952.525,8.679.813
S12896,Sardegna,Su Canale,Su Canale,40.838.375,9.404.226
S12950,Sardegna,Iglesias,Iglesias,39.310.563,8.539.786
S12971,Sardegna,Barbusi,Barbusi,39.203.024,8.501.702
S12875,Sardegna,Bauladu Milis,Bauladu Milis,40.020.722,8.687.123
S12806,Sardegna,Sant`Orsola,Sant'Orsola,40.747.117,8.532.229
S12885,Sardegna,Samassi Serrenti,Samassi Serrenti,39.483.075,8.899.035
S12883,Sardegna,Sanluri Stato,Sanluri S.,39.526.147,8.850.221
S12897,Sardegna,Sant`Anna,Sant'Anna,39.810.758,8.641.451
S12857,Sardegna,Monti Telti,Monti Telti,40.829.632,9.322.814
S12891,Sardegna,Cagliari,Cagliari,39.216.078,9.107.984
S12890,Sardegna,Cagliari Elmas,Cagliari Elmas,39.264.193,9.045.497
S12851,Sardegna,Cala Sabina,Cala Sabina,41.011.012,95.881
S12815,Sardegna,Campomela,Campomela,4.068.139,8.638.875
S12859,Sardegna,Berchidda,Berchidda,40.772.052,9.181.312
S12973,Sardegna,Monte Arcau,Monte Arcau,39.244.501,8.543.347
S12850,Sardegna,Golfo Aranci Marittima,G.Aranci Mar.Ma,40.995.775,9.623.843
S12852,Sardegna,Golfo Aranci,Golfo Aranci,40.997.261,962.471
S12855,Sardegna,Olbia,Olbia,40.924.595,9.498.293
S12878,Sardegna,Oristano,Oristano,39.902.033,8.603.974
S12860,Sardegna,Oschiri,Oschiri,40.713.273,9.107.749
S12881,Sardegna,Pabillonis,Pabillonis,39.610.878,8.741.013
S12869,Sardegna,Macomer,Macomer,40.267.899,8.772.279
S12888,Sardegna,Decimomannu,Decimomannu,39.304.593,8.965.808
S12953,Sardegna,Musei,Musei,3.928.837,8.676.528
S12816,Sardegna,Ploaghe,Ploaghe,4.066.132,8.728.075
S12952,Sardegna,Villamassargia Domusnovas,Villamassargia D,39.294.811,8.641.986
S12887,Sardegna,Villasor,Villasor,39.381.451,8.935.907
S12802,Sardegna,Porto Torres,Porto Torres,40.833.045,839.642
S12873,Sardegna,Abbasanta,Abbasanta,40.128.801,8.817.733
S12882,Sardegna,San Gavino,San Gavino,39.546.206,8.788.017
S12856,Sardegna,Enas,Enas,4.085.706,9.431.095
S12865,Sardegna,Torralba,Torralba,40.482.769,8.781.619
S12803,Sardegna,Porto Torres Marittima,Porto Torres Mar,40.837.914,8.397.301
S12805,Sardegna,S.Giorgio Di Sassari,San Giorgio Ss,40.754.903,8.516.505
S12853,Sardegna,Madonna Di Castro,Madonna Di Castr,40.672.018,9.046.014
S12874,Sardegna,Paulilatino,Paulilatino,40.077.373,8.775.812
S12956,Sardegna,Villaspeciosa Uta,Villaspecios Uta,39.304.168,8.940.501
S12804,Sardegna,San Giovanni,San Giovanni,40.762.523,8.499.282
S12807,Sardegna,Sassari,Sassari,40.729.506,8.554.157
S12813,Sardegna,Tissi Usini,Tissi Usini,40.689.278,8.530.258
S12817,Sardegna,Ardara,Ardara,40.632.139,8.818.996
S12854,Sardegna,Marinella,Marinella,40.999.129,955.362
S12861,Sardegna,Ozieri Fraigas,Ozieri Fraigas,40.627.334,8.986.497
S12862,Sardegna,Ozieri Chilivani,Ozieri Chilivani,40.609.496,8.933.744
S12864,Sardegna,Mores Ittireddu,Mores Ittireddu,40.555.954,8.875.838
S12866,Sardegna,Giave,Giave,40.455.875,8.729.388
S12879,Sardegna,Marrubiu Terralba Arborea,Marrubiu Terr.Ar,3.975.293,8.641.144
S12886,Sardegna,Serramanna Nuraminis,Serramanna Nuram,39.426.123,8.916.579
S12895,Sardegna,Rudalza,Rudalza,40.994.082,9.531.214
S12901,Sardegna,Olbia Marittima Isola Bianca,Olbia M.I.B.,40.922.597,9.523.706
S12818,Sardegna,Carbonia Serbariu,Carbonia Serb.,39.169.508,8.509.186
S12880,Sardegna,Uras Mogoro,Uras Mogoro,39.692.629,8.696.459
S11306,Puglia,Gravina In Puglia,Gravina In P.,40.825.216,16.418.926
S11509,Puglia,Palagiano Mottola,Palagiano Mott.,40.601.744,17.065.478
S11601,Puglia,Monteiasi,Monteiasi,40.523.852,17.361.457
S11107,Puglia,Margherita Di Sav./Ofantino,Margherita S.Of.,41.343,16.136.024
S11403,Puglia,Minervino Murge,Minervino Murge,41.081.788,16.074.974
S11137,Puglia,Brindisi Marittima,Brindisi Maritt.,40.633.543,1.794.863
S11105,Puglia,Candida,Candida,41.346.664,15.996.588
S11463,Puglia,Castellaneta Marina,Castellaneta M.,40.481.111,16.965.434
S09322,Puglia,Troia Castelluccio Sauri,Troia Cast.Sauri,41.319.829,15.421.123
S11021,Puglia,Chieuti Serracapriola,Chieuti Serrac.,41.921.962,15.156.645
S11051,Puglia,Amendola,Amendola,41.518.025,15.732.569
S11053,Puglia,Frattarolo,Frattarolo,4.158.364,15.861.727
S11054,Puglia,Manfredonia,Manfredonia,41.623.046,15.908.142
S11106,Puglia,Trinitapoli S.Ferdin. Di P.,Trinitapoli,41.349.677,16.090.839
S11130,Puglia,Fasano,Fasano,40.851.753,173.859
S11133,Puglia,Carovigno,Carovigno,40.737.337,17.683.791
S11135,Puglia,S.Vito Dei Normanni,S.Vito Normanni,40.650.352,17.818.585
S11142,Puglia,Squinzano,Squinzano,40.439.266,18.046.097
S11202,Puglia,Ordona,Ordona,41.315.006,15.620.567
S11205,Puglia,Rocchetta S.Ant.Lac.,Rocchetta S.A.L.,411.518,1.553.295
S11406,Puglia,Canne Della Battaglia,Canne D.Battag.,41.294.583,16.146.169
S11504,Puglia,Acquaviva Delle Fonti,Acquaviva,40.892.806,16.839.826
S11603,Puglia,Francavilla Fontana,Francavilla Font,40.523.145,17.584.714
S11116,Puglia,Bari S. Spirito,Bari S.Spirito,41.159.653,16.746.324
S11028,Puglia,Rignano Garganico,Rignano Gargan.,41.579.344,15.490.229
S11602,Puglia,Grottaglie,Grottaglie,40.528.989,17.424.503
S11307,Puglia,Altamura,Altamura,40.837.666,16.551.739
S11024,Puglia,Apricena,Apricena,4.177.664,15.387.809
S11203,Puglia,Ascoli Satriano,Ascoli Satriano,41.219.859,15.547.828
S11118,Puglia,Bari Palese Macchie,Bari Palese M.,41.151.583,16.766.902
S11513,Puglia,Bari S.Andrea,Bari S.Andrea,41.105.467,16.830.255
S11150,Puglia,Bari S.Giorgio,Bari S.Giorgio,41.093.779,16.950.084
S11113,Puglia,Bisceglie,Bisceglie,41.235.445,16.499.484
S11501,Puglia,Bitetto Palo Del Colle,Bitetto,41.041.481,1.674.053
S09321,Puglia,Bovino Deliceto,Bovino Deliceto,4.127.835,15.369.255
S11204,Puglia,Candela,Candela,41.151.439,15.533.163
S11402,Puglia,Canosa Di Puglia,Canosa Di Puglia,41.218.556,16.053.906
S11309,Puglia,Casal Sabini,Casal Sabini,40.799.021,16.647.908
S11103,Puglia,Cerignola,Cerignola,41.315.664,15.897.298
S11200,Puglia,Cervaro,Cervaro,41.397.604,15.595.704
S11136,Puglia,Brindisi,Brindisi,40.634.339,17.938.978
S11131,Puglia,Cisternino,Cisternino,40.816.652,17.456.899
S11056,Puglia,Siponto,Siponto,4.161.296,15.895.572
S11304,Puglia,Spinazzola,Spinazzola,40.953.396,16.087.173
S11465,Puglia,Taranto,Taranto,40.483.727,17.224.059
S11505,Puglia,Gioia Del Colle,Gioia Del Colle,40.796.983,16.916.569
S11101,Puglia,Incoronata,Incoronata,41.408.174,15.650.728
S11606,Puglia,Latiano,Latiano,40.558.074,17.717.629
S11145,Puglia,Lecce,Lecce,4.034.566,18.165.724
S11108,Puglia,Barletta,Barletta,41.315.227,16.278.867
S11512,Puglia,Bellavista,Bellavista,40.517.077,17.176.892
S11141,Puglia,S. Pietro Vernotico,S.Pietro V.Co,4.048.902,18.000.716
S11025,Puglia,San Severo,San Severo,41.684.512,15.392.567
S11503,Puglia,Sannicandro Di Bari,Sannicandro,40.958.821,16.753.771
S11201,Puglia,Santuario Incoronata,Santuario Incor.,41.370.726,15.605.748
S11310,Puglia,Santeramo,Santeramo,408.026,1.676.403
S11022,Puglia,Posto Movimento Ripalta,Pm Ripalta,41.895.706,1.527.507
S11515,Puglia,Modugno Citta`,Modugno Citta',41.086.437,16.779.596
S11114,Puglia,Molfetta,Molfetta,41.196.008,16.596.793
S11129,Puglia,Monopoli,Monopoli,40.952.017,17.292.455
S11605,Puglia,Oria,Oria,40.508.167,17.646.534
S11102,Puglia,Ortanova,Ortanova,41.350.441,15.732.059
S11132,Puglia,Ostuni,Ostuni,40.752.356,17.580.809
S11508,Puglia,Palagianello,Palagianello,40.610.906,16.975.202
S11464,Puglia,Palagiano Chiatona,Palagiano Chiat.,40.516.998,17.059.217
S11112,Puglia,Trani,Trani,41.272.693,16.417.646
S11143,Puglia,Trepuzzi,Trepuzzi,4.040.964,18.076.902
S11140,Puglia,Tuturano,Tuturano,40.550.726,17.979.016
S11510,Puglia,Massafra,Massafra,40.582.968,17.107.899
S11607,Puglia,Mesagne,Mesagne,40.563.203,17.802.082
S11151,Puglia,Cozze,Cozze,41.017.835,17.159.396
S11154,Puglia,Egnazia,Egnazia,40.901.727,17.329.607
S11148,Puglia,Bari Parco Nord,Bari Parco Nord,41.123.916,16.837.018
S11126,Puglia,Bari Torre A Mare,Ba Torre A Mare,41.082.637,16.995.772
S11608,Puglia,Villa Castelli,Villa Castelli,40.523.377,17.476.149
S11128,Puglia,Polignano A Mare,Polignano A Mare,40.990.926,17.218.676
S09325,Puglia,Ponte Albanito,Ponte Albanito,4.135.148,15.532.976
S11462,Puglia,Ginosa,Ginosa,40.429.201,16.890.968
S11115,Puglia,Giovinazzo,Giovinazzo,41.180.968,16.669.346
S11502,Puglia,Grumo Appula,Grumo Appula,4.101.199,16.718.777
S11023,Puglia,Poggio Imperiale,Poggio Imperiale,41.805.561,1.535.707
S11305,Puglia,Poggiorsini,Poggiorsini,40.935.221,16.266.897
S11125,Puglia,Bari Parco Sud,Bari Parco Sud,41.111.822,16.914.736
S11127,Puglia,Mola Di Bari,Mola Di Bari,41.057.227,17.080.919
S11600,Puglia,Nasisi,Nasisi,4.050.791,17.257.802
S11100,Puglia,Foggia,Foggia,41.466,15.555.816
S00173,Piemonte,S.Silvestro,S.Silvestro,4.519.366,8.148.095
S00229,Piemonte,Settimo,Settimo,45.139.834,7.769.335
S00862,Piemonte,Sezzadio,Sezzadio,44.800.082,8.549.772
S00429,Piemonte,Chiusano Cossombrone,Chiusano Cossom.,44.985.034,8.128.822
S00217,Piemonte,Collegno,Collegno,45.078.854,7.574.131
S00923,Piemonte,Priola,Priola,44.248.694,8.023.429
S00053,Piemonte,Rovasenda,Rovasenda,45.537.291,8.317.376
S00213,Piemonte,S. Ambrogio,S. Ambrogio,45.101.161,7.360.933
S00347,Piemonte,Isola D`Asti,Isola D'Asti,44.830.605,8.175.113
S00700,Piemonte,Manta,Manta,44.620.887,7.494.166
S00545,Piemonte,Torre S.Giorgio,Torre S.Giorgio,44.737.375,7.525.461
S00239,Piemonte,Tronzano,Tronzano,45.342.929,8.168.395
S00022,Piemonte,Vaprio D`Agogna,Vaprio D'Agogna,45.599.085,8.536.862
S00315,Piemonte,Borgo S.Martino,Borgo S.Martino,45.087.083,8.520.661
S00456,Piemonte,Cambiano Santena,Cambiano Santena,44.966.491,7.773.225
S00458,Piemonte,Villanova,Villanova,44.963.159,7.947.136
S00035,Piemonte,Torino Porta Susa,Torino P. Susa,45.075.906,7.667.673
S00983,Piemonte,Marano Ticino,Marano Ticino,45.629.485,8.626.172
S01019,Piemonte,Meina,Meina,45.794.389,8.535.452
S00875,Piemonte,Merana,Merana,44.519.368,8.298.327
S00156,Piemonte,Mercenasco,Mercenasco,45.353.436,7.886.405
S00600,Piemonte,Villastellone,Villastellone,44.920.531,7.749.572
S00004,Piemonte,Pieve Vergonte,Pieve Vergonte,46.009.783,8.276.298
S00613,Piemonte,Borgo San Dalmazzo,Borgo S.Dalmazzo,44.326.249,7.486.111
S00209,Piemonte,Bruzolo,Bruzolo,45.131.032,7.201.497
S00972,Piemonte,Casaleggio,Casaleggio,45.491.298,8.490.369
S00864,Piemonte,Cassine,Cassine,44.751.513,8.533.613
S01123,Piemonte,Castelletto Ticino,Castelletto Tic.,45.710.757,8.638.259
S00465,Piemonte,Castello D`Annone,Castel.D'Annone,44.878.742,8.312.724
S04000,Piemonte,Castellazzo Casalcermelli,Castellazzo C.,44.843.839,8.589.645
S00056,Piemonte,Rovasenda Alta,Rovasenda Alta,45.537.368,8.316.722
S00054,Piemonte,Buronzo,Buronzo,4.547.179,82.667
S00158,Piemonte,Caluso,Caluso,45.303.194,7.902.568
S00157,Piemonte,Candia Canavese,Candia Canavese,45.329.824,7.891.819
S00603,Piemonte,Cavallermaggiore,Cavallermaggiore,44.708.147,7.692.108
S00541,Piemonte,Cercenasco,Cercenasco,44.864.897,7.495.302
S04006,Piemonte,Roccagrimalda,Roccagrimalda,44.675.247,8.656.154
S04005,Piemonte,San Giacomo,San Giacomo,44.687.745,8.663.185
S00224,Piemonte,Torino Dora,Torino Dora,45.090.085,7.677.853
S01025,Piemonte,Dormelletto,Dormelletto,457.233,8.581.906
S00926,Piemonte,Eca Nasago`,Eca Nasago',44.160.769,7.965.137
S00869,Piemonte,Terzo Montabone,Terzo Montabone,44.671.932,8.428.705
S00452,Piemonte,Torino Lingotto,To Lingotto,450.266,7.657.469
S00223,Piemonte,Torino S. Paolo,Torino S.Paolo,45.054.519,7.639.557
S00450,Piemonte,Torino Smistamento Nord,Torino Sm. Nord,45.042.785,7.666.626
S00228,Piemonte,Torino Stura,Torino Stura,45.121.932,7.713.202
S00342,Piemonte,Tonco Alfiano,Tonco Alfiano,45.012.659,8.216.858
S00219,Piemonte,Torino P.Nuova,Torino P.Nuova,45.060.969,767.747
S00234,Piemonte,Torrazza P.,Torrazza,45.211.855,7.970.255
S04300,Piemonte,Carbonara Scrivia,Carbonara Scriv.,44.860.173,8.853.772
S00825,Piemonte,Alba,Alba,44.697.713,8.030.629
S00462,Piemonte,Asti,Asti,4.489.479,8.208.112
S00029,Piemonte,Bivio Madonna Dell`Olmo,Biv. M. Olmo,44.414.078,7.546.234
S00203,Piemonte,Beaulard,Beaulard,45.046.495,6.759.713
S00177,Piemonte,Morano Sul Po,Morano Po,45.170.793,8.366.168
S00824,Piemonte,Mussotto,Mussotto,44.713.227,8.015.194
S00008,Piemonte,Omegna Crusinallo,Omegna Crusin.,45.898.138,8.413.929
S01007,Piemonte,Beura Cardezza,Beura Cardezza,46.068.341,8.289.627
S00501,Piemonte,Madonna Della Scala,Madonna D. Scala,44.993.686,7.780.994
S00220,Piemonte,Torino Orbassano Fascio Sud,Torino Orb.F.Sud,45.032.898,7.576.125
S00459,Piemonte,Villafranca C.,Villafranca C.,44.908.916,8.043.692
S00543,Piemonte,Villafranca P.,Villafranca P.,44.786.739,7.510.077
S01008,Piemonte,Vogogna Ossola,Vogogna Ossola,46.005.883,8.294.664
S00721,Piemonte,Monastero Pratavecchi,Monastero Prat.,44.484.517,744.679
S00468,Piemonte,Felizzano,Felizzano,44.893.367,8.437.155
S00904,Piemonte,Pogliola,Pogliola,44.399.796,775.057
S01125,Piemonte,Pombia,Pombia,45.649.547,8.637.037
S01809,Piemonte,Pontecurone,Pontecurone,44.962.014,8.929.717
S00871,Piemonte,Ponti,Ponti,44.629.979,8.365.262
S00247,Piemonte,Ponzana,Ponzana,45.402.685,8.522.689
S00344,Piemonte,Portacomaro,Portacomaro,44.957.169,8.224.345
S01124,Piemonte,Porto Varallo Pombia,Porto Varallo P.,45.677.697,8.638.383
S00469,Piemonte,Solero,Solero,44.915.886,851.043
S00155,Piemonte,Strambino,Strambino,45.382.508,7.887.955
S00260,Piemonte,Susa,Susa,45.138.622,7.052.311
S00974,Piemonte,Ghislarengo,Ghislarengo,45.526.006,8.379.453
S00316,Piemonte,Giarole,Giarole,45.056.125,85.609
S00951,Piemonte,Magliano Crava Morozzo,Magliano C.M.,44.445.259,7.777.852
S00243,Piemonte,S. Germano Vercellese,S. Germano Verc.,45.353.603,8.249.958
S00336,Piemonte,S.Giorgio Casale,S.Giorgio Casale,45.101.495,8.412.858
S01941,Piemonte,S.Giuliano Piemonte,S.Giuliano Piem.,44.890.543,8.760.933
S00842,Piemonte,Pocapaglia,Pocapaglia,44.701.066,7.892.496
S01015,Piemonte,Baveno,Baveno,45.909.105,8.502.121
S00970,Piemonte,Biella Chiavazza,Biella Chiavazza,45.568.084,8.066.787
S00544,Piemonte,Moretta,Moretta,44.765.514,7.530.303
S00976,Piemonte,Nibbia,Nibbia,45.481.363,8.557.993
S00834,Piemonte,Nizza Monferrato,Nizza Monferrato,44.772.905,8.361.146
S00513,Piemonte,None,None,44.938.011,7.540.068
S00207,Piemonte,Pc. Meana,P.C. Meana,45.124.481,7.059.748
S00311,Piemonte,Pertengo,Pertengo,45.233.305,8.426.739
S00003,Piemonte,Piedimulera,Piedimulera,46.024.348,8.261.237
S00611,Piemonte,Cuneo Gesso,Cuneo Gesso,44.394.234,7.556.017
S00051,Piemonte,Cureggio,Cureggio,45.672.538,8.456.282
S00982,Piemonte,Varallo Pombia,Varallo Pombia,45.670.032,8.620.047
S00100,Piemonte,Varallo Sesia,Varallo Sesia,45.815.227,8.256.606
S01013,Piemonte,Verbania-Pallanza,Verbania,45.943.821,847.224
S00245,Piemonte,Vercelli,Vercelli,45.329.909,8.416.028
S00073,Piemonte,Vergnasco,Vergnasco,45.489.282,8.091.687
S00616,Piemonte,Vernante,Vernante,44.244.639,7.535.986
S00170,Piemonte,Verolengo,Verolengo,45.193.107,7.969.511
S00701,Piemonte,Verzuolo,Verzuolo,44.598.767,748.724
S00031,Piemonte,Vespolate,Vespolate,45.351.517,8.671.947
S00953,Piemonte,Vicoforte San Michele,Vicoforte S.M.,4.437.404,7.894.687
S00977,Piemonte,Vigliano Candelo,Vigliano Candelo,45.557.517,8.108.475
S00802,Piemonte,Vigliano D`Asti,Vigliano D'Asti,44.827.335,8.218.271
S00021,Piemonte,Vignale,Vignale,45.478.989,8.613.132
S00542,Piemonte,Vigone,Vigone,44.846.923,7.491.123
S00001,Piemonte,Villadossola,Villadossola,46.064.151,8.264.675
S00523,Piemonte,Luserna S. Giovanni,Luserna S.Giov.,44.815.842,7.246.902
S00607,Piemonte,Maddalene,Maddalene,44.518.734,7.648.022
S00820,Piemonte,Madonna Del Pilone,Madonna Del P.,44.695.347,7.747.639
S00902,Piemonte,Margarita,Margarita,44.380.082,7.685.738
S01012,Piemonte,Mergozzo,Mergozzo,45.961.303,8.440.881
S00082,Piemonte,Pinerolo Olimpica,Pinerolo Olimpi.,44.893.325,7.349.043
S00172,Piemonte,Crescentino,Crescentino,45.194.302,8.107.175
S00017,Piemonte,Cressa Fontaneto,Cressa Fontaneto,45.646.331,8.498.435
S00610,Piemonte,Cuneo,Cuneo,44.387.914,7.536.235
S00427,Piemonte,Cunico Scandeluzza,Cunico Scandel.,45.036.947,811.007
S01010,Piemonte,Cuzzago,Cuzzago,45.993.682,8.373.989
S01003,Piemonte,Domodossola,Domodossola,46.115.429,8.296.684
S01004,Piemonte,Domo Ii,Domo Ii,46.071.396,8.286.899
S00980,Piemonte,Dormelletto Paese,Dormelletto P.,45.730.032,8.574.324
S00722,Piemonte,Dronero,Dronero,44.464.974,7.423.245
S00251,Piemonte,Exilles,Exilles,4.508.999,6.927.344
S00112,Piemonte,Fara,Fara,45.550.556,8.458.049
S00737,Piemonte,Farigliano,Farigliano,44.513.337,790.947
S00511,Piemonte,Nichelino,Nichelino,4.499.132,7.642.068
S00739,Piemonte,Niella,Niella,44.415.377,7.926.365
S00248,Piemonte,Novara,Novara,45.451.376,8.624.895
S00920,Piemonte,Nucetto,Nucetto,44.338.871,8.061.386
S00244,Piemonte,Olcenengo,Olcenengo,4.534.147,8.310.096
S00984,Piemonte,Oleggio,Oleggio,45.598.029,8.632.586
S00010,Piemonte,Omegna,Omegna,4.587.179,8.413.291
S00006,Piemonte,Ornavasso,Ornavasso,45.970.296,8.415.892
S00012,Piemonte,Orta Miasino,Orta Miasino,45.795.865,8.421.217
S00204,Piemonte,Oulx Cesana Claviere Sestriere,Oulx Ce.Cl.Ses.,45.038.789,6.831.432
S00840,Piemonte,Oviglio,Oviglio,44.859.537,8.494.998
S00337,Piemonte,Ozzano Monferrato,Ozzano Monfer.,45.107.581,8.372.296
S00175,Piemonte,Palazzolo Vercellese,Palazzolo Verc.,45.189.004,8.232.787
S00002,Piemonte,Pallanzeno,Pallanzeno,46.043.533,8.260.645
S00524,Piemonte,Torre Pellice,Torre Pellice,44.818.929,7.225.901
S00925,Piemonte,Trappa,Trappa,44.185.375,7.994.435
S00950,Piemonte,Trinita` Bene Vagienna,Trinita' B. V.,44.504.656,7.752.647
S00176,Piemonte,Trino Vercellese,Trino Verc.,45.190.066,8.294.093
S00455,Piemonte,Trofarello,Trofarello,44.980.471,7.735.206
S00041,Piemonte,Valenza,Valenza,45.023.527,8.625.808
S00042,Piemonte,Valmadonna,Valmadonna,44.972.588,8.610.667
S00237,Piemonte,Livorno Ferraris,Livorno Ferraris,45.283.402,8.073.493
S00617,Piemonte,Limone,Limone,44.203.799,7.577.912
S00466,Piemonte,Rocchetta Tanaro Cerro,Rocchetta T.C.,44.875.574,8.351.402
S00159,Piemonte,Rodallo,Rodallo,45.278.714,7.878.025
S00109,Piemonte,Romagnano Sesia,Romagnano Sesia,45.629.888,8.384.581
S00215,Piemonte,Rosta,Rosta,45.078.397,7.463.963
S00434,Piemonte,S.Anna Robella,S.Anna Rob.,45.074.464,808.568
S00236,Piemonte,S. Antonino Di Saluggia,S. Ant. Di Sal.,45.253.967,8.039.728
S00211,Piemonte,S. Antonino Vaie,S. Antonino Vaie,45.109.469,7.275.931
S00609,Piemonte,S.Benigno Di Cuneo,S.Benigno Di C.,44.461.002,7.572.712
S00461,Piemonte,S. Damiano D`Asti,S.Damiano D'Asti,44.878.914,8.125.956
S00457,Piemonte,Pessione,Pessione,44.965.132,7.841.321
S00011,Piemonte,Pettenasco,Pettenasco,45.820.498,8.406.802
S00903,Piemonte,Pianfei,Pianfei,44.385.228,7.717.109
S00922,Piemonte,Pievetta,Pievetta,44.257.449,8.021.744
S00517,Piemonte,Pinerolo,Pinerolo,44.887.673,7.337.402
S00515,Piemonte,Piscina Di Pinerolo,Piscina Di Pin.,44.921.744,7.425.482
S00838,Piemonte,Bergamasco,Bergamasco,44.819.891,8.461.447
S00238,Piemonte,Bianze`,Bianze',45.309.488,8.115.523
S00522,Piemonte,Bibiana,Bibiana,44.809.941,7.285.727
S00873,Piemonte,Mombaldone Roccaverano,Monbaldone Rocc.,44.569.891,8.332.781
S00808,Piemonte,Mombaruzzo,Mombaruzzo,4.476.235,8.441.006
S00019,Piemonte,Momo,Momo,45.574.646,855.689
S00453,Piemonte,Moncalieri,Moncalieri,44.998.187,7.678.027
S00340,Piemonte,Moncalvo,Moncalvo,45.059.463,8.261.905
S00735,Piemonte,Monchiero Dogliani,Monchiero Dogl.,44.571.815,7.917.635
S00952,Piemonte,Mondovi`,Mondovi',44.398.255,7.816.339
S00801,Piemonte,Mongardino,Mongardino,4.484.161,8.207.411
S00153,Piemonte,Montalto Dora,Montalto Dora,45.490.309,7.858.986
S00160,Piemonte,Montanaro,Montanaro,45.232.674,7.858.331
S00428,Piemonte,Montechiaro D`Asti,Montechiaro D'A.,44.999.849,810.982
S00872,Piemonte,Montechiaro Denice,Montechiaro D.,44.600.827,8.352.185
S00803,Piemonte,Montegrosso,Montegrosso,44.818.465,8.239.171
S00606,Piemonte,Fossano,Fossano,44.550.231,7.717.971
S00861,Piemonte,Gamalero,Gamalero,44.817.476,8.543.427
S00510,Piemonte,Moncalieri Sangone,Monc. Sangone,45.000.393,7.667.991
S00240,Piemonte,Santhia`,Santhia',45.363.726,8.180.093
S00341,Piemonte,Penango,Penango,45.032.254,8.235.138
S00422,Piemonte,Monteu Da Po,Monteu Da Po,45.158.353,8.022.925
S00823,Piemonte,Monticello D`Alba,Monticello D'A.,44.703.736,7.965.002
S00426,Piemonte,Montiglio Murisengo,Montiglio Muris.,45.067.664,8.106.913
S00734,Piemonte,Narzole,Narzole,44.598.377,7.881.597
S00827,Piemonte,Neive,Neive,44.723.048,8.121.071
S00833,Piemonte,Calamandrana,Calamandrana,44.738.986,8.331.572
S00020,Piemonte,Caltignaga,Caltignaga,45.519.167,8.591.602
S00108,Piemonte,Prato Sesia,Prato Sesia,45.646.472,8.370.476
S01009,Piemonte,Premosello Chiovenda,Premosello Ch.,46.002.188,8.326.649
S00102,Piemonte,Quarona,Quarona,45.763.547,8.266.603
S00150,Piemonte,Quincinetto,Quincinetto,45.567.295,7.809.711
S00602,Piemonte,Racconigi,Racconigi,44.771.179,7.685.681
S00615,Piemonte,Robilante,Robilante,44.296.496,7.510.906
S00740,Piemonte,Roccaciglie`,Roccaciglie',44.425.831,795.274
S00905,Piemonte,Roccadebaldi,Roccadebaldi,44.410.446,7.780.449
S00614,Piemonte,Roccavione,Roccavione,44.314.445,7.485.361
S00015,Piemonte,Gozzano,Gozzano,45.741.039,8.438.726
S00007,Piemonte,Gravellona Toce,Gravellona Toce,45.934.051,8.428.346
S00106,Piemonte,Grignasco,Grignasco,45.683.288,8.332.913
S00835,Piemonte,Incisa Scapaccino,Incisa Scapacc.,4.480.052,8.388.468
S00154,Piemonte,Ivrea,Ivrea,45.461.542,7.876.348
S00421,Piemonte,Lauriano,Lauriano,45.160.761,7.998.531
S01018,Piemonte,Lesa,Lesa,45.833.042,8.566.471
S00460,Piemonte,Baldichieri,Baldichieri,44.899.204,8.091.198
S00178,Piemonte,Balzola,Balzola,45.173.985,8.402.174
S00732,Piemonte,Bandito,Bandito,44.722.075,7.819.452
S00908,Piemonte,Bastia Mondovi`,Bastia Mondovi',44.439.398,7.891.671
S00807,Piemonte,Bazzana,Bazzana,44.777.094,8.401.557
S00901,Piemonte,Beinette,Beinette,4.436.782,7.644.884
S01017,Piemonte,Belgirate,Belgirate,45.843.337,8.570.821
S00985,Piemonte,Bellinzago,Bellinzago,45.566.681,8.627.652
S00463,Piemonte,S. Paolo Solbrito,S.Paolo Solbrito,44.951.753,7.975.779
S00420,Piemonte,S.Sebastiano Po,S.Sebastiano,45.167.102,7.953.781
S00831,Piemonte,S.Stefano Belbo,S.Stefano Belbo,4.471.714,8.241.233
S00822,Piemonte,S.Vittoria,S.Vittoria,4.469.561,7.916.909
S00205,Piemonte,Salbertrand,Salbertrand,45.073.478,6.887.428
S00743,Piemonte,Sale Langhe,Sale Langhe,44.392.425,8.077.468
S00744,Piemonte,Saliceto,Saliceto,44.404.437,8.172.887
S00235,Piemonte,Saluggia,Saluggia,4.523.443,8.017.112
S00074,Piemonte,Salussola,Salussola,4.544.438,8.115.195
S00072,Piemonte,Sandigliano,Sandigliano,45.519.652,8.081.531
S00731,Piemonte,Sanfre`,Sanfre',4.474.799,7.796.793
S00050,Piemonte,Comignago,Comignago,45.714.296,8.566.362
S00212,Piemonte,Condove,Condove,45.106.689,7.317.022
S00604,Piemonte,Savigliano,Savigliano,44.651.337,7.663.748
S00540,Piemonte,Scalenghe,Scalenghe,4.489.018,7.490.745
S00338,Piemonte,Serralunga Cereseto,Serralunga Cer.,45.100.914,830.742
S00431,Piemonte,Serravalle D`Asti,Serravalle D'A.,44.948.019,814.808
S00430,Piemonte,Settime Cinaglio Mombarone,Settime C.M.,44.966.229,8.128.853
S00151,Piemonte,Settimo Tavagnasco,Settimo Tavagn.,45.546.214,7.825.189
S00978,Piemonte,Sillavengo,Sillavengo,45.521.303,8.444.987
S00111,Piemonte,Sizzano,Sizzano,45.573.834,8.436.024
S00730,Piemonte,Sommariva Bosco,Sommariva Bosco,44.770.754,7.777.086
S00874,Piemonte,Spigno,Spigno,44.539.437,8.317.924
S01940,Piemonte,Spinetta,Spinetta,44.882.378,8.683.146
S01016,Piemonte,Stresa,Stresa,45.884.486,8.531.454
S00866,Piemonte,Strevi,Strevi,44.697.771,8.525.525
S00018,Piemonte,Suno,Suno,45.620.435,8.519.344
S00954,Piemonte,Lesegno,Lesegno,44.385.891,794.266
S00174,Piemonte,Fontanetto Po,Fontanetto Po,45.191.238,8.188.697
S00973,Piemonte,Cossato,Cossato,45.564.216,8.175.964
S00348,Piemonte,Costigliole (Motta Di),Costigliole,44.807.559,8.145.712
S00829,Piemonte,Costigliole D`Asti,Costigliole D'A.,44.754.882,820.477
S00702,Piemonte,Costigliole Saluzzo,Costigliole Sal.,44.570.196,7.482.075
S00030,Piemonte,Garbagna,Garbagna,45.385.552,866.627
S00924,Piemonte,Garessio,Garessio,44.199.088,8.015.214
S00052,Piemonte,Gattinara,Gattinara,45.611.523,8.364.288
S00110,Piemonte,Ghemme,Ghemme,45.595.882,8.417.135
S00343,Piemonte,Castell`Alfero,Castell'Alfero,44.986.347,8.220.882
S00720,Piemonte,Castelletto Busca,Castellet. Busca,44.501.319,7.463.939
S00741,Piemonte,Castellino Tanaro,Castellino T.,4.441.657,7.974.321
S00836,Piemonte,Castelnuovo Belbo,Castelnuovo B.,44.798.127,842.516
S00233,Piemonte,Castelrosso,Castelrosso,45.201.802,7.932.162
S00423,Piemonte,Cavagnolo Brusasco,Cavagnolo Brus.,45.153.655,8.047.534
S00608,Piemonte,Centallo,Centallo,44.496.223,7.591.035
S00546,Piemonte,Cervignasco,Cervignasco,44.699.669,7.518.644
S00521,Piemonte,Bricherasio,Bricherasio,44.824.336,7.307.513
S00113,Piemonte,Briona,Briona,45.538.568,8.479.541
S00424,Piemonte,Brozolo,Brozolo,45.121.299,805.893
S00837,Piemonte,Bruno,Bruno,44.797.947,8.439.639
S00704,Piemonte,Busca,Busca,44.520.585,7.481.589
S00208,Piemonte,Bussoleno,Bussoleno,45.139.631,7.144.819
S04207,Piemonte,Arquata Scrivia,Arquata Scrivia,44.692.533,8.885.342
S00742,Piemonte,Ceva,Ceva,44.389.861,8.031.958
S00733,Piemonte,Cherasco,Cherasco,4.465.261,7.867.211
S00500,Piemonte,Chieri,Chieri,45.007.008,7.827.077
S00206,Piemonte,Chiomonte,Chiomonte,45.119.876,6.988.716
S00232,Piemonte,Chivasso,Chivasso,45.193.637,7.889.666
S00425,Piemonte,Cocconato,Cocconato,45.082.926,8.070.145
S00214,Piemonte,Avigliana,Avigliana,45.085.276,7.401.096
S00027,Piemonte,Bivio Castelrosso,Biv. Castelrosso,45.201.871,7.932.861
S00005,Piemonte,Bivio Sesia,Biv. Sesia,45.338.661,8.441.797
S00921,Piemonte,Bagnasco,Bagnasco,44.303.264,8.046.132
S00070,Piemonte,Biella S.Paolo,Biella S.Paolo,45.557.334,8.067.541
S00870,Piemonte,Bistagno,Bistagno,44.659.256,8.372.057
S00014,Piemonte,Bolzano Novarese,Bolzano Novarese,45.759.357,8.440.754
S00032,Piemonte,Borgo Lavezzaro,Borgo Lavezzaro,45.318.783,8.703.242
S00171,Piemonte,Borgo Revel,Borgo Revel,45.189.827,802.021
S00981,Piemonte,Borgo Ticino,Borgo Ticino,45.691.943,8.602.483
S00246,Piemonte,Borgo Vercelli,Borgo Vercelli,45.359.252,8.461.474
S00152,Piemonte,Borgofranco,Borgofranco,45.514.775,7.854.612
S00016,Piemonte,Borgomanero,Borgomanero,45.701.054,8.468.093
S00210,Piemonte,Borgone,Borgone,45.123.191,7.236.037
S00860,Piemonte,Borgoratto,Borgoratto,44.835.999,8.538.182
S00104,Piemonte,Borgosesia,Borgosesia,45.716.798,828.239
S00821,Piemonte,Bra,Bra,44.693.556,7.848.643
S00231,Piemonte,Brandizzo,Brandizzo,45.178.915,7.841.218
S00622,Piemonte,Breil Sur Roya,Breil Sur Roya,43.890.267,7.530.915
S00071,Piemonte,Candelo,Candelo,45.547.433,8.100.103
S00512,Piemonte,Candiolo,Candiolo,44.961.155,7.598.973
S01011,Piemonte,Candoglia Ornavasso,Candoglia Ornav.,45.977.489,8.419.715
S00832,Piemonte,Canelli,Canelli,44.716.716,8.294.544
S00841,Piemonte,Cantalupo,Cantalupo,44.864.787,8.551.357
S00839,Piemonte,Carentino,Carentino,44.831.303,8.470.474
S00055,Piemonte,Carisio,Carisio,45.403.164,821.249
S00601,Piemonte,Carmagnola,Carmagnola,44.846.944,772.797
S00971,Piemonte,Carpignano Sesia,Carpignano,45.528.934,8.422.898
S00738,Piemonte,Carru` Clavesana,Carru' Clavesana,44.479.548,7.891.414
S00314,Piemonte,Casale Monferrato,Casale Monferr.,45.133.928,8.460.292
S00179,Piemonte,Casale Popolo,Casale Popolo,45.160.434,844.055
S00828,Piemonte,Castagnole Delle Lanze,Castagnole,44.749.341,8.152.836
S04101,Piemonte,Prasco Cremolino,Prasco Cremolino,44.648.906,855.001
S04003,Piemonte,Predosa,Predosa,44.750.978,8.651.132
S04208,Piemonte,Rigoroso,Rigoroso,44.670.577,8.896.487
S04004,Piemonte,Rio Secco,Rio Secco,44.722.275,8.658.805
S04331,Piemonte,Rivalta Scrivia,Rivalta Scriv.,44.854.158,8.809.846
S04206,Piemonte,Serravalle Scrivia,Serravalle Scr.,4.472.393,8.858.548
S04303,Piemonte,Stazzano Serravalle,Stazzano Serrav.,44.719.374,8.865.301
S01810,Piemonte,Tortona,Tortona,44.900.126,8.861.777
S04301,Piemonte,Villalvernia,Villalvernia,44.810.592,8.855.655
S04100,Piemonte,Visone,Visone,44.661.951,8.500.198
S00804,Piemonte,Agliano Castelnuovo Calcea,Agliano C.C.,44.786.108,8.267.723
S00514,Piemonte,Airasca,Airasca,44.928.093,7.483.536
S00809,Piemonte,Alice Belcolle,Alice Belcolle,44.722.636,8.440.076
S00216,Piemonte,Alpignano,Alpignano,45.091.077,7.523.745
S01020,Piemonte,Arona,Arona,45.755.392,8.559.075
S00867,Piemonte,Acqui Terme,Acqui Terme,4.467.407,8.474.482
S00470,Piemonte,Alessandria,Alessandria,44.909.091,8.606.498
S01050,Piemonte,Deviatoio Estremo Tortona,De Tortona,44.895.759,8.840.548
S04302,Piemonte,Cassano Spinola,Cassano Spinola,44.762.631,8.858.833
S04001,Piemonte,Castelspina Portanova,Castelspina P.,44.796.662,862.203
S04202,Piemonte,Donna,Donna,44.818.902,8.712.792
S04200,Piemonte,Frugarolo Boscomarengo,Frugarolo B.,44.841.687,8.682.724
S04102,Piemonte,Molare,Molare,44.621.975,8.609.904
S04203,Piemonte,Novi Ligure,Novi Ligure,44.762.521,8.787.289
S04103,Piemonte,Ovada,Ovada,44.630.377,8.632.301
S04007,Piemonte,Ovada Nord,Ovada Nord,44.646.656,8.644.633
S04330,Piemonte,Pozzolo Formigaro,Pozzolo Formig.,44.797.395,8.782.521
S09453,Molise,Boiano,Boiano,41.487.883,14.474.551
S09464,Molise,Bonefro S.Croce,Bonefro S.Croce,41.710.522,14.860.799
S08914,Molise,Carovilli-Roccasicura,Carovilli-Roccas,41.712.485,14.299.732
S09050,Molise,Carpinone,Carpinone,41.588.038,14.326.783
S09465,Molise,Casacalenda Guardialfiera,Casacalenda G.,41.738.109,14.849.602
S09501,Molise,Sepino,Sepino,41.413.946,14.657.456
S11019,Molise,Termoli,Termoli,42.000.623,14.992.805
S09469,Molise,Guglionesi Portocannone,Guglionesi Port.,41.932.026,14.986.368
S09466,Molise,Larino,Larino,4.180.015,14.918.226
S08912,Molise,S. Pietro Avellana-Capracotta,S.Pietro A.-Capr,4.176.978,1.419.995
S11020,Molise,Campomarino,Campomarino,41.957.398,15.042.416
S09463,Molise,Ripabottoni S.Elia,Ripabottoni S.E.,41.669.666,14.844.353
S07825,Molise,Montenero Petacciato,Montenero P.,42.033.286,14.851.015
S09467,Molise,Ururi Rotello,Ururi Rotello,41.801.134,14.953.072
S09458,Molise,Baranello,Baranello,415.176,14.596.314
S09060,Molise,Venafro,Venafro,41.482.975,14.048.722
S08917,Molise,Sessano Del Molise,Sessano Del Mol.,41.639.587,1.432.853
S08913,Molise,Vastogirardi,Vastogirardi,41.739.482,14.249.334
S08915,Molise,Pescolanciano-Chiauci,Pescolanciano-C.,41.678.996,14.341.588
S09057,Molise,Monteroduni,Monteroduni,41.528.345,14.156.514
S09058,Molise,Rocca Ravindola,Rocca Ravindola,41.521.035,14.122.965
S09457,Molise,Vinchiaturo,Vinchiaturo,4.149.385,1.459.801
S09459,Molise,Campobasso,Campobasso,41.558.137,1.466.393
S09451,Molise,Cantalupo Del Sannio,Cantalupo Del S.,415.174,146.671
S09462,Molise,Campolieto Monacilioni,Campolieto M.,41.642.573,1.476.544
S09059,Molise,S.Maria Oliveto,S.Maria Oliveto,41.507.208,14.096.049
S09061,Molise,Capriati Al Volturno,Capriati Al V.,4.144.279,14.070.664
S09452,Molise,Bosco Redole,Bosco Redole,41.459.299,14.587.884
S09456,Molise,Guardiaregia,Guardiaregia,41.457.455,14.553.753
S09461,Molise,Matrice Montagano,Matrice Montag.,41.621.321,14.699.561
S09468,Molise,S.Martino In Pensilis,S.Martino In P.,41.877.211,14.984.218
S09062,Molise,Sesto Campano,Sesto Campano,41.420.005,14.088.909
S07059,Marche,Fabriano Ca` Maiano,Fabriano Ca' M.,43.345.598,12.873.939
S07556,Marche,Marino Del Tronto Folignano,Marino Del Tr.,42.844.346,13.632.995
S07207,Marche,Albacina,Albacina,43.345.686,12.986.501
S07113,Marche,Ancona,Ancona,43.607.734,13.497.665
S07116,Marche,Ancona Marittima,Ancona Mar.,43.619.445,1.350.911
S07550,Marche,Ascoli Piceno,Ascoli P.,42.855.474,13.587.939
S07302,Marche,Castelraimondo Camerino,Castelraimondo,43.210.511,13.057.274
S07063,Marche,Sassoferrato Arcevia,Sassoferrato A.,43.435.381,12.851.514
S07205,Marche,Serra S.Quirico,Serra S.Quirico,43.444.879,13.027.408
S07552,Marche,Spinetoli Colli,Spinetoli C.,4.287.032,13.762.811
S07234,Marche,Pantiere Di Castelbellino,Pantiere Di C.,43.500.941,13.183.116
S07510,Marche,Pedaso,Pedaso,43.094.694,13.844.906
S07060,Marche,Pergola,Pergola,43.549.653,12.832.973
S07309,Marche,Morrovalle Monte S.Giusto,Morrovalle Msg,43.279.189,1.358.285
S07312,Marche,S.Claudio,S.Claudio,43.287.357,13.532.751
S07104,Marche,Pesaro,Pesaro,43.906.014,12.904.848
S07110,Marche,Montemarciano,Montemarciano,43.651.397,13.346.478
S07554,Marche,Monteprandone,Monteprandone,42.894.183,13.849.996
S07062,Marche,Monterosso Marche,Monterosso M.,43.462.227,12.818.339
S07551,Marche,Offida Castel Di Lama,Offida,42.862.074,13.720.285
S07502,Marche,Osimo Castelfidardo,Osimo Castelf.,43.497.033,13.547.263
S07112,Marche,Palombina,Palombina,4.361.701,13.429.721
S07503,Marche,Loreto,Loreto,43.448.376,13.620.455
S07307,Marche,Macerata,Macerata,43.293.094,13.455.172
S07555,Marche,Maltignano Del Tronto,Maltignano T.,42.844.918,13.664.738
S07107,Marche,Marotta Mondolfo,Marotta Mondolfo,43.769.748,13.137.273
S07109,Marche,Marzocca,Marzocca,43.677.362,13.287.922
S07301,Marche,Matelica,Matelica,4.325.394,1.301.509
S07511,Marche,Cupramarittima,Cupramarittima,4.302.349,13.860.812
S07208,Marche,Fabriano,Fabriano,43.345.429,12.905.336
S07105,Marche,Fano,Fano,43.842.977,1.302.478
S07505,Marche,Potenza Picena Montelupone,Potenza Pic.,4.336.991,1.359.265
S07500,Marche,Varano,Varano,43.574.729,13.523.436
S07305,Marche,Pollenza,Pollenza,43.240.933,13.367.031
S07504,Marche,Porto Recanati,Porto Rec.,43.433.726,13.661.464
S07508,Marche,Porto S. Giorgio Fermo,Porto S.Giorgio,4.317.972,137.975
S07512,Marche,Grottammare,Grottammare,4.299.381,13.870.265
S07202,Marche,Jesi,Jesi,43.520.164,13.251.316
S07306,Marche,Urbisaglia Sforzacosta,Urbisaglia S.,4.325.746,13.416.932
S07117,Marche,Falconara Stadio,Falconara Stadio,43.626.158,13.381.179
S07300,Marche,Cerreto D`Esi,Cerreto D'Esi,4.332.205,1.298.319
S07015,Marche,Ancona Torrette,Ancona Torrette,43.609.936,13.455.777
S07313,Marche,Macerata Fontescodella,Macerata Fontesc,43.291.569,1.344.048
S07200,Marche,Castelferretti,Castelferretti,43.607.303,13.357.519
S07061,Marche,Bellisio Solfare,Bellisio Solfare,43.520.379,12.823.977
S07065,Marche,Melano Marischio,Melano Marischio,43.345.046,12.858.866
S07108,Marche,Senigallia,Senigallia,43.716.277,13.221.652
S07111,Marche,Falconara Marittima,Falconara M.,43.630.577,13.397.378
S07201,Marche,Chiaravalle,Chiaravalle,43.595.503,13.327.655
S07203,Marche,Montecarotto Castelbellino,Montecarotto C.,43.500.005,131.481
S07204,Marche,Castelplanio Cupramontana,Castelplanio C.,43.481.403,13.084.733
S07206,Marche,Genga S.Vittore Terme,Genga S.V.T.,43.403.011,12.977.163
S07303,Marche,S.Severino Marche,S.Severino M.,4.322.996,13.183.491
S07304,Marche,Tolentino,Tolentino,43.214.556,13.290.501
S07308,Marche,Corridonia Mogliano,Corridonia M.,43.281.616,13.477.697
S07310,Marche,Montecosaro,Montecosaro,43.289.297,13.646.378
S07311,Marche,Gagliole,Gagliole,43.220.298,1.307.522
S07506,Marche,Civitanova Marche,Civitanova,433.091,137.257
S07507,Marche,Porto S. Elpidio,Porto S.Elpidio,43.256.855,13.760.749
S07513,Marche,S.Benedetto Del Tronto,S.Benedetto T.,42.954.386,13.882.297
S07553,Marche,Monsampolo Del Tronto,Monsampolo,42.881.488,13.803.569
S07557,Marche,S.Filippo,S.Filippo,42.849.787,13.599.949
S01427,Lombardia,Ardenno Masino,Ardenno Masino,4.616.198,9.651.374
S01947,Lombardia,Arena Po,Arena Po,45.082.065,9.360.394
S01847,Lombardia,Asola,Asola,45.220.454,10.402.313
S01041,Lombardia,Corbetta S. Stefano,Corbetta S.Stef.,45.480.829,8.917.457
S01424,Lombardia,Cosio Traona,Cosio Traona,46.135.564,9.525.498
S01207,Lombardia,Gazzada Schianno Morazzone,Gazzada Schian.M,4.577.862,8.824.815
S02381,Lombardia,Gazzo Di Bigarello,Gazzo Di Bigarel,45.176.648,10.894.005
S01841,Lombardia,Ghedi,Ghedi,45.409.439,10.280.506
S02382,Lombardia,Castel D`Ario,Castel D'Ario,45.183.399,1.097.531
S01606,Lombardia,Castelleone,Castelleone,45.301.826,976.779
S01923,Lombardia,Castellucchio,Castellucchio,45.144.293,1.064.749
S01429,Lombardia,Castione Andevenno,Castione A.,46.161.659,9.806.151
S01208,Lombardia,Castronno,Castronno,4.574.524,8.810.302
S00279,Lombardia,Cava Carbonara,Cava Carbonara,45.147.055,9.071.387
S01914,Lombardia,Cava Tigozzi,Cava Tigozzi,45.156.823,9.955.827
S01210,Lombardia,Cavaria Oggiona Jerago,Cavaria Oggiona,45.698.145,88.035
S01513,Lombardia,Cernusco-Merate,Cernusco-Merate,45.695.096,9.396.794
S01803,Lombardia,Certosa Di Pavia,Certosa Di Pavia,45.256.927,9.154.456
S01930,Lombardia,Bressana Argine,Bressana Argine,45.072.739,9.137.038
S01805,Lombardia,Bressana Bottarone,Bressana Bott.,45.086.298,9.110.602
S01944,Lombardia,Broni,Broni,45.066.263,9.258.751
S01713,Lombardia,Chiari,Chiari,4.554.011,9.926.474
S01400,Lombardia,Chiavenna,Chiavenna,46.321.258,9.407.129
S01868,Lombardia,Chignolo Po,Chignolo Po,45.160.942,9.494.196
S01536,Lombardia,Chiuduno,Chiuduno,45.650.449,9.846.924
S01435,Lombardia,Chiuro,Chiuro,46.164.658,9.992.317
S01525,Lombardia,Cisano Caprino Bergamasco,Cisano Capr.B.,45.739.606,9.474.261
S01462,Lombardia,Civate,Civate,45.831.295,9.352.877
S01540,Lombardia,Coccaglio,Coccaglio,45.560.971,9.977.648
S01828,Lombardia,Codogno,Codogno,45.154.897,9.701.376
S01420,Lombardia,Colico,Colico,46.138.019,9.375.222
S02338,Lombardia,Borgoforte,Borgoforte,45.050.328,10.752.388
S01830,Lombardia,Borgolombardo,Borgolombardo,45.403.856,927.111
S01920,Lombardia,Bozzolo,Bozzolo,45.107.246,10.472.655
S01452,Lombardia,Brenna-Alzate,Brenna-Alzate,45.754.044,9.183.312
S01717,Lombardia,Brescia,Brescia,45.532.315,10.212.828
S00333,Lombardia,Candia Lomellina,Candia Lomellina,45.179.911,8.593.156
S01848,Lombardia,Canneto Sull`Oglio,Canneto S/Oglio,45.150.211,1.037.147
S01313,Lombardia,Cantu`- Cermenate,Cantu'-Cermenate,45.716.236,9.099.284
S01603,Lombardia,Capralba,Capralba,45.443.871,9.640.015
S01602,Lombardia,Caravaggio,Caravaggio,45.491.158,9.637.723
S01315,Lombardia,Carimate,Carimate,45.697.094,9.107.188
S01511,Lombardia,Carnate Usmate,Carnate Usmate,45.653.072,9.375.089
S01609,Lombardia,Casalbuttano,Casalbuttano,45.255.398,9.962.361
S01604,Lombardia,Casaletto Vaprio,Casaletto Vaprio,45.408.641,9.631.746
S01850,Lombardia,Casalmaggiore,Casalmaggiore,44.993.139,10.425.023
S01827,Lombardia,Casalpusterlengo,Casalpusterlengo,45.182.473,9.653.627
S01457,Lombardia,Casletto-Rogeno,Casletto-Rogeno,45.786.028,9.275.375
S01029,Lombardia,Casorate Sempione,Casorate Semp.,45.675.075,8.743.954
S01490,Lombardia,Cassago-Nibionno-Bulciago,Cassago-N.-B.,45.746.243,9.279.834
S01707,Lombardia,Cassano D`Adda,Cassano D'Adda,45.514.372,9.512.746
S01942,Lombardia,Casteggio,Casteggio,45.017.365,9.124.595
S01416,Lombardia,Abbadia Lariana,Abbadia Lariana,45.895.864,9.335.175
S01062,Lombardia,Abbiategrasso,Abbiategrasso,45.400.631,8.921.305
S01913,Lombardia,Acquanegra Cremonese,Acquanegra Crem.,45.172.102,9.888.456
S01515,Lombardia,Airuno,Airuno,45.754.086,9.422.066
S01310,Lombardia,Albate Camerlata,Albate-Camerlata,45.777.371,9.073.461
S01450,Lombardia,Albate-Trecallo,Albate-Trecallo,45.777.391,9.095.752
S01209,Lombardia,Albizzate Solbiate Arno,Albizzate S.A.,45.724.117,880.621
S01863,Lombardia,Albuzzano,Albuzzano,45.172.504,9.261.624
S01527,Lombardia,Ambivere Mapello,Ambivere Mapello,45.722.163,9.550.444
S01453,Lombardia,Anzano Del Parco,Anzano Del Parco,45.764.965,9.202.676
S01203,Lombardia,Arcisate,Arcisate,45.858.579,886.241
S01510,Lombardia,Arcore,Arcore,45.623.493,9.322.798
S00274,Lombardia,Gambolo`Remondo`,Gambolo'Remondo',4.523.587,879.757
S01140,Lombardia,Sangiano,Sangiano,45.874.464,8.630.769
S00038,Lombardia,Sartirana,Sartirana,45.111.728,867.012
S01840,Lombardia,Montirone,Montirone,45.451.352,10.239.482
S01322,Lombardia,Monza,Monza,45.577.789,9.273.253
S01480,Lombardia,Monza Sobborghi,Monza Sobborghi,45.582.082,9.284.375
S01425,Lombardia,Morbegno,Morbegno,46.136.663,9.568.646
S01710,Lombardia,Morengo Bariano,Morengo Bariano,45.521.639,9.703.114
S01144,Lombardia,Mornago Cimbro,Mornago Cimbro,45.729.742,8.734.193
S00034,Lombardia,Mortara,Mortara,45.252.171,8.731.639
S02339,Lombardia,Motteggiana,Motteggiana,45.029.685,10.755.439
S01482,Lombardia,Buttafava,Buttafava,4.562.141,9.301.185
S01712,Lombardia,Calcio,Calcio,45.532.937,9.841.342
S01117,Lombardia,Calde`,Calde',45.945.812,8.663.157
S01524,Lombardia,Calolziocorte Olginate,Calolziocorte O.,45.801.619,942.698
S01503,Lombardia,Calusco,Calusco,45.684.113,9.470.646
S01843,Lombardia,Calvisano,Calvisano,45.346.572,10.349.411
S01861,Lombardia,Pavia Porta Garibaldi,Pavia P.Garib.,45.183.996,9.167.331
S01845,Lombardia,Remedello Sopra,Remedello Sopra,4.527.848,10.379.211
S01846,Lombardia,Remedello Sotto,Remedello Sotto,45.257.477,10.388.402
S05305,Lombardia,Revere,Revere,45.049.863,11.130.884
S05306,Lombardia,Revere Scalo,Revere Scalo,45.040.431,11.129.847
S01037,Lombardia,Rho,Rho,45.523.813,9.043.563
S01904,Lombardia,Robecco-Pontevico,Robecco P.,45.266.224,10.078.593
S02344,Lombardia,Gonzaga-Reggiolo,Gonzaga-Reggiolo,44.939.239,10.815.533
S00277,Lombardia,Gropello Cairoli,Gropello Cairoli,45.173.101,8.991.626
S01537,Lombardia,Grumello Del Monte,Grumello D.M.,45.634.102,9.862.767
S01204,Lombardia,Induno Olona,Induno Olona,45.846.432,8.838.357
S01121,Lombardia,Ispra,Ispra,45.811.573,8.621.338
S01869,Lombardia,Lambrinia,Lambrinia,45.164.376,9.527.436
S01118,Lombardia,Laveno Mombello,Laveno Mombello,45.903.272,8.624.583
S01520,Lombardia,Lecco,Lecco,45.856.471,9.393.638
S01522,Lombardia,Lecco Maggianico,Lecco Maggianico,45.831.179,9.411.691
S01120,Lombardia,Leggiuno Monvalle,Leggiuno Monval.,45.867.349,8.629.476
S01033,Lombardia,Legnano,Legnano,45.593.653,8.910.638
S01901,Lombardia,Bagnolo Mella,Bagnolo Mella,45.428.532,10.183.617
S01409,Lombardia,Bellano Tartavelle Terme,Bellano T.Terme,46.039.448,9.302.776
S01829,Lombardia,S.Stefano Lodigiano,S.Stefano Lodig.,45.122.091,9.723.606
S01900,Lombardia,S. Zeno Folzano,S. Zeno Folzano,45.491.552,10.211.683
S01823,Lombardia,S. Zenone Al Lambro,S. Zenone Al L.,45.337.824,936.126
S00400,Lombardia,Sairano Zinasco,Sairano Zinasco,45.133.795,9.030.153
S01461,Lombardia,Sala Al Barro-Galbiate,Sala Al Barro,45.821.086,9.359.223
S01402,Lombardia,Samolaco,Samolaco,46.246.436,9.423.582
S01539,Lombardia,Cologne,Cologne,45.576.627,9.935.316
S01307,Lombardia,Como S. Giovanni,Como S.Giovanni,45.808.946,9.072.331
S01826,Lombardia,Secugnago,Secugnago,45.223.253,958.684
S01318,Lombardia,Seregno,Seregno,4.564.601,920.285
S01533,Lombardia,Seriate,Seriate,45.683.145,9.724.628
S01026,Lombardia,Sesto Calende,Sesto Calende,45.726.241,8.628.135
S01325,Lombardia,Sesto S. Giovanni,Sesto S.Giovanni,45.541.087,923.926
S01028,Lombardia,Somma Lombardo,Somma Lombardo,45.686.423,8.712.991
S01430,Lombardia,Sondrio,Sondrio,46.167.064,9.872.928
S01607,Lombardia,Soresina,Soresina,45.283.083,985.664
S01945,Lombardia,Stradella,Stradella,45.079.465,9.300.865
S02340,Lombardia,Suzzara,Suzzara,44.994.432,10.756.138
S01122,Lombardia,Taino Angera,Taino Angera,45.772.269,860.599
S01426,Lombardia,Talamona,Talamona,4.613.952,9.599.528
S01143,Lombardia,Ternate Varano Borghi,Ternate V.B.,45.781.835,8.700.371
S01504,Lombardia,Terno,Terno,45.688.658,9.536.169
S00404,Lombardia,Ferrera Lomellina,Ferrera Lomell.,45.111.807,8.862.805
S01412,Lombardia,Fiumelatte,Fiumelatte,45.999.017,9.292.857
S01035,Lombardia,Parabiago,Parabiago,45.552.441,8.946.319
S01060,Lombardia,Parona Lomellina,Parona Lomellina,45.280.107,8.780.315
S01860,Lombardia,Pavia,Pavia,45.188.843,9.144.674
S01700,Lombardia,Milano Centrale,Milano Centrale,45.486.347,9.204.528
S01032,Lombardia,Milano Romolo,Milano Romolo,45.445.008,9.168.933
S01925,Lombardia,Seveso,Seveso,45.648.187,9.140.488
S01933,Lombardia,Saronno,Saronno,45.625.309,9.030.839
S01089,Lombardia,Mariano Comense,Mariano Comense,45.693.622,918.147
S01101,Lombardia,Asso,Asso,45.855.228,9.268.513
S00332,Lombardia,Cozzo,Cozzo,45.182.989,8.603.292
S01915,Lombardia,Cremona,Cremona,45.143.215,10.017.951
S01312,Lombardia,Cucciago,Cucciago,45.740.813,9.082.205
S01422,Lombardia,Delebio,Delebio,4.613.865,9.461.168
S02084,Lombardia,Desenzano,Desenzano,45.462.677,10.536.322
S01407,Lombardia,Dorio,Dorio,46.102.756,9.319.063
S01460,Lombardia,Oggiono,Oggiono,45.788.993,933.748
S01414,Lombardia,Olcio,Olcio,45.938.011,9.313.898
S00036,Lombardia,Olevano,Olevano,45.212.119,871.182
S01514,Lombardia,Olgiate-Calco-Brivio,Olgiate-C.-B.,45.729.166,940.377
S01905,Lombardia,Olmeneta,Olmeneta,45.231.099,1.003.194
S01870,Lombardia,Orio Litta,Orio Litta,45.166.778,9.550.592
S01512,Lombardia,Osnago,Osnago,45.678.532,9.386.995
S01871,Lombardia,Ospedaletto Lodigiano,Ospedaletto Lod.,4.516.933,9.575.164
S01922,Lombardia,Ospitaletto Mantovano,Ospitaletto Man.,45.129.748,10.604.406
S05304,Lombardia,Ostiglia,Ostiglia,45.072.228,11.141.059
S01502,Lombardia,Paderno Robbiate,Paderno Robbiate,45.678.307,9.439.202
S01538,Lombardia,Palazzolo Sull`Oglio,Palazzolo S/O.,45.601.486,9.896.235
S00271,Lombardia,Palestro,Palestro,45.307.274,8.534.511
S02343,Lombardia,Palidano,Palidano,44.972.228,10.777.412
S01918,Lombardia,Torre De` Picenardi,Torre De' Picen.,45.137.198,10.286.849
S00039,Lombardia,Torreberetti,Torreberetti,45.060.533,8.660.431
S01142,Lombardia,Travedona Biandronno,Travedona Biand.,45.809.601,8.696.322
S01706,Lombardia,Trecella,Trecella,45.512.792,9.480.674
S01708,Lombardia,Treviglio,Treviglio,45.515.063,9.587.919
S01601,Lombardia,Treviglio Ovest,Treviglio Ovest,45.521.762,9.580.281
S01485,Lombardia,Triuggio-Ponte Albiate,Triuggio-P.A.,45.658.956,9.266.961
S00275,Lombardia,Tromello,Tromello,45.211.988,8.872.154
S00037,Lombardia,Valle Lomellina,Valle Lomellina,45.150.588,8.685.874
S01501,Lombardia,Lesmo,Lesmo,45.644.745,9.309.318
S01413,Lombardia,Lierna,Lierna,45.960.973,9.303.071
S01321,Lombardia,Lissone-Muggio`,Lissone-Muggio',4.560.592,9.235.368
S01801,Lombardia,Locate Triulzi,Locate Triulzi,4.535.973,9.221.398
S01423,Lombardia,Rogolo,Rogolo,46.138.696,9.486.985
S01711,Lombardia,Romano,Romano,45.523.839,9.753.402
S02337,Lombardia,Romanore,Romanore,45.063.834,10.750.997
S01714,Lombardia,Rovato,Rovato,4.555.193,10.000.924
S02333,Lombardia,Roverbella,Roverbella,45.252.645,10.796.795
S02334,Lombardia,S.Antonio Mantovano,S.A.Mantovano,45.187.447,10.785.806
S01866,Lombardia,S. Cristina E Bissone,S.Cristina E Bis,45.160.533,9.401.006
S00402,Lombardia,Pieve Albignola,Pieve Albignola,45.116.248,8.959.723
S01406,Lombardia,Piona,Piona,46.124.696,9.350.759
S01911,Lombardia,Pizzighettone,Pizzighettone,45.181.772,9.777.133
S01488,Lombardia,Besana,Besana,45.702.824,928.288
S01145,Lombardia,Besnate,Besnate,45.695.409,8.761.072
S01438,Lombardia,Bianzone,Bianzone,46.179.383,10.112.507
S01483,Lombardia,Biassono-Lesmo Parco,Biassono-Lesmo P,45.632.209,9.298.408
S01867,Lombardia,Miradolo Terme,Miradolo Terme,45.162.007,9.449.952
S02380,Lombardia,Mantova Frassine,Mantova Frassine,45.150.491,10.831.007
S01456,Lombardia,Moiana,Moiana,45.787.082,9.255.607
S01458,Lombardia,Molteno,Molteno,45.780.939,9.301.683
S01535,Lombardia,Montello Gorlago,Montello Gorlago,4.567.017,9.808.488
S01526,Lombardia,Pontida,Pontida,45.730.084,9.511.632
S01200,Lombardia,Porto Ceresio,Porto Ceresio,45.903.675,8.900.357
S01116,Lombardia,Porto Valtravaglia,Porto Valtrav.,45.958.219,8.674.141
S01824,Lombardia,Tavazzano,Tavazzano,4.532.629,9.402.748
S01030,Lombardia,Gallarate,Gallarate,45.659.828,8.798.243
S00276,Lombardia,Garlasco,Garlasco,45.198.948,8.926.829
S01917,Lombardia,Gazzo Pieve S. Giacomo,Gazzo Pieve S.G.,45.137.151,10.189.922
S01534,Lombardia,Albano S.Alessandro,Albano S.Aless.,45.682.744,9.768.027
S00033,Lombardia,Albonese,Albonese,45.297.785,8.714.601
S01436,Lombardia,S. Giacomo Di Teglio,S. Giacomo Di T.,46.159.722,10.027.405
S01849,Lombardia,S. Giovanni In Croce,S.Giov. In Croce,45.075.783,10.377.527
S01943,Lombardia,S.Giuletta,S.Giuletta,45.035.719,9.179.239
S01821,Lombardia,S. Giuliano Milanese,S. Giuliano Mil.,45.391.226,9.286.418
S01924,Lombardia,S.Michele In Bosco,S.Michele In B.,45.122.404,1.057.329
S05308,Lombardia,Poggio Rusco,Poggio Rusco,44.981.859,11.124.627
S01864,Lombardia,Belgioioso,Belgioioso,4.516.456,9.316.875
S01141,Lombardia,Besozzo,Besozzo,45.842.188,8.662.997
S01862,Lombardia,Motta S. Damiano,Motta S.Damiano,45.178.344,9.219.866
S00273,Lombardia,Nicorvo,Nicorvo,45.275.462,86.712
S01403,Lombardia,Novate-Mezzola,Novate-Mezzola,46.216.595,9.446.573
S01919,Lombardia,Piadena,Piadena,45.127.608,10.369.962
S01931,Lombardia,Pinarolo Po,Pinarolo Po,45.073.415,9.170.273
S01703,Lombardia,Pioltello Limito,Pioltello Lim.,45.486.019,9.329.319
S01865,Lombardia,Corteolona,Corteolona,45.159.701,9.375.477
S01491,Lombardia,Costa Masnaga,Costa Masnaga,4.576.343,9.285.231
S01605,Lombardia,Crema,Crema,45.366.864,9.694.209
S01408,Lombardia,Dervio,Dervio,46.077.709,930.596
S01320,Lombardia,Desio,Desio,45.620.112,9.218.495
S01411,Lombardia,Varenna Esino,Varenna Esino,46.015,9.286.405
S01205,Lombardia,Varese,Varese,45.816.201,8.833.089
S01523,Lombardia,Vercurago S.Girolamo,Vercurago S.Gir.,45.812.122,9.422.349
S01600,Lombardia,Verdello Dalmine,Verdello Dalmine,45.605.715,9.619.797
S01027,Lombardia,Vergiate,Vergiate,45.717.119,8.693.187
S01903,Lombardia,Verolanuova,Verolanuova,45.324.989,1.008.388
S01842,Lombardia,Viadana Bresciana,Viadana Bresc.,45.373.648,10.331.792
S01709,Lombardia,Vidalengo,Vidalengo,45.517.854,9.639.676
S01061,Lombardia,Vigevano,Vigevano,45.312.712,8.861.977
S01704,Lombardia,Vignate,Vignate,45.493.946,9.374.083
S01439,Lombardia,Villa Di Tirano,Villa Di Tirano,46.196.164,1.013.033
S01487,Lombardia,Villa Raverio,Villa Raverio,45.690.418,9.261.549
S01825,Lombardia,Lodi,Lodi,45.308.966,9.497.585
S02083,Lombardia,Lonato,Lonato,45.457.204,10.486.714
S01113,Lombardia,Luino,Luino,45.996.643,8.737.464
S01806,Lombardia,Lungavilla,Lungavilla,45.049.837,9.068.968
S01484,Lombardia,Macherio-Canonica,Macherio-C.,45.645.533,9.286.736
S01500,Lombardia,Macherio Sovico,Macherio Sovico,45.642.485,9.266.895
S01910,Lombardia,Maleo,Maleo,45.170.118,9.755.201
S01415,Lombardia,Mandello Del Lario,Mandello Del L.,45.915.208,9.322.061
S01902,Lombardia,Manerbio,Manerbio,45.357.212,10.132.348
S02336,Lombardia,Mantova,Mantova,45.158.746,10.783.165
S01921,Lombardia,Marcaria,Marcaria,45.124.518,10.533.651
S00406,Lombardia,Mede,Mede,45.095.009,8.742.594
S01822,Lombardia,Melegnano,Melegnano,45.356.321,9.319.271
S01705,Lombardia,Melzo,Melzo,45.502.191,9.420.653
S01454,Lombardia,Merone,Merone,45.781.374,9.243.772
S01640,Lombardia,Milano Certosa,Milano Certosa,45.507.019,9.133.863
S01326,Lombardia,Milano Greco Pirelli,Mi Greco Pirelli,4.551.272,9.214.456
S01701,Lombardia,Milano Lambrate,Milano Lambrate,45.484.933,9.237.333
S01645,Lombardia,Milano Porta Garibaldi,Mi P. Garibaldi,45.484.917,9.187.683
S01631,Lombardia,Mi.P.Genova,Mi P.Genova,45.453.379,9.169.303
S01633,Lombardia,Milano Porta Vittoria,Mi P.Ta Vittoria,45.459.579,921.813
S01630,Lombardia,Milano S. Cristoforo,Mi S.Cristoforo,45.442.404,9.130.258
S01064,Lombardia,Corsico,Corsico,45.434.688,9.105.156
S01401,Lombardia,S. Cassiano Valchiavenna,S. Cassiano V.,46.275.438,9.397.419
S00403,Lombardia,Sannazzaro,Sannazzaro,4.510.554,8.905.149
S01063,Lombardia,Gaggiano,Gaggiano,45.408.827,9.031.117
S00405,Lombardia,Lomello,Lomello,45.117.276,8.799.121
S01040,Lombardia,Magenta,Magenta,45.468.204,8.880.633
S01404,Lombardia,Verceia,Verceia,46.202.832,9.458.412
N00048,Lombardia,Malpensa Aeroporto T1,Malp At1,45.627.904,8.711.085
S01036,Lombardia,Vanzago Pogliano,Vanzago Pogliano,45.525.216,8.995.531
S01650,Lombardia,Milano Dateo,Milano Dateo,45.462.341,9.209.277
S01202,Lombardia,Bisuschio Viggiu,Bisuschio Viggiu,45.870.658,8.887.544
S01608,Lombardia,Arcene,Arcene,45.577.162,9.606.652
S01611,Lombardia,Levate,Levate,45.626.856,9.629.984
S01612,Lombardia,Stezzano,Stezzano,45.659.219,9.645.288
S01722,Lombardia,Pozzuolo Martesana,Poz.Mart,45.510.567,9.459.096
S01058,Lombardia,Pregnana Milanese,Pregnana,45.511.868,9.003.943
N00235,Lombardia,Edolo,Edolo,46.179.241,10.330.333
N00210,Lombardia,Iseo,Iseo,45.659.518,10.047.464
N00207,Lombardia,Bornato - Calino,Bornato-Calino,45.590.595,10.032.942
S01410,Lombardia,Regoledo,Regoledo,46.030.574,9.292.106
S01489,Lombardia,Renate-Veduggio,Renate-Veduggio,45.728.304,9.279.834
S00272,Lombardia,Robbio,Robbio,45.293.542,8.597.051
S01642,Lombardia,Milano Bovisa Fnm,Mi Bovisa Fnm,45.502.993,9.159.235
S01643,Lombardia,Milano Lancetti,Mi Lancetti,45.492.632,9.175.832
S01632,Lombardia,Milano Porta Romana,Mi P.Ta Romana,45.445.844,9.213.128
S01649,Lombardia,Milano Venezia,Mi Venezia,45.471.121,9.201.889
S01437,Lombardia,Tresenda-Aprica-Teglio,Tresenda-A.-T.,46.162.082,10.083.754
S01065,Lombardia,Trezzano S.N.,Trezzano S.N.,45.422.203,9.071.196
S01463,Lombardia,Valmadrera,Valmadrera,45.846.439,9.368.183
S01807,Lombardia,Voghera,Voghera,449.978,9.007.942
S00408,Lombardia,Sairano,Sairano,45.138.858,9.046.868
S01451,Lombardia,Cantu`,Cantu',45.752.316,9.130.321
S01486,Lombardia,Carate-Calo`,Carate-Calo',45.676.451,9.252.304
S01715,Lombardia,Segrate,Segrate,45.480.702,9.298.873
S01031,Lombardia,Busto Arsizio,Busto Arsizio,45.616.164,8.865.031
S01316,Lombardia,Camnago-Lentate,Camnago-Lentate,45.668.425,9.133.451
S01034,Lombardia,Canegrate,Canegrate,45.569.235,8.926.593
S01804,Lombardia,Cava Manara,Cava Manara,45.144.867,9.115.332
S01647,Lombardia,Mi P.Gar.Sott.,Mi P.Gar.Sott.,45.484.228,9.185.122
S01820,Lombardia,Milano Rogoredo,Milano Rogoredo,45.433.866,92.391
S01405,Lombardia,Dubino,Dubino,46.172.802,9.432.188
S01440,Lombardia,Tirano,Tirano,4.621.539,10.166.961
S01620,Lombardia,Paratico Sarnico,Paratico Sarnico,45.662.478,9.961.417
S01622,Lombardia,Capriolo,Capriolo,4.564.556,9.933.806
S01932,Lombardia,Barbianello,Barbianello,4.507.263,9.204.165
S01529,Lombardia,Bergamo,Bergamo,45.690.271,9.675.082
S01716,Lombardia,Ospitaletto Travagliato,Ospitaletto T.,45.546.042,10.074.363
S01428,Lombardia,S. Pietro Berbenno,S. Pietro B.,46.161.347,9.740.491
S01802,Lombardia,Villamaggiore,Villamaggiore,4.532.045,9.190.674
S00278,Lombardia,Villanova D`Ardenghi,Villanova D'Ard.,45.156.982,9.037.176
S01481,Lombardia,Villasanta,Villasanta,45.603.434,9.304.923
S01916,Lombardia,Villetta Malagnino,Villetta Malagn.,45.137.019,10.111.943
S01844,Lombardia,Visano,Visano,4.531.531,10.363.098
S01042,Lombardia,Vittuone Arluno,Vittuone Arluno,45.491.054,8.947.299
S00401,Lombardia,Zinasco Nuovo,Zinasco Nuovo,45.124.555,8.999.657
S01610,Lombardia,Madignano,Madignano,4.534.383,9.730.179
S01433,Lombardia,Poggiridenti-Tresivio-Piateda,Poggiridenti,46.166.888,993.382
S01912,Lombardia,Ponte D`Adda,Ponte D'Adda,45.184.352,9.790.737
S01434,Lombardia,Ponte In Valtellina,Ponte In Valt.,46.162.631,9.975.895
S02082,Lombardia,Ponte S.Marco - Calcinato,Ponte S.Marco,45.473.788,10.409.018
S01528,Lombardia,Ponte S.Pietro,Ponte S.Pietro,4.569.916,9.584.322
S04712,Liguria,Sori,Sori,44.369.795,9.106.006
S04506,Liguria,Taggia Arma,Taggia Arma,43.840.764,7.835.604
S04531,Liguria,Varazze,Varazze,44.356.842,8.566.682
S04501,Liguria,Ventimiglia,Ventimiglia,43.792.561,7.610.224
S06006,Liguria,Arcola,Arcola,44.118.651,9.914.649
S04481,Liguria,Airole,Airole,43.870.494,7.552.757
S04515,Liguria,Alassio,Alassio,44.007.889,817.112
S04516,Liguria,Albenga,Albenga,4.404.722,8.221.663
S04709,Liguria,Bogliasco,Bogliasco,44.379.207,9.066.042
S04503,Liguria,Bordighera,Bordighera,43.778.313,7.663.504
S04518,Liguria,Borghetto Santo Spirito,Borghetto S.S.,44.109.006,8.242.346
S04214,Liguria,Borgo Fornari Per Voltaggio,Borgo Fornari,44.588.379,8.938.295
S04215,Liguria,Busalla,Busalla,4.457.558,8.943.611
S04716,Liguria,Camogli San Fruttuoso,Camogli S.F.,44.348.166,9.156.743
S04105,Liguria,Campoligure Masone,Campoligure M.,44.530.909,8.700.878
S04724,Liguria,Cavi,Cavi,4.429.354,937.251
S04530,Liguria,Celle,Celle,4.434.246,8.542.626
S04517,Liguria,Ceriale,Ceriale,44.098.922,8.234.216
S04512,Liguria,Cervo San Bartolomeo,Cervo S.Bartol.,43.923.901,8.109.704
S04532,Liguria,Cogoleto,Cogoleto,44.389.762,8.643.906
S04734,Liguria,Corniglia,Corniglia,44.119.938,9.711.051
S04728,Liguria,Deiva Marina,Deiva Marina,44.217.306,9.519.022
S04522,Liguria,Finale Ligure Marina,Finale Ligure M.,44.169.116,834.033
S04729,Liguria,Framura,Framura,44.201.903,9.555.169
S04107,Liguria,Genova Acquasanta,Ge Acquasanta,44.458.757,8.773.197
S04218,Liguria,Genova Bolzaneto,Genova Bolzaneto,44.459.208,8.900.193
S04109,Liguria,Genova Borzoli,Genova Borzoli,44.434.704,8.866.648
S04108,Liguria,Genova Granara,Genova Granara,44.442.055,8.823.453
S04603,Liguria,Genova Marittima S. Limbania,Ge M. S.Limbania,44.412.808,8.911.098
S04707,Liguria,Genova Nervi,Genova Nervi,44.381.271,9.039.895
S04536,Liguria,Genova Pegli,Genova Pegli,44.426.236,8.816.767
S04700,Liguria,Genova P.Principe,Genova P.Princ.,44.417.784,89.207
S04217,Liguria,Genova Pontedecimo,Ge Pontedecimo,44.494.189,8.905.642
S04704,Liguria,Genova Quarto Dei Mille,Genova Quarto,44.388.607,899.597
S04219,Liguria,Genova Rivarolo,Genova Rivarolo,44.435.955,889.106
S04220,Liguria,Genova Sampierdarena,Ge Sampierdarena,44.413.102,8.887.271
S04703,Liguria,Genova Sturla,Genova Sturla,44.397.977,8.981.466
S04540,Liguria,Genova Vesima,Genova Vesima,44.416.176,8.714.099
S04534,Liguria,Genova Voltri,Genova Voltri,44.428.467,8.758.163
S04210,Liguria,Isola Del Cantone,Isola Del Cant.,44.646.589,8.957.578
S06000,Liguria,La Spezia Centrale,La Spezia C.Le,4.411.141,9.813.906
S04514,Liguria,Laigueglia,Laigueglia,43.981.283,8.158.685
S04723,Liguria,Lavagna,Lavagna,44.305.677,9.346.371
S04731,Liguria,Levanto,Levanto,44.174.167,9.616.018
S04519,Liguria,Loano,Loano,44.122.429,8.254.523
S04106,Liguria,Mele,Mele,44.472.797,8.733.953
S04212,Liguria,Mignanego,Mignanego,44.539.031,8.929.951
S04727,Liguria,Moneglia,Moneglia,44.242.449,9.486.957
S04732,Liguria,Monterosso,Monterosso,44.145.967,9.649.009
S04480,Liguria,Olivetta San Michele,Olivetta S.M.,43.878.345,7.535.066
S04216,Liguria,Piano Orizzontale Dei Giovi,Piano Orizzont.,44.530.912,89.192
S04209,Liguria,Pietrabissara,Pietrabissara,44.658.637,8.926.969
S04711,Liguria,Pieve Ligure,Pieve Ligure,44.372.644,9.090.975
S06170,Liguria,S. Stefano Di Magra,S.Stefano Magra,44.156.857,9.915.202
S04523,Liguria,Imperia,Imperia,4.388.051,8.019.182
S04110,Liguria,Genova Costa Di Sestri Ponente,Ge Costa Sestri,44.433.535,884.553
S04705,Liguria,Genova Quinto Al Mare,Genova Quinto,44.385.184,9.020.514
S04223,Liguria,Genova Via Di Francia,Ge Via Francia,44.411.126,890.192
S06008,Liguria,Bivio/Pc Arcola,Biv/Pc Arcola,44.074.771,10.015.803
S04521,Liguria,Borgio Verezzi,Borgio Verezzi,44.157.722,830.908
S04701,Liguria,Genova P. Principe Sotterranea,Genova P.P.Sott.,44.414.803,8.918.041
S00879,Liguria,Cairo Montenotte,Cairo Montenotte,44.394.747,8.278.786
S00745,Liguria,Cengio,Cengio,44.390.798,8.191.824
S04529,Liguria,Albisola,Albisola,4.433.469,8.512.092
S04800,Liguria,Savona Marittima,Savona Marittima,44.308.777,8.488.243
S04526,Liguria,Spotorno Noli,Spotorno Noli,44.226.528,8.410.932
S04502,Liguria,Vallecrosia,Vallecrosia,43.787.619,7.634.997
S04733,Liguria,Vernazza,Vernazza,44.134.963,9.684.804
S04721,Liguria,Zoagli,Zoagli,4.433.546,9.269.126
S04803,Liguria,Bragno,Bragno,44.371.679,8.304.473
S04538,Liguria,Genova Cornigliano,Ge Cornigliano,44.414.752,8.865.035
S04520,Liguria,Pietra Ligure,Pietra Ligure,44.145.345,8.277.403
S04718,Liguria,S. Margherita Ligure Portofino,S.Margherita,4.433.676,9.216.673
S04535,Liguria,Genova Pra,Genova Pra,44.426.874,8.785.356
S04537,Liguria,Genova Sestri Ponente,Genova Sestri P.,44.422.374,8.847.707
S04702,Liguria,Genova Brignole,Genova Brignole,44.407.213,8.947.553
S04710,Liguria,Pontetto,Pontetto,44.377.309,907.696
S04713,Liguria,Mulinetti,Mulinetti,44.362.614,9.129.499
S04722,Liguria,Chiavari,Chiavari,44.315.156,9.322.464
S04726,Liguria,Riva Trigoso,Riva Trigoso,4.426.391,9.429.277
S04730,Liguria,Bonassola,Bonassola,44.184.867,9.582.673
S04735,Liguria,Manarola,Manarola,44.109.904,9.727.401
S04804,Liguria,Ferrania,Ferrania,44.365.136,8.328.885
S04811,Liguria,Maschio,Maschio,44.326.605,8.436.686
S06171,Liguria,Vezzano Ligure,Vezzano Ligure,44.127.081,988.928
S06200,Liguria,Ponzano Magra,Ponzano Magra,44.136.227,9.934.115
S04222,Liguria,Genova S.Biagio,Genova S.Biagio,44.484.399,8.900.854
S00890,Liguria,Pont,Pont,45.420.436,760.442
S00877,Liguria,Dego,Dego,44.448.003,8.308.469
S00876,Liguria,Piana,Piana,44.486.383,8.308.796
S06044,Liguria,Ca` Di Boschetti,Ca'Di Boschetti,44.117.925,9.857.449
S00878,Liguria,Rocchetta Cairo,Rocchetta Cairo,44.427.477,8.295.356
S06004,Liguria,La Spezia Migliarina,La Spezia Migl.,44.123.391,984.028
S06002,Liguria,La Spezia Marittima,La Spezia Mar.,44.110.694,9.837.445
S06007,Liguria,Sarzana,Sarzana,44.108.865,9.960.657
S04810,Liguria,Altare,Altare,44.336.169,8.332.753
S04533,Liguria,Arenzano,Arenzano,44.403.089,8.678.322
S04482,Liguria,Bevera,Bevera,43.825.303,7.579.157
S04527,Liguria,Quiliano Vado,Quiliano Vado,44.279.933,8.435.562
S04720,Liguria,Rapallo,Rapallo,44.351.398,9.231.282
S04714,Liguria,Recco,Recco,44.361.215,9.146.788
S04736,Liguria,Riomaggiore,Riomaggiore,44.105.203,9.729.105
S04211,Liguria,Ronco Scr.,Ronco Scrivia,44.614.537,8.949.421
S04104,Liguria,Rossiglione,Rossiglione,44.566.955,8.668.051
S04805,Liguria,San Giuseppe Di Cairo,S.Giuseppe Di C.,44.370.096,828.864
S04505,Liguria,Sanremo,Sanremo,43.821.269,7.766.693
S04802,Liguria,Santuario,Santuario,4.434.607,8.435.756
S04801,Liguria,Savona,Savona,44.306.892,8.470.259
S04725,Liguria,Sestri Levante,Sestri Levante,4.427.626,9.397.651
S07403,Lazio,Greccio,Greccio,42.462.872,12.777.009
S08301,Lazio,Grotte S.Stefano,Grotte S.Stefano,4.251.512,12.169.372
S08858,Lazio,Isola Liri,Isola Liri,41.681.712,13.581.088
S08607,Lazio,Itri,Itri,41.271.328,13.545.549
S08321,Lazio,La Giustiniana,La Giustiniana,41.985.243,12.403.457
S08320,Lazio,La Storta,La Storta,42.001.748,12.381.254
S08733,Lazio,Lanuvio,Lanuvio,41.672.211,12.690.885
S08608,Lazio,Latina,Latina,41.538.372,12.945.888
S08504,Lazio,Bagni Di Tivoli,Bagni Di Tivoli,41.949.593,12.722.208
S08312,Lazio,Bassano Romano,Bassano Romano,42.212.444,12.152.302
S08502,Lazio,Salone,Salone,41.915.253,12.636.215
S08712,Lazio,Sassone,Sassone,41.783.777,12.625.832
S08609,Lazio,Sezze Romano,Sezze Romano,41.495.542,13.038.452
S08857,Lazio,Sora,Sora,41.716.618,13.618.601
S08212,Lazio,Stimigliano,Stimigliano,42.289.811,12.568.632
S08661,Lazio,Ferentino-Supino,Ferentino-Supino,416.564,13.246.971
S08411,Lazio,Fiumicino Aeroporto,Fiumicino Aerop.,41.793.673,12.251.728
S08640,Lazio,Formia-Gaeta,Formia-Gaeta,41.258.773,13.605.996
S08112,Lazio,Corchiano,Corchiano,42.361.351,12.341.846
S08510,Lazio,Castel Madama,Castel Madama,41.988.389,12.864.938
S07407,Lazio,Castel S.Angelo,Castel S.Angelo,42.379.666,13.017.612
S08732,Lazio,Cecchina,Cecchina,41.692.029,12.650.992
S08666,Lazio,Ceprano-Falvaterra,Ceprano-Falvater,41.523.962,13.523.481
S08021,Lazio,Ladispoli-Cerveteri,Ladispoli-Cervet,41.953.502,12.081.675
S08319,Lazio,Cesano Di Roma,Cesano,42.061.833,12.326.669
S08650,Lazio,Ciampino,Ciampino,41.804.442,12.599.546
S07406,Lazio,Cittaducale,Cittaducale,42.387.764,1.294.269
S08211,Lazio,Civita Castellana,Civita Castel.,42.346.593,12.453.821
S08010,Lazio,Civitavecchia,Civitavecchia,42.088.287,1.179.815
S08651,Lazio,Colle Mattia,Colle Mattia,41.832.756,12.728.329
S08221,Lazio,Collevecchio,Collevecchio,42.298.089,12.520.546
S08315,Lazio,Bracciano,Bracciano,42.103.667,12.173.023
S08735,Lazio,Cancelliera,Cancelliera,41.710.587,12.621.758
S07429,Lazio,Canetra,Canetra,42.391.578,13.029.159
S08672,Lazio,Capannelle,Capannelle,41.830.713,12.568.884
S08110,Lazio,Caprarola,Caprarola,42.303.815,12.258.238
S08730,Lazio,Casabianca,Casabianca,41.788.327,1.260.431
S08671,Lazio,Cassino,Cassino,41.484.306,13.832.125
S08114,Lazio,Castel Bagnolo Di Orte,Castel Bagnolo,42.400.183,12.400.781
S08715,Lazio,Acqua Acetosa,Acqua Acetosa,41.794.294,12.616.449
S08704,Lazio,Albano Laziale,Albano Laziale,4.172.632,12.658.056
S08658,Lazio,Anagni-Fiuggi,Anagni-Fiuggi,4.171.037,1.309.597
S08318,Lazio,Anguillara,Anguillara,42.068.133,12.304.978
S07408,Lazio,Antrodoco Borgo Velino,Antrodoco B.V.,42.415.393,13.076.193
S07435,Lazio,Antrodoco Centro,Antrodoco Centro,42.409.844,1.307.096
S08709,Lazio,Anzio,Anzio,414.532,12.633.205
S08705,Lazio,Aprilia,Aprilia,41.592.386,12.639.126
S08861,Lazio,Arce,Arce,41.583.695,13.571.848
S08516,Lazio,Arsoli,Arsoli,42.045.852,13.013.064
S08111,Lazio,Fabrica Di Roma,Fabrica Di Roma,42.334.416,12.307.467
S08410,Lazio,Deviatoio Estremo Km 2.730-Roma T.Lana,De Km2.730 Rm Tu,41.887.491,12.527.216
S08706,Lazio,Campo Di Carne,Campo Di Carne,41.552.116,12.635.125
S08713,Lazio,Anzio Colonia,Anzio Colonia,41.459.893,12.617.442
S08731,Lazio,Pavona,Pavona,41.723.897,1.261.116
S08809,Lazio,Terracina,Terracina,4.129.697,13.244.055
S08304,Lazio,Viterbo Porta Fiorentina,Viterbo P.F.,42.425.237,12.106.204
S08652,Lazio,Zagarolo,Zagarolo,41.821.927,1.282.692
S08235,Lazio,Fidene,Fidene,41.979.773,12.508.451
S08601,Lazio,Pomezia - S.Palomba,Pomezia,41.706.171,12.573.611
S08009,Lazio,Tarquinia,Tarquinia,42.239.463,11.727.009
S08210,Lazio,Gallese In Teverina,Gallese,42.380.901,12.439.732
S08808,Lazio,La Fiora,La Fiora,41.331.487,13.200.365
S08512,Lazio,Mandela-Sambuci,Mandela-Sambuci,42.016.212,12.921.976
S08739,Lazio,S. Eurosia,S. Eurosia,41.675.927,12.755.105
S08015,Lazio,Santa Marinella,Santa Marinella,42.035.892,11.863.122
S08307,Lazio,S.Martino Al Cimino,S.Martino Cimino,42.382.043,12.108.104
S07428,Lazio,Poggio Fidoni,Poggio Fidoni,42.395.811,12.795.429
S08660,Lazio,Morolo,Morolo,41.667.018,13.194.557
S07432,Lazio,Cotilia,Cotilia,42.372.602,1.296.871
S08734,Lazio,Velletri,Velletri,41.682.421,12.780.864
S08309,Lazio,Vetralla,Vetralla,42.304.619,12.089.137
S08310,Lazio,Vico Matrino,Vico Matrino,42.278.028,12.121.681
S08316,Lazio,Vigna Di Valle,Vigna Di Valle,42.076.863,12.210.716
S08399,Lazio,Villa Bonelli,Villa Bonelli,418.477.601,12.455.223
S08714,Lazio,Villa Claudia,Villa Claudia,41.484.326,1.261.709
S08503,Lazio,Lunghezza,Lunghezza,41.923.253,12.667.212
S08020,Lazio,Maccarese,Maccarese,41.879.372,1.223.695
S08404,Lazio,Magliana,Magliana,41.834.235,12.431.017
S08314,Lazio,Manziana-Canale Monterano,Manziana,42.128.246,12.134.934
S08701,Lazio,Marino,Marino,41.768.961,12.655.994
S09150,Lazio,Minturno,Minturno,41.257.621,13.720.664
S08214,Lazio,Fara Sabina,Fara Sabina,42.155.546,12.648.323
S08231,Lazio,Nuovo Salario,Nuovo Salario,41.956.195,12.510.317
S08313,Lazio,Oriolo,Oriolo,42.166.825,12.138.499
S08209,Lazio,Orte,Orte,4.243.728,12.408.986
S08707,Lazio,Padiglione,Padiglione,41.513.518,12.629.476
S08019,Lazio,Torre In Pietra-Palidoro,Torre In Piet. P,4.192.432,12.183.116
S08600,Lazio,Torricola,Torricola,41.809.538,12.557.716
S08308,Lazio,Tre Croci,Tre Croci,42.331.525,12.086.159
S07404,Lazio,Contigliano,Contigliano,42.412.072,12.779.144
S08708,Lazio,Lido Di Lavinio,Lido Di Lavinio,41.500.599,12.625.926
S08109,Lazio,Ronciglione,Ronciglione,42.282.499,12.219.437
S08515,Lazio,Roviano,Roviano,42.026.476,12.991.119
S08710,Lazio,Nettuno,Nettuno,41.459.558,12.662.123
S08605,Lazio,Monte S.Biagio,Monte S.Biagio,41.345.967,13.347.037
S08215,Lazio,Monterotondo,Monterotondo,4.206.409,12.595.753
S08751,Lazio,Frascati,Frascati,41.806.881,12.677.962
S08662,Lazio,Frosinone,Frosinone,41.625.333,13.328.728
S08400,Lazio,Muratella,Muratella,41.826.182,12.412.696
S08024,Lazio,Civitavecchia Viale Della Vittoria,C.Vecchia V.Vitt,42.086.518,11.800.599
S08602,Lazio,Campoleone,Campoleone,41.642.396,12.648.341
S07405,Lazio,Rieti,Rieti,42.405.918,12.862.596
S08517,Lazio,Riofreddo,Riofreddo,42.060.704,13.021.419
S08674,Lazio,Roma Casilina,Roma Casilina,4.187.669,12.537.297
S08322,Lazio,Roma Monte Mario,Roma Monte Mario,41.939.088,12.421.732
S08326,Lazio,Gemelli,Gemelli,41.927.813,12.427.797
S08500,Lazio,Roma Prenestina,Roma Prenestina,41.897.571,12.545.803
S08325,Lazio,Roma S.Filippo Neri,Rm S.Filippo N.,41.950.262,12.412.414
S07409,Lazio,Rocca Di Fondi,Rocca Di Fondi,4.239.799,13.095.825
S08668,Lazio,Roccasecca,Roccasecca,41.526.377,13.645.814
S08738,Lazio,S. Maria Delle Mole,S.Maria Mole,41.774.417,12.606.225
S08659,Lazio,Sgurgola,Sgurgola,41.687.018,13.146.199
S08317,Lazio,Crocicchie,Crocicchie,420.559,12.238.888
S07425,Lazio,Terria,Terria,42.436.334,12.782.816
S08529,Lazio,Ponte Di Nona,Ponte Di Nona,42.061.563,13.581.585
S08331,Lazio,Vigna Clara,Vigna Clara,4.196.827,12.409.026
S08408,Lazio,Roma Tuscolana,Roma Tuscolana,41.879.384,12.523.505
S08656,Lazio,Valmontone,Valmontone,41.774.291,12.923.696
S07427,Lazio,Labro Moggio,Labro Moggio,42.506.131,12.746.224
S07434,Lazio,Sorgenti Del Peschiera,Sorgenti D.Pesch,4.236.428,12.996.973
S08008,Lazio,Montalto Di Castro,Montalto Di Cas.,42.334.623,11.595.085
S08012,Lazio,Civitavecchia M.Ma,Civitavecchia M.,42.099.843,1.178.438
S08016,Lazio,Santa Severa,Santa Severa,42.020.645,11.969.077
S08025,Lazio,Roma Aurelia,Aurelia,4.188.344,12.395.271
S08108,Lazio,Madonna Del Piano,Madonna Del Pian,42.259.963,12.166.357
S08113,Lazio,Gallese Bassanello,Gallese Bassanel,423.798,12.371.998
S08213,Lazio,Poggio Mirteto,Poggio Mirteto,42.242.187,12.633.043
S08216,Lazio,Sette Bagni,Sette Bagni,42.006.438,12.520.156
S08222,Lazio,Piana Bella Montelibretti,Piana Bella Mon.,42.105.159,12.632.938
S08300,Lazio,Sipicciano,Sipicciano,42.546.495,12.254.318
S08303,Lazio,Montefiascone,Montefiascone,42.520.268,12.050.448
S08306,Lazio,Viterbo Porta Romana,Viterbo P.R.,42.411.974,12.110.482
S08323,Lazio,Roma S.Pietro,Roma S.Pietro,41.896.143,12.454.497
S08403,Lazio,Ponte Galeria,Ponte Galeria,41.818.349,12.344.733
S08405,Lazio,Roma Trastevere,Roma Trastevere,41.872.279,12.466.162
S08406,Lazio,Roma Ostiense,Roma Ostiense,4.187.265,12.483.917
S08409,Lazio,Roma Termini,Roma Termini,41.900.636,12.502.026
S08412,Lazio,Parco Leonardo,Parco Leonardo,4.179.932,1.229.543
S08506,Lazio,Guidonia-Montecelio-S.Angelo,Guidonia-M.-S.A.,41.993.405,12.725.681
S08507,Lazio,Marcellina-Palombara,Marcellina-Palom,41.999.609,1.279.134
S08511,Lazio,Vicovaro,Vicovaro,42.010.183,12.888.294
S08603,Lazio,Cisterna Di Latina,Cisterna Di Lat.,41.586.511,12.827.538
S08604,Lazio,Priverno Fossanova,Priverno Fos.,41.421.853,13.186.406
S08606,Lazio,Fondi - Sperlonga,Fondi-Sperlonga,41.337.663,13.424.893
S08657,Lazio,Colleferro-Segni-Paliano,Colleferro,41.740.062,1.300.299
S08663,Lazio,Castro-Pofi,Castro-Pofi,41.533.014,13.410.741
S08005,Lazio,Quattro Venti,Quattro Venti,41.880.145,12.459.731
S08413,Lazio,Fiera Di Roma,Fiera Di Roma,41.811.863,12.320.622
S08505,Lazio,Serenissima,Serenissima,41.914.168,12.622.964
S08334,Lazio,Pineto,Pineto,41.909.222,12.438.385
S08218,Lazio,Roma S.Lorenzo,Roma S.Lorenzo,41.893.476,12.522.057
S08226,Lazio,Roma Tiburtina Piazzale Est,Roma Tib P.Est,41.910.903,12.530.749
S08220,Lazio,Dev.Int. Dd/Av,D.I.Ddav,42.274.228,12.607.523
S08667,Lazio,Bivio/P.C. Sgurgola,Biv/Pc Sgurgola,41.527.485,13.547.101
S08716,Lazio,Marechiaro,Marechiaro,41.470.762,126.123
S08022,Lazio,Marina Di Cerveteri,Marina Di Cervet,41.979.133,12.047.924
S08711,Lazio,Villetta,Villetta,41.738.237,12.649.463
S08311,Lazio,Capranica,Capranica,42.245.195,12.157.194
S08703,Lazio,Castel Gandolfo,Castel Gandolfo,41.746.946,12.652.266
S08664,Lazio,Ceccano,Ceccano,41.573.583,13.336.417
S09200,Lazio,Rocca D`Evandro,Rocca D'Evan.,41.438.861,13.911.338
S08665,Lazio,Isoletta-S.Giovanni I.,Isoletta-S.G.I.,41.527.873,13.547.095
S08217,Lazio,Roma Tiburtina,Roma Tiburtina,41.910.903,12.530.749
S08508,Lazio,Tivoli,Tivoli,41.961.849,12.805.047
S08501,Lazio,Tor Sapienza,Tor Sapienza,41.907.095,12.594.489
S08236,Lazio,Roma Nomentana L.L.,Roma Nom. L.L.,41.932.935,12.523.628
S08655,Lazio,Tor Vergata,Tor Vergata,41.823.224,12.666.162
S08330,Lazio,Ipogeo Degli Ottavi,Ipogeo D.Ottavi,41.968.391,12.409.026
S08333,Lazio,Olgiata,Olgiata,4.201.538,12.363.864
S08328,Lazio,Appiano,Appiano,41.909.342,1.243.838
S08329,Lazio,Valle Aurelia,Valle Aurelia,41.899.356,12.447.667
S08859,Lazio,Arpino,Arpino,41.648.296,1.359.959
S08018,Lazio,Palo Laziale,Palo Laziale,41.939.327,12.102.739
S03032,Friuli Venezia Giulia,P.M.Vat,P.M.Vat,46.092.872,13.247.412
S03015,Friuli Venezia Giulia,Tarvisio Boscoverde,Tarvisio Boscov.,46.505.956,13.608.012
S03036,Friuli Venezia Giulia,Bivio Cargnacco,Bivio Cargnacco,46.007.733,13.247.325
S03085,Friuli Venezia Giulia,Montereale Valcellina,Montereale Valc.,46.148.009,12.658.923
S03124,Friuli Venezia Giulia,S.Stefano Udinese,S.Stefano Ud.Se,45.953.683,13.274.971
S03199,Friuli Venezia Giulia,S.Giovanni Di Casarsa,S.Giovanni Di C.,45.943.448,12.837.255
S03082,Friuli Venezia Giulia,Meduno,Meduno,46.200.678,1.280.282
S03318,Friuli Venezia Giulia,Confine Italo/Sloveno,Confine Sloveno,45.922.748,13.626.923
S03205,Friuli Venezia Giulia,San Giorgio Di Nogaro,S.Giorgio Nogaro,4.582.917,13.210.315
S03150,Friuli Venezia Giulia,Strassoldo,Strassoldo,45.856.617,1.331.836
S03021,Friuli Venezia Giulia,Artegna,Artegna,4.623.115,13.162.328
S03550,Friuli Venezia Giulia,Aurisina,Aurisina,45.753.943,13.687.706
S03087,Friuli Venezia Giulia,Aviano,Aviano,46.064.362,12.590.686
S03313,Friuli Venezia Giulia,Bivio D`Aurisina,Bivio D'Aurisina,45.754.253,13.655.777
S03039,Friuli Venezia Giulia,Bivio San Polo,Bivio San Polo,4.581.393,13.526.626
S03301,Friuli Venezia Giulia,Capriva,Capriva,45.938.764,13.517.494
S03016,Friuli Venezia Giulia,Carnia,Carnia,46.373.634,13.132.847
S02830,Friuli Venezia Giulia,Casarsa,Casarsa,45.953.002,128.406
S03207,Friuli Venezia Giulia,Cervignano A.G.,Cervignano A.G.,45.823.948,13.342.866
S03088,Friuli Venezia Giulia,Budoia Polcenigo,Budoia Polcenigo,46.031.464,12.537.637
S02831,Friuli Venezia Giulia,Codroipo,Codroipo,459.657,12.976.543
S03151,Friuli Venezia Giulia,Sevegliano,Sevegliano,45.887.451,1.330.468
S03312,Friuli Venezia Giulia,Sistiana,Sistiana,45.774.903,13.645.832
S03022,Friuli Venezia Giulia,Tarcento,Tarcento,46.209.134,13.196.211
S02702,Friuli Venezia Giulia,Fontanafredda,Fontanafredda,45.967.555,12.575.266
S03054,Friuli Venezia Giulia,Forgaria Bagni Anduins,Forgaria B.A.,46.203.472,12.964.109
S02661,Friuli Venezia Giulia,Cordovado Sesto,Cordovado Sesto,45.850.653,12.877.784
S03053,Friuli Venezia Giulia,Cornino,Cornino,46.220.516,13.010.581
S03019,Friuli Venezia Giulia,Gemona Del Friuli,Gemona Del Fr.,46.274.243,13.127.978
S03304,Friuli Venezia Giulia,Gorizia Centrale,Gorizia Centrale,45.933.047,1.360.684
S03315,Friuli Venezia Giulia,Grignano,Grignano,45.713.308,13.710.255
S03202,Friuli Venezia Giulia,Latisana Lignano B.,Latisana L.B.,45.777.733,13.001.101
S02832,Friuli Venezia Giulia,Basiliano,Basiliano,46.012.737,13.109.233
S02660,Friuli Venezia Giulia,S.Vito Al Tagliamento,S. Vito Al Tagl.,45.912.433,12.851.594
S02703,Friuli Venezia Giulia,Sacile,Sacile,45.948.413,12.498.498
S03089,Friuli Venezia Giulia,Sacile San Liberale,Sacile S.Lib.Le,45.959.155,12.514.778
S03307,Friuli Venezia Giulia,Sagrado,Sagrado,45.872.629,13.484.004
S03302,Friuli Venezia Giulia,Mossa,Mossa,45.935.114,13.547.281
S03204,Friuli Venezia Giulia,Muzzana Del Turgnano,Muzzana Del T.,45.816.817,13.132.376
S03029,Friuli Venezia Giulia,Buttrio,Buttrio,46.012.664,13.329.039
S03308,Friuli Venezia Giulia,Redipuglia,Redipuglia,45.853.476,13.486.016
S03120,Friuli Venezia Giulia,Risano,Risano,4.597.487,1.326.181
S03309,Friuli Venezia Giulia,Ronchi Dei Legionari Nord,Ronchi Leg.Nord,45.830.285,13.505.962
S03212,Friuli Venezia Giulia,Ronchi Dei Legionari Sud,Ronchi Leg. Sud,45.818.285,13.501.207
S03055,Friuli Venezia Giulia,Pinzano,Pinzano,46.179.217,12.950.779
S03310,Friuli Venezia Giulia,Monfalcone,Monfalcone,45.807.683,13.542.929
S03050,Friuli Venezia Giulia,Osoppo,Osoppo,46.249.011,13.084.758
S03203,Friuli Venezia Giulia,Palazzolo Dello Stella,Palazzolo,45.803.403,13.083.957
S03122,Friuli Venezia Giulia,Palmanova,Palmanova,45.906.862,13.296.461
S03206,Friuli Venezia Giulia,Torviscosa,Torviscosa,45.826.002,13.282.358
S03081,Friuli Venezia Giulia,Travesio,Travesio,46.187.141,12.876.921
S03317,Friuli Venezia Giulia,Trieste Centrale,Trieste Centrale,45.657.456,13.771.873
S03471,Friuli Venezia Giulia,Trieste Campo Marzio,Ts Campo Marzio,45.645.817,13.755.161
S03856,Friuli Venezia Giulia,Trieste Aquilinia,Trieste Aq.Linia,45.618.107,13.806.161
S03026,Friuli Venezia Giulia,Udine,Udine,46.055.791,13.242.003
S03028,Friuli Venezia Giulia,Udine Parco,Udine Parco,46.052.099,13.260.401
S03006,Friuli Venezia Giulia,Ugovizza Valbruna,Ugovizza V.,46.502.902,13.494.972
S03125,Friuli Venezia Giulia,Lumignacco,Lumignacco,45.999.177,13.250.841
S03051,Friuli Venezia Giulia,Majano,Majano,46.219.372,13.066.308
S02700,Friuli Venezia Giulia,Cusano,Cusano,45.945.427,12.757.485
S03083,Friuli Venezia Giulia,Fanna - Cavasso,Fanna-Cavasso,46.187.072,127.707
S03123,Friuli Venezia Giulia,Bagnaria Arsa,Bagnaria Arsa,45.885.513,13.282.026
S03300,Friuli Venezia Giulia,Cormons,Cormons,45.957.519,13.461.563
S03018,Friuli Venezia Giulia,Venzone,Venzone,46.331.883,1.313.549
S03466,Friuli Venezia Giulia,Villa Opicina,Villa Opicina,456.944,13.791.142
S03209,Friuli Venezia Giulia,Villa Vicentina,Villa Vicentina,45.812.922,13.395.493
S03010,Friuli Venezia Giulia,Pontebba,Pontebba,46.508.463,13.311.357
S02701,Friuli Venezia Giulia,Pordenone,Pordenone,45.956.281,12.654.126
S03084,Friuli Venezia Giulia,Maniago,Maniago,46.170.057,12.714.527
S03030,Friuli Venezia Giulia,Manzano,Manzano,4.598.811,13.375.016
S03031,Friuli Venezia Giulia,S.Giovanni Al Natisone,S.Giovanni Al N.,45.976.122,13.397.437
S03121,Friuli Venezia Giulia,S.Maria La Longa,S.Maria La Longa,45.933.068,13.287.755
S01961,Emilia Romagna,S. Giuliano Piacentino,S.Giuliano Piac.,45.070.627,9.985.919
S05021,Emilia Romagna,S.Ilario,S.Ilario DÂ¿Enza,44.765.795,10.450.469
S05720,Emilia Romagna,Poggio Renatico,Poggio Renatico,44.767.292,11.483.701
S06101,Emilia Romagna,Noceto,Noceto,44.809.934,10.147.258
S05107,Emilia Romagna,Vergato,Vergato,44.282.723,11.114.386
S05319,Emilia Romagna,San Giovanni In Persiceto,S.G.Persiceto,44.643.151,11.189.444
S05805,Emilia Romagna,S.Biagio,S.Biagio,44.594.511,1.187.054
S06159,Emilia Romagna,Roccamurata,Roccamurata,44.532.756,9.876.175
S06615,Emilia Romagna,S.Cassiano,S.Cassiano,44.143.684,11.687.503
S05302,Emilia Romagna,Osteria Nuova,Osteria Nuova,44.586.613,11.236.525
S02345,Emilia Romagna,Villanova Di Reggiolo,Villanova Regg.,44.915.925,10.842.455
S05099,Emilia Romagna,Bologna Interporto,Bo Interporto,44.490.404,11.274.884
S05102,Emilia Romagna,Casteldebole,Casteldebole,44.503.974,1.127.456
S05055,Emilia Romagna,Ozzano Dell'Emilia,Ozzano Emilia,44.450.797,11.487.297
S05111,Emilia Romagna,Casalecchio Garibaldi,Casalecchio G.,44.482.995,11.272.474
S05726,Emilia Romagna,Funo Centergross,Funo Centergross,44.593.646,11.370.672
S05138,Emilia Romagna,Rastignano,Rastignano,44.443.592,11.357.617
S05114,Emilia Romagna,Pian Di Venola,Pian Di Venola,44.332.136,11.188.609
S05314,Emilia Romagna,Camposanto,Camposanto,44.787.527,11.143.587
S05053,Emilia Romagna,Castel S.Pietro Terme,Castel S.P.,44.407.376,11.597.681
S05725,Emilia Romagna,Bologna Corticella,Bo.Corticella,44.551.985,1.135.401
S07100,Emilia Romagna,Rimini Miramare,Rimini Miramare,44.030.388,12.618.105
S05042,Emilia Romagna,Bologna Ravone,Bo Ravone,44.510.244,11.320.029
S05315,Emilia Romagna,Posto Movimento Bolognina,P.M. Bolognina,44.765.134,1.114.448
S05046,Emilia Romagna,Bologna C.Le/Av,Bologna C.Le/Av,4.450.626,11.342.267
S05254,Emilia Romagna,Reggio Emilia Av,Reggio Emilia Av,44.779.886,10.744.171
S05049,Emilia Romagna,S.Lazzaro Di Savena,S.Lazzaro Di S.,4.448.097,11.416.652
S05020,Emilia Romagna,Bologna Fiere,Bologna Fiere,44.512.742,11.368.809
S05140,Emilia Romagna,Bologna Mazzini,Bo. Mazzini,44.482.284,11.376.271
S05819,Emilia Romagna,Rimini Torre Pedrera,Torre Pedrera,44.106.987,12.508.755
S06613,Emilia Romagna,S.Martino In Gattara,S.Martino In G.,44.113.211,11.667.077
S01951,Emilia Romagna,S.Nicolo',S.NicolÃ²,45.058.843,9.606.443
S06103,Emilia Romagna,Felegara - S.Andrea Bagni,Felegara S.A.B.,44.724.809,10.114.523
S05816,Emilia Romagna,Gatteo A Mare,Gatteo A Mare,44.170.691,12.432.057
S05139,Emilia Romagna,Musiano-Pian Di Macina,Musiano,44.402.423,11.344.912
S05722,Emilia Romagna,S.Pietro In Casale,S.Pietro In C.,44.697.928,11.404.763
S05090,Emilia Romagna,Salsomaggiore T.,Salsomaggiore T.,4.481.866,9.988.129
S05039,Emilia Romagna,Samoggia,Samoggia,44.567.307,11.146.221
S01949,Emilia Romagna,Sarmato,Sarmato,45.063.043,9.491.116
S01971,Emilia Romagna,Monticelli D`Ongina,Moonticelli D'O.,45.075.666,9.949.036
S05132,Emilia Romagna,Monzuno,Monzuno,44.322.277,11.262.082
S05006,Emilia Romagna,Cadeo,Cadeo,44.967.283,9.853.181
S05811,Emilia Romagna,Ravenna,Ravenna,44.419.155,12.208.404
S05023,Emilia Romagna,Reggio Emilia,Reggio Emilia,44.697.793,10.643.093
S05820,Emilia Romagna,Rimini Viserba,Rimini Viserba,44.088.407,12.533.785
S07101,Emilia Romagna,Riccione,Riccione,43.999.218,12.658.549
S05071,Emilia Romagna,Rimini,Rimini,44.064.176,12.574.093
S05108,Emilia Romagna,Riola,Riola,44.229.851,11.053.592
S02346,Emilia Romagna,Rolo Novi Fabbrico,Rolo Novi Fabb.,44.886.561,10.867.882
S01950,Emilia Romagna,Rottofreno,Rottofreno,45.060.546,9.549.127
S05031,Emilia Romagna,Rubiera,Rubiera,4.465.618,10.780.252
S05903,Emilia Romagna,Russi,Russi,44.379.011,1.203.164
S05954,Emilia Romagna,S.Agata Sul Santerno,S.Agata Sul San.,44.436.774,11.858.855
S05069,Emilia Romagna,Santarcangelo Di Romagna,Santarcangelo R.,44.070.316,1.245.454
S05134,Emilia Romagna,San Benedetto Sambro-Cast.Pepoli,S.Benedetto Scp,4.422.866,1.119.226
S05000,Emilia Romagna,Piacenza,Piacenza,45.052.238,970.633
S06158,Emilia Romagna,Berceto,Berceto,44.555.912,9.931.759
S05311,Emilia Romagna,Mirandola,Mirandola,44.891.638,11.111.689
S05051,Emilia Romagna,Posto Mov. Mirandola Ozzano,P.M.Mirandola O.,44.459.977,11.464.168
S07119,Emilia Romagna,Misano Adriatico,Misano Adriatico,43.977.493,12.697.121
S05032,Emilia Romagna,Modena,Modena,44.654.461,10.930.373
S05112,Emilia Romagna,Molino Del Pallone,Molino Del Pall.,44.100.128,10.961.252
S05801,Emilia Romagna,Montesanto,Montesanto,44.732.964,1.173.652
S05721,Emilia Romagna,Galliera,Galliera,44.737.738,11.441.551
S06160,Emilia Romagna,Ostia Parmense,Ostia Parmense,44.520.136,9.844.981
S06152,Emilia Romagna,Ozzano Taro,Ozzano Taro,44.712.268,10.141.022
S05813,Emilia Romagna,Lido Di Classe-Lido Di Savio,Lido Clas./Savio,44.314.546,12.292.722
S05951,Emilia Romagna,Lugo,Lugo,44.414.106,11.914.723
S05105,Emilia Romagna,Marzabotto,Marzabotto,44.341.237,11.207.351
S05952,Emilia Romagna,Massalombarda,Massalombarda,44.448.948,11.828.068
S06102,Emilia Romagna,Medesano,Medesano,44.749.265,10.140.335
S01851,Emilia Romagna,Mezzani Rondani,Mezzani Rondani,44.966.764,10.398.818
S05810,Emilia Romagna,Mezzano,Mezzano,44.463,12.098.501
S05316,Emilia Romagna,Crevalcore,Crevalcore,44.719.156,11.152.625
S05058,Emilia Romagna,Faenza,Faenza,44.293.594,11.883.268
S05905,Emilia Romagna,Barbiano,Barbiano,44.387.263,11.878.086
S05119,Emilia Romagna,Biagioni Lagacci,Biagioni Lagacci,44.086.359,10.948.257
S05131,Emilia Romagna,Pianoro,Pianoro,44.380.589,11.340.675
S05106,Emilia Romagna,Pioppe Di Salvaro,Pioppe Salvaro,44.310.761,11.161.785
S05052,Emilia Romagna,Varignana,Varignana,44.436.796,11.523.078
S06150,Emilia Romagna,Vicofertile,Vicofertile,44.778.436,1.025.834
S05022,Emilia Romagna,Villa Cade`,Villa Cade',44.743.203,10.519.402
S01962,Emilia Romagna,Villanova D`Arda,Villanova D'Arda,45.028.291,9.993.291
S05807,Emilia Romagna,Voltana,Voltana,44.540.369,1.193.605
S05123,Emilia Romagna,Ponte Della Venturina,Ponte Venturina,44.128.589,10.990.756
S05103,Emilia Romagna,Pontecchio Marconi,Pontecchio Marc.,4.442.294,1.126.919
S05711,Emilia Romagna,Pontelagoscuro,Pontelagoscuro,44.873.216,11.612.526
S05005,Emilia Romagna,Pontenure,Pontenure,45.001.687,9.792.103
S05110,Emilia Romagna,Porretta  Terme,Porretta Terme,44.155.757,10.978.039
S05802,Emilia Romagna,Portomaggiore,Portomaggiore,44.696.699,11.799.785
S05800,Emilia Romagna,Gaibanella,Gaibanella,44.778.116,11.671.325
S05067,Emilia Romagna,Gambettola,Gambettola,44.116.718,12.327.555
S05313,Emilia Romagna,S.Felice Sp,S.Felice S.P.,44.834.527,11.140.243
S05723,Emilia Romagna,S.Giorgio P.,S.Giorgio P.,44.646.641,1.137.901
S05808,Emilia Romagna,Alfonsine,Alfonsine,44.512.364,12.039.155
S05008,Emilia Romagna,Posto Movimento Alseno,Pm Alseno,44.892.903,9.990.996
S05804,Emilia Romagna,Argenta,Argenta,44.616.867,11.841.267
S05902,Emilia Romagna,Bagnacavallo,Bagnacavallo,44.412.138,11.969.398
S05100,Emilia Romagna,Bologna Borgo Panigale,Borgo Panigale,44.515.024,11.284.728
S05130,Emilia Romagna,Bologna S.Ruffillo,Bo S.Ruffillo,44.462.657,11.372.967
S05043,Emilia Romagna,Bologna C.Le,Bologna Centrale,4.450.626,11.342.267
S06100,Emilia Romagna,Borghetto Parmense,Borghetto Parm.,44.837.198,101.177
S06161,Emilia Romagna,Borgo Val Di Taro,Borgo Val Taro,44.486.522,9.781.489
S01970,Emilia Romagna,Caorso,Caorso,45.042.048,9.868.157
S05120,Emilia Romagna,Carbona,Carbona,44.246.876,1.109.618
S02349,Emilia Romagna,Carpi,Carpi,44.782.919,10.891.952
S05101,Emilia Romagna,Casalecchio Di Reno,Casalecchio R.,44.474.298,11.276.097
S01948,Emilia Romagna,Castel S.Giovanni,Castel S.Giovan.,45.063.272,9.436.856
S05056,Emilia Romagna,Castelbolognese,Castelbolognese,44.325.391,11.804.174
S05037,Emilia Romagna,Castelfranco D'Emilia,C.Franco Emilia,44.597.381,11.056.408
S05012,Emilia Romagna,Castelguelfo,Castelguelfo,44.836.434,10.176.706
S05724,Emilia Romagna,Castelmaggiore,Castelmaggiore,44.576.055,11.366.901
S01960,Emilia Romagna,Castelvetro,Castelvetro,45.100.095,9.982.181
S01964,Emilia Romagna,Castione Dei Marchesi,Castione D.March,44.915.157,10.044.449
S07102,Emilia Romagna,Cattolica S.Giovanni Gabicce,Cattolica S.G.G.,43.959.931,12.745.087
S05814,Emilia Romagna,Cervia-Milano Marittima,Cervia M.M.,44.258.444,12.347.096
S06614,Emilia Romagna,Brisighella,Brisighella,44.220.565,11.769.757
S01963,Emilia Romagna,Busseto,Busseto,44.974.692,10.038.909
S05066,Emilia Romagna,Cesena,Cesena,44.145.449,1.224.964
S05815,Emilia Romagna,Cesenatico,Cesenatico,4.420.065,12.391.186
S06154,Emilia Romagna,Citerna Taro,Citerna Taro,4.463.548,10.032.939
S05812,Emilia Romagna,Classe,Classe,44.382.033,12.234.995
S06151,Emilia Romagna,Collecchio,Collecchio,44.755.339,1.021.228
S01852,Emilia Romagna,Colorno,Colorno,44.927.943,10.382.935
S05950,Emilia Romagna,Conselice,Conselice,44.510.987,11.831.949
S05104,Emilia Romagna,Sasso Marconi,Sasso Marconi,44.394.939,11.254.333
S05068,Emilia Romagna,Savignano Sul Rubicone,Savign.Sul Rub.,44.095.191,1.240.421
S06155,Emilia Romagna,Selva Del Bocchetto,Selva Del Bocch.,4.462.487,10.006.253
S05109,Emilia Romagna,Silla,Silla,44.177.652,10.980.635
S05900,Emilia Romagna,Solarolo,Solarolo,44.356.425,11.849.183
S02351,Emilia Romagna,Soliera Modenese,Soliera Modenese,44.722.667,1.090.601
S06156,Emilia Romagna,Solignano,Solignano,44.614.024,998.014
S06617,Emilia Romagna,Strada Casale,Strada Casale,44.183.511,11.697.496
S05322,Emilia Romagna,Pm Tavernelle Emilia,Pm Tavernelle E.,44.575.403,11.243.917
S05712,Emilia Romagna,Ferrara,Ferrara,44.843.047,11.603.594
S05009,Emilia Romagna,Fidenza,Fidenza,4.486.773,1.006.339
S05007,Emilia Romagna,Fiorenzuola,Fiorenzuola,44.928.716,9.917.403
S05059,Emilia Romagna,Forli`,Forli',4.422.413,12.054.871
S05065,Emilia Romagna,Forlimpopoli,Forlimpopoli B.,44.194.165,12.128.125
S06153,Emilia Romagna,Fornovo,Fornovo,44.693.791,10.102.014
S05014,Emilia Romagna,Parma,Parma,44.810.203,1.032.837
S05809,Emilia Romagna,Glorie,Glorie,44.483.341,12.075.736
S05904,Emilia Romagna,Godo,Godo,44.389.322,12.071.256
S05955,Emilia Romagna,Granarolo,Granarolo,44.357.356,11.937.441
S05133,Emilia Romagna,Grizzana,Grizzana,44.258.292,11.181.194
S05818,Emilia Romagna,Igea Marina,Igea Marina,44.131.972,12.481.636
S05054,Emilia Romagna,Imola,Imola,44.359.418,11.718.723
S05121,Emilia Romagna,Lama Di Reno,Lama Di Reno,44.363.501,11.216.168
S05806,Emilia Romagna,Lavezzola,Lavezzola,44.559.591,11.880.154
S05041,Emilia Romagna,Lavino,Lavino,44.538.306,11.232.799
S05817,Emilia Romagna,Bellaria,Bellaria,44.150.249,12.461.168
S05956,Emilia Romagna,Cotignola,Cotignola,44.387.077,11.938.037
S09620,Campania,Calitri Pescopagano,Calitri Pescop.,40.884.932,15.427.962
S09813,Campania,Pagani,Pagani,4.074.654,14.616.996
S09826,Campania,Contursi Terme,Contursi Terme,40.630.046,15.235.486
S09714,Campania,Bivio S.Lucia (Na),Biv. S.Lucia 123,40.742.888,14.682.744
S09102,Campania,Bagnoli Agnano Terme,Bagnoli Agnano T,40.819.444,14.166.694
S09004,Campania,Albanova,Albanova,40.996.117,14.128.596
S09304,Campania,Valle Di Maddaloni,Valle Di Maddal.,41.087.558,14.426.049
S09900,Campania,Galdo,Galdo,40.569.272,15.355.627
S09909,Campania,Montesano Buonabitacolo,Montesano B.,40.286.725,15.653.794
S09907,Campania,Sassano Teggiano,Sassano Teggiano,40.368.687,15.604.818
S09216,Campania,Casalnuovo,Casalnuovo,40.915.559,1.435.296
S09828,Campania,Buccino S.,Buccino,40.600.806,15.374.199
S11703,Campania,Paestum,Paestum,40.421.691,15.014.915
S11706,Campania,Torchiara,Torchiara,40.315.916,15.041.267
S09104,Campania,Napoli Piazza Leopardi,Na P. Leopardi,4.082.397,14.199.117
S09108,Campania,Piazza Cavour,Piazza Cavour,40.855.248,14.255.175
S09203,Campania,Vairano,Vairano,41.317.446,14.104.022
S09206,Campania,Sparanise,Sparanise,41.185.707,14.092.954
S09212,Campania,Maddaloni Inferiore,Maddaloni Inf.,41.035.954,14.380.504
S09300,Campania,Gricignano,Gricignano,40.998.742,14.241.657
S09306,Campania,Amorosi Melizzano,Amorosi Mel.,41.173.509,14.470.759
S09309,Campania,Ponte Casalduni,Ponte Casalduni,41.214.169,14.696.458
S09313,Campania,Paduli,Paduli,41.146.232,14.838.878
S09315,Campania,Montecalvo Buonalbergo Casalb.,Montecalvo B.C.,412.211,149.795
S09326,Campania,Telese Cerreto,Telese Cerreto,41.211.709,14.526.165
S09506,Campania,Fragneto Monforte,Fragneto Monf.,41.247.292,1.476.486
S09507,Campania,Pescosannita Fragneto L`Abate,Pescosannita F.,41.236.154,14.788.527
S09508,Campania,Pietrelcina,Pietrelcina,4.118.865,14.832.469
S09509,Campania,Benevento Porta Rufina,Bn Porta Rufina,41.123.564,14.784.315
S09511,Campania,Altavilla Irpina,Altavilla Irpina,41.015.265,14.782.833
S09512,Campania,Tufo,Tufo,41.013.853,14.815.962
S09513,Campania,Prata Pratola,Prata Pratola,40.988.509,14.842.666
S09524,Campania,Fratte Villa Comunale,Fratte-Villa Com,40.697.895,14.779.252
S09603,Campania,Montemiletto,Montemiletto,40.993.606,14.920.685
S09608,Campania,Castelvetere,Castelvetere,40.952.072,15.011.348
S09617,Campania,Morra De Sanctis Teora,Morra De S.T.,40.890.563,15.239.328
S09629,Campania,Sanzano Occhino,Sanzano Occhino,408.869,1.527.783
S09701,Campania,Palma S.Gennaro,Palma S.Gennaro,40.864.149,14.540.472
S09704,Campania,Castel S.Giorgio Roccapiemonte,Castel S.Giorgio,40.758.713,14.692.352
S09705,Campania,Valle Di Mercato S.Severino,Valle Di Mercato,40.776.365,14.722.362
S09800,Campania,Napoli S.Giov.Barra,Napoli S.G.Barra,40.831.269,14.307.811
S09802,Campania,Portici- Ercolano,Portici Ercolano,40.809.907,14.335.809
S09817,Campania,Vietri Sul Mare,Vietri Sul Mare,40.674.996,14.726.829
S09821,Campania,Pontecagnano,Pontecagnano,40.641.033,14.870.272
S09825,Campania,Campagna Serre Persano,Campagna S.P.,40.595.667,15.113.986
S09827,Campania,Sicignano Degli Alburni,Sicignano D.A.,40.605.454,15.290.904
S09904,Campania,Atena,Atena,40.456.676,15.536.094
S11707,Campania,Rutino,Rutino,4.029.259,15.104.561
S11709,Campania,Vallo Della Luc. Castelnuovo,Vallo D.Lucania,40.233.316,15.266.511
S09752,Campania,S.Giuseppe Vesuviano,S.Giuseppe Ves.,40.834.058,14.502.954
S09829,Campania,Romagnano V.,Romagnano V.,40.610.041,15.447.651
S09523,Campania,S.Michele Di Serino,S.Michele Di S.,40.874.511,14.853.445
S09515,Campania,Serino,Serino,40.858.838,14.860.182
S09605,Campania,Taurasi,Taurasi,40.980.838,14.965.804
S09100,Campania,Giugliano Qualiano,Giugliano Qual.,40.935.018,1.410.378
S09837,Campania,Mercatello,Mercatello,40.606.491,1.538.979
S09838,Campania,Arbostella,Arbostella,40.677.263,15.623.814
S09615,Campania,S.Angelo Dei Lombardi,S.Angelo Dei L.M,40.890.372,15.161.478
S09007,Campania,S.Antimo S.Arpino,S.Antimo S.Arpin,40.949.188,14.247.415
S09502,Campania,S.Croce Del Sannio,S.Croce Del S.,4.137.114,14.705.455
S09317,Campania,Pianerottolo Di Ariano,Pianerottolo A.,41.188.984,15.145.482
S09801,Campania,Pietrarsa,Pietrarsa,40.822.433,1.432.058
S09311,Campania,Benevento,Benevento,41.141.901,14.769.998
S09602,Campania,Montefalcione,Montefalcione,40.951.114,14.886.432
S09529,Campania,Montefredane,Montefredane,40.951.143,14.827.771
S09612,Campania,Montella,Montella,40.845.175,15.032.758
S09610,Campania,Montemarano,Montemarano,40.900.728,15.039.506
S09305,Campania,Frasso T. Dugenta,Frasso Dugenta,41.137.244,14.459.459
S09008,Campania,Frattamaggiore,Frattamaggiore,40.940.018,14.263.676
S09522,Campania,Fratte,Fratte,40.705.637,14.778.362
S09814,Campania,Nocera Inferiore,Nocera Inferiore,40.745.318,14.635.346
S09709,Campania,Nocera Inferiore Mercato,Nocera Mercato,40.745.668,14.649.129
S09815,Campania,Nocera Superiore,Nocera Superiore,40.742.597,14.672.398
S09700,Campania,Nola,Nola,40.923.652,14.525.004
S09751,Campania,Ottaviano,Ottaviano,4.085.256,14.493.479
S09806,Campania,Torre Annunziata Centrale,Torre A.Centrale,40.747.131,14.463.744
S09805,Campania,Torre Annunziata Citta',Torre A. CittÃ ,40.754.069,14.448.628
S09803,Campania,Torre Del Greco,Torre Del Greco,40.787.631,14.363.159
S09616,Campania,Lioni,Lioni,40.874.869,15.186.324
S09628,Campania,Lioni Valle Delle Viti,L.Valle D.Viti,40.887.025,15.215.936
S09303,Campania,Maddaloni Superiore,Maddaloni Super.,41.048.567,14.396.055
S09301,Campania,Marcianise,Marcianise,4.103.596,14.287.658
S09750,Campania,Marigliano,Marigliano,40.923.733,14.460.435
S09201,Campania,Mignano Di Monte Lungo,Mignano Mont.,41.407.585,13.986.672
S09824,Campania,Eboli,Eboli,40.611.057,15.052.382
S09520,Campania,Baronissi,Baronissi,40.743.779,1.477.224
S09503,Campania,Morcone,Morcone,41.340.445,14.677.658
S09103,Campania,Napoli Campi Flegrei,Napoli Campi F.,40.822.462,14.194.649
S09109,Campania,Napoli Piazza Garibaldi,Na Piazza Garib.,40.852.326,14.275.159
S09521,Campania,Pellezzano,Pellezzano,40.719.928,14.777.354
S09003,Campania,Villa Literno,Villa Literno,41.004.956,1.406.753
S09310,Campania,Vitulano Foglianise,Vitulano Fogl.,41.163.008,14.720.027
S09902,Campania,Auletta,Auletta,40.534.934,15.426.706
S09908,Campania,Padula,Padula,40.335.142,15.629.921
S09901,Campania,Petina,Petina,40.560.347,15.389.298
S09903,Campania,Polla,Polla,40.512.921,15.497.238
S09906,Campania,Sala Consilina,Sala Consilina,40.405.144,15.576.057
S09810,Campania,Pompei,Pompei,40.745.918,14.501.109
S09504,Campania,Pontelandolfo,Pontelandolfo,4.129.578,14.712.051
S09516,Campania,Solofra,Solofra,40.834.504,14.843.975
S09761,Campania,Spartimento Di Scisciano,S. Di Scisciano,40.891.561,14.468.487
S09308,Campania,S.Lorenzo Maggiore,S.Lorenzo M.,41.219.748,14.648.419
S09005,Campania,S.Marcellino Frignano,S.Marcellino F.,40.992.103,14.171.976
S09209,Campania,S.Maria Capua Vetere,S.Maria Capua V.,4.107.353,14.254.081
S09804,Campania,S.Maria La Bruna,S.Maria La Bruna,40.755.435,14.407.647
S09753,Campania,Terzigno,Terzigno,40.806.926,14.503.275
S09202,Campania,Tora Presenzano,Tora Presenzano,41.358.861,1.404.514
S11705,Campania,Agropoli Castellabate,Agropoli,40.351.521,15.002.053
S11702,Campania,Capaccio Roccadaspide,Capaccio,40.454.518,15.013.551
S11712,Campania,Pisciotta Palinuro,Pisciotta P.,40.091.539,15.243.601
S11717,Campania,Torre Orsaia,Torre Orsaia,40.099.017,15.481.204
S09319,Campania,Montaguto Panni,Montaguto P.,41.235.362,15.235.132
S09822,Campania,Montecorvino,Montecorvino,40.617.439,14.944.628
S09614,Campania,Nusco,Nusco,40.872.272,15.095.642
S09001,Campania,Falciano Mondragone Car.,Falciano Mond.,41.123.525,13.971.792
S09207,Campania,Pignataro Maggiore,Pignataro Mag.,4.117.384,14.160.545
S09530,Campania,Benevento Arco Traiano,Bn Arco Traiano,41.136.834,14.777.662
S09606,Campania,Luogosano,Luogosano,40.980.381,14.994.305
S09706,Campania,Mercato San Severino,Mercato S.Sever.,40.783.095,14.759.749
S11714,Campania,San Mauro La Bruca,S.Mauro La Bruca,4.009.683,15.298.924
S11700,Campania,San Nicola Varco Di Eboli,S.Nicola Varco,40.561.479,14.998.375
S11721,Campania,Sapri,Sapri,40.078.013,15.627.204
S09215,Campania,Acerra,Acerra,40.939.066,14.372.243
S09812,Campania,Angri,Angri,40.746.404,14.575.366
S09314,Campania,Apice S.Arcangelo Bonito,Apice S.A.B.,41.140.927,14.918.733
S09623,Campania,Aquilonia,Aquilonia,40.940.252,15.541.249
S09316,Campania,Ariano Irpino,Ariano Irpino,41.181.883,15.117.508
S09514,Campania,Avellino,Avellino,40.921.612,14.820.586
S09006,Campania,Aversa,Aversa,40.973.323,14.218.578
S09763,Campania,Boccia Al Mauro,Boccia Al Mauro,40.732.794,14.471.878
S09526,Campania,Borgo,Borgo,40.845.976,14.784.092
S09754,Campania,Boscoreale,Boscoreale,40.770.786,1.448.017
S09213,Campania,Cancello,Cancello,40.993.063,14.418.877
S09002,Campania,Cancello Arnone,Cancello Arnone,41.063.369,1.402.901
S09208,Campania,Capua,Capua,41.101.306,14.210.347
S09910,Campania,Casalbuono,Casalbuono,40.214.093,15.686.095
S09211,Campania,Caserta,Caserta,41.068.655,14.328.457
S09009,Campania,Casoria,Casoria,40.907.762,1.429.874
S09611,Campania,Cassano Irpino,Cassano Irpino,40.869.227,15.031.213
S09609,Campania,Castelfranci,Castelfranci,40.935.968,15.038.655
S09756,Campania,Castellammare Di Stabia,Cast.Re Di Stab.,40.701.398,14.483.737
S09816,Campania,Cava Dei Tirreni,Cava Dei Tirreni,40.703.662,14.708.461
S09113,Campania,Cavalleggeri Aosta,Cavalleggeri A.,40.819.292,14.185.679
S11711,Campania,Ascea,Ascea,40.140.955,15.172.626
S09823,Campania,Battipaglia,Battipaglia,40.605.789,1.498.324
S11716,Campania,Celle Bulgheria Roccagloriosa,Celle Bulgheria,4.010.287,1.539.473
S11715,Campania,Centola,Centola,40.090.672,1.534.674
S11708,Campania,Omignano Salento,Omignano,40.252.688,15.134.406
S11718,Campania,Policastro Bussentino,Policastro,40.076.482,15.528.438
S09473,Campania,Cese,Cese,41.210.883,14.787.329
S09510,Campania,Chianche Ceppaloni,Chianche Ceppal.,41.050.122,14.777.618
S09703,Campania,Codola,Codola,40.767.687,14.665.622
S09318,Campania,Savignano Greci,Savignano G.,41.230.587,15.167.109
S09811,Campania,Scafati,Scafati,40.746.028,14.523.253
S09000,Campania,Sessa Aurunca R.,Sessa A.,411.955,138.761
S09307,Campania,Solopaca,Solopaca,41.210.521,14.571.413
S09205,Campania,Teano,Teano,41.231.804,14.077.075
S09519,Campania,Fisciano,Fisciano,40.759.095,1.477.486
S09607,Campania,Paternopoli,Paternopoli,40.972.903,15.009.932
S09324,Campania,Corsano,Corsano,41.164.472,14.958.463
S09758,Campania,Gragnano,Gragnano,40.688.964,14.520.445
S09707,Campania,Lanzara Fimiani,Lanzara Fimiani,40.769.685,1.468.115
S09708,Campania,Lavorate,Lavorate,4.078.733,14.649.875
S09613,Campania,Bagnoli Irpino,Bagnoli Irpino,4.083.917,1.506.324
S09818,Campania,Salerno,Salerno,40.675.137,14.772.822
S09600,Campania,Salza Irpina,Salza Irpina,40.922.251,14.881.761
S09702,Campania,Sarno,Sarno,40.813.063,14.612.442
S09518,Campania,Montoro Forino,Montoro Forino,40.819.987,14.757.381
S09517,Campania,Montoro Superiore,Montoro Super.,40.831.616,1.480.217
S09528,Campania,Montorsi,Montorsi,41.080.487,14.786.519
S09110,Campania,Napoli Gianturco,Napoli Gianturco,40.853.959,14.288.213
S09105,Campania,Napoli Mergellina,Na Mergellina,40.831.531,14.218.662
S09107,Campania,Napoli Montesanto,Na Montesanto,40.847.807,14.244.022
S09106,Campania,Piazza Amedeo,Piazza Amedeo,40.838.506,14.232.974
S09218,Campania,Napoli Centrale,Napoli Centrale,40.852.933,14.272.908
S09626,Campania,Campo Di Nusco,Campo Di Nusco,40.879.143,15.129.255
S09505,Campania,Campolattaro,Campolattaro,41.285.869,14.726.853
S09101,Campania,Pozzuoli Solfatara,Pozzuoli S.,40.827.586,14.126.163
S09111,Campania,Quarto Di Marano,Quarto Di Marano,40.871.086,14.122.801
S09302,Campania,Recale,Recale,4.106.235,1.430.323
S09762,Campania,Reviglione Di Somma Vesuviana,Reviglione Di S.,40.872.234,14.482.833
S09204,Campania,Riardo,Riardo,41.265.177,14.124.949
S11725,Calabria,Praja Ajeta Tortora,Praja A.T.,39.900.832,15.780.628
S11776,Calabria,Reggio Di Calabria Catona,Reggio C. Catona,38.185.806,15.641.205
S11845,Calabria,Riace,Riace,38.389.178,16.528.152
S11804,Calabria,Rocca Imperiale,Rocca Imperiale,40.100.043,16.615.742
S11864,Calabria,Saline Di Reggio,Saline Di Reggio,37.938.677,15.710.664
S11772,Calabria,Scilla,Scilla,38.251.202,15.710.886
S11832,Calabria,Simeri Crichi,Simeri Crichi,38.883.068,16.716.122
S11903,Calabria,Tarsia,Tarsia,39.653.552,1.624.293
S11780,Calabria,Reggio Calabria Lido,Reggio C. Lido,38.117.668,15.649.171
S11866,Calabria,R.C.Aeroporto,R.C.Aero,38.073.039,15.642.301
S11741,Calabria,Fiumefreddo Bruzio,Fiumefreddo,39.246.369,16.059.012
S11752,Calabria,Francavilla Angitola F.,Francavilla A.F.,38.778.074,16.215.215
S11738,Calabria,Fuscaldo,Fuscaldo,39.409.692,16.011.475
S11871,Calabria,Gabella Grande,Gabella Grande,39.146.447,1.710.991
S11748,Calabria,Gizzeria Lido,Gizzeria Lido,38.933.446,16.212.563
S11729,Calabria,Grisolia S.Maria,Grisolia,39.739.731,15.821.072
S11843,Calabria,Guardavalle,Guardavalle,38.480.266,16.578.923
S11737,Calabria,Guardia Piemontese Terme,Guardia P.T.,39.464.259,15.979.237
S11951,Calabria,Lamezia Terme Nicastro,L.Terme Nicastro,38.966.779,16.320.043
S11950,Calabria,Lamezia Terme Sambiase,L.Terme Sambiase,38.959.927,16.284.962
S11851,Calabria,Locri,Locri,38.233.154,16.264.787
S11742,Calabria,Longobardi,Longobardi,39.211.493,16.061.261
S11728,Calabria,Marcellina Verbicaro Orsomarso,Marcellina V.O.,39.766.974,15.822.665
S11953,Calabria,Marcellinara,Marcellinara,38.923.103,16.466.939
S11862,Calabria,Marina Di San Lorenzo,M.D.San Lorenzo,37.919.844,15.826.365
S11814,Calabria,Mirto Crosia,Mirto Crosia,39.604.876,16.777.366
S11844,Calabria,Monasterace Stilo,Monasterace St.,38.437.591,16.574.444
S11905,Calabria,Mongrassano Cervicati,Mongrassano,39.538.462,16.222.511
S11836,Calabria,Montepaone - Montauro,Montepaone M.,38.728.548,16.541.944
S11865,Calabria,Motta San Giovanni Lazzaro,Motta Sg Lazzaro,37.976.978,15.659.977
S11764,Calabria,Nicotera,Nicotera,38.549.328,15.933.749
S11746,Calabria,Nocera Tirinese,Nocera,39.015.913,16.119.677
S11859,Calabria,Palizzi,Palizzi,3.791.881,15.986.405
S11769,Calabria,Palmi,Palmi,38.364.914,1.584.438
S11739,Calabria,Paola,Paola,39.359.442,16.033.093
S11816,Calabria,Pietrapaola,Pietrapaola,39.540.121,16.860.819
S11727,Calabria,Scalea S.Domenica Talao,Scalea,398.083,1.580.139
S11749,Calabria,Lamezia Terme Centrale,Lamezia T. C.Le,38.921.347,16.255.577
S11826,Calabria,Cutro,Cutro,3.902.593,16.963.809
S11766,Calabria,Gioia Tauro,Gioia Tauro,38.423.436,15.897.516
S11740,Calabria,S.Lucido Marina,S.Lucido Marina,39.313.203,16.045.546
S11811,Calabria,Sibari,Sibari,39.749.863,16.456.922
S11840,Calabria,S.Andrea Dell`Jonio,S.Andrea Jonio,38.620.097,16.553.449
S11908,Calabria,Montalto Rose,Montalto Rose,39.407.213,16.247.291
S11956,Calabria,Catanzaro,Catanzaro,38.896.222,16.599.081
S11775,Calabria,Villa S.Giovanni Mare,Villa S.Giov.Mar,38.220.912,15.632.912
S11763,Calabria,Joppolo,Joppolo,38.580.318,15.897.025
S11770,Calabria,Bagnara,Bagnara,38.282.695,15.800.327
S11773,Calabria,Villa S.G.Cannitello,V.S.G.Cannitello,3.823.409,15.653.246
S11777,Calabria,Reggio Di Calabria Gallico,Reggio C.Gallico,38.165.235,15.650.716
S11786,Calabria,Santa Domenica,S.Domenica,38.663.764,15.859.822
S11790,Calabria,Mileto,Mileto,38.577.082,16.060.041
S11805,Calabria,Monte Giordano,Monte Giordano,40.040.812,16.597.907
S11810,Calabria,Villapiana Torre Cerchiara,Villapiana T.C.,39.790.568,16.479.497
S11812,Calabria,Corigliano Calabro,Corigliano Cal.,39.628.223,16.514.949
S11817,Calabria,Mandatoriccio Campana,Mandatoriccio C.,39.525.442,16.893.125
S11825,Calabria,Isola Capo Rizzuto,Isola Capo Rizz.,39.043.084,17.071.764
S11833,Calabria,Catanzaro Lido,Catanzaro Lido,38.821.788,16.612.975
S11837,Calabria,Soverato,Soverato,38.684.339,16.549.416
S11842,Calabria,S.Caterina Dell`Jonio,S.Caterina Jonio,38.530.452,16.571.093
S11848,Calabria,Gioiosa Jonica,Gioiosa Jonica,38.300.812,16.332.501
S11857,Calabria,Brancaleone,Brancaleone,37.965.475,16.103.301
S11860,Calabria,Bova Marina,Bova Marina,37.930.269,15.923.897
S11863,Calabria,Melito Di Porto Salvo,Melito P.S.,37.916.732,15.780.816
S11868,Calabria,Reggio Di Calabria S.Gregorio,R.C.San Gregorio,38.061.274,15.652.053
S11901,Calabria,Spezzano Albanese Terme,Spezzano Alb.T.,39.707.307,16.287.599
S11904,Calabria,S.Marco Roggiano,S.Marco Roggiano,39.605.223,16.208.776
S11909,Calabria,Castiglione Cosentino,Castiglione C.,3.935.542,16.244.388
S11952,Calabria,Feroleto Antica Pianopoli,Feroleto A.P.,38.938.255,1.636.622
S11751,Calabria,Bivio Pantani,Biv. Pantani,39.346.697,16.046.631
S11774,Calabria,Villa San Giovanni,Villa S.Giovanni,38.216.638,15.634.336
S11759,Calabria,Parghelia,Parghelia,38.683.341,15.925.042
S11753,Calabria,Pizzo,Pizzo,38.726.323,16.150.615
S11781,Calabria,Reggio Calabria Centrale,Reggio C. C.Le,38.103.884,15.635.844
S11782,Calabria,Reggio Calabria Marittima,Reggio C. Mar.,38.121.947,15.647.886
S11867,Calabria,Reggio Di Calabria Pellaro,Reggio C.Pellaro,3.802.561,15.650.064
S11761,Calabria,Ricadi,Ricadi,38.630.676,15.839.848
S11828,Calabria,Roccabernarda,Roccabernarda,38.942.165,16.900.439
S11847,Calabria,Roccella Jonica,Roccella Jonica,38.322.043,16.406.917
S11765,Calabria,Rosarno,Rosarno,38.488.593,15.970.149
S11806,Calabria,Roseto Capo Spulico,Roseto C.Spulico,39.972.412,16.620.275
S11813,Calabria,Rossano,Rossano,39.603.005,16.640.859
S11726,Calabria,S.Nicola Arcella,S.Nicola Arcella,39.850.764,15.793.165
S11750,Calabria,S.Pietro A Maida,S.Pietro M.,38.867.817,16.276.306
S11827,Calabria,San Leonardo Di Cutro,S.Leonardo Cutro,38.954.221,16.964.409
S11733,Calabria,Sangineto,Sangineto,39.592.487,15.863.973
S11957,Calabria,Santa Maria Di Catanzaro,Santa Maria,38.864.988,16.605.785
S11831,Calabria,Sellia Marina,Sellia Marina,38.903.666,16.764.788
S11954,Calabria,Settingiano,Settingiano,38.903.198,16.510.832
S11850,Calabria,Siderno,Siderno,382.708,16.302
S11835,Calabria,Squillace,Squillace,3.877.705,16.570.418
S11822,Calabria,Strongoli,Strongoli,39.228.139,17.108.256
S11869,Calabria,Thurio,Thurio,3.969.651,16.474.098
S11906,Calabria,Torano Lattarico,Torano Lattarico,3.949.455,16.210.509
S11821,Calabria,Torre Melissa,Torre Melissa,39.304.391,17.108.402
S11808,Calabria,Trebisacce,Trebisacce,39.865.561,16.532.173
S11760,Calabria,Tropea,Tropea,38.672.302,15.894.568
S11754,Calabria,Vibo Marina,Vibo Marina,38.713.731,16.120.199
S11789,Calabria,Vibo Valenzia Pizzo,Vibo Pizzo,38.714.593,16.139.887
S11778,Calabria,Villa S. Giovanni Bolano,V.S.G. Bolano,38.200.739,15.635.099
S11809,Calabria,Villapiana Lido,Villapiana Lido,39.811.234,16.490.988
S11758,Calabria,Zambrone,Zambrone,38.712.738,15.976.204
S11736,Calabria,Acquappesa,Acquappesa,3.948.648,15.955.992
S11907,Calabria,Acri Bisignano Luzzi,Acri Bisignano,39.441.389,16.245.177
S11872,Calabria,Africo Nuovo,Africo Nuovo,38.053.759,16.144.283
S11744,Calabria,Amantea,Amantea,39.134.353,16.068.448
S11807,Calabria,Amendolara Oriolo,Amendolara Or.,39.933.731,1.660.308
S11853,Calabria,Ardore,Ardore,38.175.698,16.207.311
S11841,Calabria,Badolato,Badolato,38.572.268,16.567.646
S11743,Calabria,Belmonte Calabro,Belmonte,39.164.427,16.064.515
S11732,Calabria,Belvedere Marittimo,Belvedere M.,39.616.549,15.853.039
S11855,Calabria,Bianco,Bianco,38.089.072,16.153.348
S11755,Calabria,Bivio Settimo,Biv. Settimo,39.381.416,16.222.002
S11829,Calabria,Botricello,Botricello,38.933.943,16.857.433
S11854,Calabria,Bovalino,Bovalino,38.149.087,16.180.584
S11757,Calabria,Briatico,Briatico,38.725.447,16.025.765
S11815,Calabria,Calopezzati,Calopezzati,39.579.022,16.819.361
S11745,Calabria,Campora S.Giov. Serra Aiello,Campora S.G.,39.068.402,1.609.102
S11734,Calabria,Capo Bonifati,Capo Bonifati,39.558.342,15.874.052
S11858,Calabria,Capo Spartivento,Capo Spartivento,37.924.778,16.058.342
S11818,Calabria,Cariati,Cariati,39.496.884,16.952.018
S11900,Calabria,Cassano All`Ionio,Cassano,39.726.326,1.635.218
S11846,Calabria,Caulonia,Caulonia,38.343.785,16.467.278
S11735,Calabria,Cetraro,Cetraro,39.512.553,15.939.263
S11730,Calabria,Cirella Majera`,Cirella,39.708.556,15.812.289
S11820,Calabria,Ciro',CirÃ²,39.368.701,17.116.997
S11861,Calabria,Condofuri,Condofuri,3.792.761,15.874.952
S11910,Calabria,Cosenza,Cosenza,39.318.386,16.260.955
S11830,Calabria,Cropani,Cropani,38.921.968,16.813.562
S11823,Calabria,Crotone,Crotone,390.845,17.108.418
S11819,Calabria,Crucoli,Crucoli,39.449.588,17.040.718
S11731,Calabria,Diamante Buonvicino,Diamante,3.967.701,15.824.278
S11788,Calabria,Eccellente,Eccellente,38.809.696,16.232.598
S11747,Calabria,Falerna,Falerna,38.970.726,1.614.991
S11771,Calabria,Favazzina,Favazzina,38.258.742,15.756.625
S11856,Calabria,Ferruzzano,Ferruzzano,38.016.304,16.134.486
S11802,Basilicata,Policoro Tursi,Policoro Tursi,40.207.304,16.688.819
S11453,Basilicata,Albano Di Lucania,Albano Lucania,40.574.707,16.021.247
S11722,Basilicata,Acquafredda,Acquafredda,40.035.527,15.671.846
S11723,Basilicata,Maratea,Maratea,39.995.028,1.570.975
S11800,Basilicata,Marconia,Marconia,40.316.896,16.752.317
S11461,Basilicata,Metaponto,Metaponto,40.368.496,16.815.176
S11211,Basilicata,Filiano,Filiano,40.837.161,15.752.285
S11210,Basilicata,Forenza,Forenza,40.866.839,15.725.331
S09831,Basilicata,Bella Muro,Bella Muro,40.700.914,15.542.936
S11457,Basilicata,Salandra,Salandra,40.583.446,16.351.564
S09622,Basilicata,Monticchio,Monticchio,40.923.923,15.539.231
S11455,Basilicata,Calciano,Calciano,40.595.117,16.202.526
S11454,Basilicata,Campomaggiore,Campomaggiore,40.550.772,16.086.766
S11217,Basilicata,Potenza Superiore,Potenza Sup.Re,4.064.586,15.800.966
S11209,Basilicata,Rionero Atella Ripacandita,Rionero A.Ripac.,40.922.066,15.678.699
S09833,Basilicata,Picerno,Picerno,40.640.122,15.641.612
S11213,Basilicata,Pietragalla,Pietragalla,40.753.314,1.579.211
S11459,Basilicata,Pisticci,Pisticci,40.420.848,16.552.181
S11452,Basilicata,Trivigno,Trivigno,40.588.598,15.997.824
S11460,Basilicata,Bernalda,Bernalda,40.397.616,16.682.281
S09830,Basilicata,Balvano R.,Balvano R.,40.649.993,15.495.304
S11216,Basilicata,Tiera,Tiera,40.697.817,15.819.279
S11724,Basilicata,Marina Di Maratea,Mar.Di Maratea,39.959.512,15.735.953
S09624,Basilicata,Monteverde,Monteverde,40.967.691,15.568.502
S11208,Basilicata,Barile,Barile,40.943.044,15.670.959
S11420,Basilicata,Potenza Centrale,Potenza Centrale,40.629.469,15.806.808
S09832,Basilicata,Baragiano,Baragiano,40.695.213,15.569.206
S11801,Basilicata,Scanzano J. Montalbano J.,Scanzano J. M.,4.025.362,16.705.192
S11803,Basilicata,Nova Siri Rotondella,Nova Siri Roton.,40.130.311,16.644.044
S09621,Basilicata,Rapone Ruvo S.Fele,Rapone Ruvo S.F.,4.088.802,1.547.373
S09625,Basilicata,Pisciolo,Pisciolo,41.018.914,15.565.446
S09834,Basilicata,Tito,Tito,40.607.321,15.698.194
S09911,Basilicata,Lagonegro,Lagonegro,40.120.325,157.627
S11206,Basilicata,Melfi,Melfi,40.989.871,15.646.895
S11212,Basilicata,Castel Lagopesole,Castel Lagopes.,40.787.682,15.758.093
S11214,Basilicata,Avigliano Lucania,Avigliano Luc.,40.714.667,15.785.619
S11219,Basilicata,Leonessa,Leonessa,41.062.304,15.595.094
S11220,Basilicata,Possidente,Possidente,40.781.144,15.777.104
S11300,Basilicata,S. Nicola Di Melfi,S.Nicola Melfi,41.073.281,15.677.602
S11302,Basilicata,Venosa - Maschito,Venosa Maschito,40.979.136,15.846.171
S11303,Basilicata,Palazzo S.Gervasio - Montemil.,Palazzo S.G.- M.,4.093.929,1.598.982
S11450,Basilicata,Vaglio Basilicata,Vaglio Basil.,40.656.322,15.880.105
S11451,Basilicata,Brindisi Di Montagna,Brindisi Di Mont,40.611.991,15.955.795
S11456,Basilicata,Grassano,Grassano,40.593.317,16.241.049
S11458,Basilicata,Ferrandina,Ferrandina,40.516.566,16.475.276
S09630,Basilicata,S.Tommaso Del Piano,S.Tommaso Del P.,40.900.403,15.503.719
S08901,Abruzzo,Pettorano Sul Gizio,Pettorano Sul G.,41.974.557,13.965.036
S07819,Abruzzo,Fossacesia,Fossacesia,42.235.097,14.524.255
S08853,Abruzzo,Civita D`Antino-Morino,Civita D'Antino,41.870.632,13.458.868
S08855,Abruzzo,S.Vincenzo V.R.,S. Vincenzo V.R.,41.832.988,13.526.148
S08900,Abruzzo,Sulmona-Introdacqua,Sulmona-Introd.,42.038.241,1.392.156
S08905,Abruzzo,Rivisondoli-Pescocostanzo,Rivisondoli-Pesc,41.877.292,14.079.308
S08910,Abruzzo,Castel Di Sangro,Castel Di Sangro,41.777.829,14.112.049
S07805,Abruzzo,Scerne Di Pineto,Scerne Di Pineto,42.642.427,14.041.324
S08538,Abruzzo,Bugnara,Bugnara,42.031.166,13.862.082
S07704,Abruzzo,Bussi,Bussi,42.194.154,13.849.075
S08903,Abruzzo,Campo Di Giove,Campo Di Giove,42.007.967,14.041.492
S07601,Abruzzo,Pratola Peligna Superiore,Pratola P.S.,42.080.415,1.387.223
S07412,Abruzzo,Vigliano D`Abruzzo,Vigliano D'Abruz,42.341.675,13.231.335
S07426,Abruzzo,Tione Degli Abruzzi,Tione Degli A.,42.204.908,1.364.205
S07703,Abruzzo,Popoli Vittorito,Popoli Vittorito,42.172.354,13.826.152
S07801,Abruzzo,Tortoreto Lido,Tortoreto Lido,42.804.562,13.939.012
S07806,Abruzzo,Pineto Atri,Pineto Atri,42.607.736,14.069.072
S07900,Abruzzo,Teramo,Teramo,42.660.551,13.715.882
S07901,Abruzzo,Castellalto Canzano,Castellalto C.,4.269.564,13.793.043
S08521,Abruzzo,Sante Marie,Sante Marie,42.096.993,1.321.696
S08533,Abruzzo,Carrito-Ortona,Carrito-Ortona,42.026.506,13.720.179
S08919,Abruzzo,Campo Di Giove-Monte Maiella,Campo G.-Monte M,41.993.262,14.069.088
S08534,Abruzzo,Cocullo,Cocullo,42.040.723,13.776.636
S07708,Abruzzo,Alanno,Alanno,42.287.185,14.019.595
S07800,Abruzzo,Alba Adriatica Nereto Contr.,Alba Adriatica,4.283.438,1.391.733
S08908,Abruzzo,Alfedena-Scontrone,Alfedena-Scontr,41.738.222,14.044.662
S08537,Abruzzo,Anversa-Villalago-Scanno,Anversa V. S.,42.017.261,13.835.618
S08526,Abruzzo,Avezzano,Avezzano,42.039.495,13.426.446
S08850,Abruzzo,Capistrello,Capistrello,4.197.051,13.399.276
S08525,Abruzzo,Cappelle-Magliano,Cappelle-Magl.,42.059.369,13.372.468
S08519,Abruzzo,Carsoli,Carsoli,4.209.578,13.080.388
S07821,Abruzzo,Casalbordino Pollutri,Casalbordino P.,42.193.653,14.633.045
S08528,Abruzzo,Celano-Ovindoli,Celano-Ovindoli,42.076.999,13.543.398
S08530,Abruzzo,Cerchio,Cerchio,42.061.082,13.597.972
S07712,Abruzzo,Chieti,Chieti,42.356.905,1.413.815
S08852,Abruzzo,Civitella Roveto,Civitella Roveto,41.916.419,13.424.882
S08520,Abruzzo,Colli Di Monte Bove,Colli Di M. Bove,42.097.103,1.315.057
S07413,Abruzzo,Sassa Tornimparte,Sassa Tornimpart,42.360.549,13.295.333
S07707,Abruzzo,Scafa S.Valentino Caramanico T,Scafa S.V.C.T.,4.226.717,1.399.909
S08524,Abruzzo,Scurcola Marsicana,Scurcola Mars.,42.053.136,13.344.374
S07411,Abruzzo,Sella Di Corno,Sella Di Corno,42.360.461,13.189.876
S07421,Abruzzo,Fontecchio,Fontecchio,42.222.822,13.604.445
S07802,Abruzzo,Giulianova,Giulianova,42.751.673,13.965.743
S07414,Abruzzo,L`Aquila,L'Aquila,42.351.055,13.384.959
S07817,Abruzzo,S.Vito Lanciano,S.Vito Lanciano,42.307.401,14.448.093
S07808,Abruzzo,Montesilvano,Montesilvano,42.515.766,14.152.567
S07904,Abruzzo,Mosciano S. Angelo,Mosciano S. Ang.,42.710.309,13.908.563
S07700,Abruzzo,Pratola Peligna,Pratola Peligna,42.102.423,13.876.349
S08536,Abruzzo,Prezza,Prezza,42.053.699,13.834.497
S07600,Abruzzo,Raiano,Raiano,42.097.931,1.380.908
S08906,Abruzzo,Roccaraso,Roccaraso,41.850.833,14.079.292
S07804,Abruzzo,Roseto Degli Abruzzi,Roseto Degli Abr,42.677.852,1.401.535
S07810,Abruzzo,Pescara,Pescara,42.467.789,14.205.066
S07811,Abruzzo,Pescara Porta Nuova,Pescara P.N.,42.458.072,14.211.663
S08532,Abruzzo,Pescina,Pescina,42.037.564,13.668.981
S08811,Abruzzo,Pescocanale,Pescocanale,419.589,13.391.624
S07714,Abruzzo,Piano D`Orta Bolognano,Piano D'Orta B.,42.254.455,13.951.514
S07424,Abruzzo,Molina Castel Vecchio Subaqueo,Molina C.V.S.,42.143.476,13.739.644
S07813,Abruzzo,Francavilla Al Mare,Francavilla M.,42.421.316,14.288.062
S07903,Abruzzo,Notaresco,Notaresco,42.706.502,13.876.365
S08518,Abruzzo,Oricola-Pereto,Oricola Pereto,42.067.835,13.044.214
S07815,Abruzzo,Ortona,Ortona,42.354.196,14.407.698
S07416,Abruzzo,Paganica,Paganica,42.334.751,13.464.317
S08904,Abruzzo,Palena,Palena,41.918.401,14.105.189
S07706,Abruzzo,Torre Dei Passeri,Torre Dei P.,42.244.022,13.937.525
S07710,Abruzzo,Manoppello,Manoppello,42.305.848,14.061.057
S07017,Abruzzo,Pescara S. Marco,Pescara S. Marco,4.244.613,14.208.981
S07018,Abruzzo,Fossacesia - Torino Di Sangro,Fossacesia/T.S.,42.237.648,14.525.456
S08810,Abruzzo,Cupone,Cupone,41.964.628,13.377.481
S07420,Abruzzo,Fagnano Campana,Fagnano Campana,42.250.575,13.562.743
S08856,Abruzzo,Balsorano,Balsorano,41.809.427,13.556.546
S07422,Abruzzo,Beffi,Beffi,42.197.341,13.660.759
S07902,Abruzzo,Bellante Ripattone,Bellante Ripat.,42.705.775,13.837.978
S07824,Abruzzo,Vasto S.Salvo,Vasto S.Salvo,42.079.832,14.739.483
S08523,Abruzzo,Villa San Sebastiano,Villa San Seb.,42.049.331,13.308.271
S07822,Abruzzo,Porto Di Vasto,Porto Di Vasto,42.167.774,14.698.057
S07807,Abruzzo,Silvi,Silvi,4.255.911,14.110.365
S08539,Abruzzo,Sulmona,Sulmona,42.060.836,13.907.156
S08522,Abruzzo,Tagliacozzo,Tagliacozzo,42.070.701,13.255.664
S08535,Abruzzo,Goriano Sicoli,Goriano Sicoli,42.082.698,1.378.286
S07423,Abruzzo,Acciano,Acciano,42.175.994,13.711.345
S07418,Abruzzo,S.Demetrio De` Vestini,S.Demetrio V.,42.294.447,13.536.543
S07705,Abruzzo,Tocco Castiglione,Tocco C.,42.226.619,13.904.658
S07814,Abruzzo,Tollo Canosa Sannita,Tollo Canosa S.,42.394.208,14.339.984
S07820,Abruzzo,Torino Di Sangro Paglieta,Torino Di Sangro,42.227.479,14.552.549
S02001,22,Brennero,Brennero,47.004.117,11.505.711
S07410,19,Rocca Di Corno,Rocca Di Corno,42.388.164,13.143.939
S11119,16,Bari Centrale,Bari C.Le,4.111.774,16.869.601
S07514,11,Porto D`Ascoli,Porto D'Ascoli,42.912.792,13.896.813
S09053,7,Isernia,Isernia,41.596.946,14.235.421
S00202,3,Bardonecchia,Bardonecchia,45.076.447,6.709.959
S01853,1,Torrile S. Polo,Torrile S. Polo,44.885.677,10.362.814
S01301,1,Chiasso,Chiasso,45.830.736,903.421
S00252,1,Trecate,Trecate,45.428.589,8.739.561
S05386,0,Anzola,,,
S02673,0,Gaggio Porta Est,,,
S12143,0,Lolli,,,
S01104,0,Pieve Emanuele,,,
S02595,0,Busa Di Vigonza,,,
S11121,0,Marconi,,,
S11004,0,Bari Torre Quetta,,,
S01139,0,Malpensa Aeroporto T1,Malp At1,45.627.904,8.711.085
S01135,0,Rescaldina,,,
S01136,0,Castellanza,,,
S01137,0,Busto Arsizio Nord,,,
S01138,0,Ferno-Lonate Pozzolo,,,
S09839,0,Arechi,,,
S09835,0,Torrione,,,
S09836,0,Pastena,,,
S08680,0,Piedimonte-V.S.L.-Aquino,,,
S08654,0,Labico,,,
S09199,0,Fontanarosa,,,
S00060,0,Torino Rebaudengo Fossata,,,
S12023,0,Fontane Bianche,,,
S12819,0,Elmas Aeroporto,,,
S05081,0,Bologna San Vitale,,,
S12333,0,Catania Ognina,,,
S12334,0,Picanello,,,
S12335,0,Catania Europa,,,
S12066,0,Sferracavallo,,,
S12069,0,Ems-La Malfa,,,
S12144,0,Guadagna,,,
S02218,0,Gargazzone,,,
S02059,0,Casanova Kaiserau,,,
S08514,0,La Rustica Uir,,,
S08513,0,La Rustica Citta',,,
S08509,0,Palmiro Togliatti,,,
S06001,0,Lastra A Signa,,,
S08812,0,Canistro,,,
S08817,0,Santopadre,,,
S08819,0,Fontana Liri Inferiore,,,
S08820,0,Colfelice,,,
S02517,0,Venezia Mestre Ospedale,,,
S03311,0,Miramare,,,
S08324,0,Ottavia,,,
S08327,0,Roma Balduina,,,
S05268,0,Quattro Ville,,,
S09771,0,Rovigliano,,,
S09819,0,Duomo Via Vernieri,,,
S05152,0,Borgonuovo,,,
S05010,0,Calderara-Bargellino,,,
S08653,0,Colonna Galleria,,,
S01530,0,Bergamo Ospedale,,,
S07019,0,Pescara Tribunale,,,
S01624,0,S.Donato Milanese,,,
S01648,0,Milano Repubblica,,,
S01069,0,Milano Quarto Oggiaro,,,
S01070,0,Novate Milanese,,,
S01071,0,Bollate Centro,,,
S01072,0,Bollate Nord,,,
S01073,0,Garbagnate Parco Delle Groane,,,
S01074,0,Garbagnate Milanese,,,
S01075,0,Cesate,,,
S01076,0,Caronno Pertusella,,,
S01077,0,Saronno Sud,,,
S01639,0,Milano Villapizzone,,,
S01492,0,Milano Forlanini,,,
S01039,0,Rho Fiera Milano,,,
S07025,0,Chieti-Mad.D.P.,,,
S08241,0,Gavignano,,,
S19919,0,Stabio,,,
S01206,0,Cantello Gaggiolo,,,
S12054,0,Spadafora,,,
S12336,0,Catania Aer. Fontanarossa,,,
S12001,0,Fiumara Gazzi,,,
S12060,0,Ponte Schiavo,,,
S12059,0,San Paolo,,,
S04524,0,Diano,,,
S04525,0,Andora,,,
S03213,0,Trieste Airport,,,
S11516,0,Modugno,,,
S11003,0,Bari Villaggio Del Lavoratore,,,
S11507,0,Castellaneta,,,
S07515,0,Martinsicuro,,,
S02019,0,Levata,,,
S02021,0,Borgochiesanuova,,,
S05183,0,Formigine,,,
S05189,0,Policlinico,,,
S05188,0,Modena Piazza Manzoni,,,
S05187,0,Fornaci,,,
S05186,0,Baggiovara Ospedale,,,
S05185,0,Baggiovara,,,
S05184,0,Casinalbo,,,
S07021,0,Camerano Aspio,,,
S02013,0,Trento S.Bartolameo,,,
S02301,0,Povo,,,
S05978,0,Vignola,,,
S05967,0,Ceretolo,,,
S05968,0,Casalecchio Palasport,,,
S05969,0,Riate,,,
S05970,0,Pilastrino,,,
S05971,0,Zola Centro,,,
S05918,0,Zola Chiesa,,,
S05919,0,Ponte Ronca,,,
S05972,0,Via Lunga,,,
S05973,0,Crespellano,,,
S05974,0,Muffa,,,
S05975,0,Bazzano,,,
S05976,0,Savignano Mulino,,,
S05977,0,Savignano Comune,,,
S11120,0,Bari Zona Industriale,,,
S06607,0,Crespino Del Lamone,,,
S06618,0,Fognano,,,
S12070,0,Lascari,,,
S12035,0,Ficarazzi,,,
S12032,0,Roccella,,,
S11215,0,Potenza Macchia Romana,,,
S01059,0,Albairate,,,
S00059,0,Grugliasco,,,
S05057,0,Riminifiera,,,
S03023,0,Tricesimo - San Pelagio,,,
S11970,0,Reggio Di Calabria Omeca,,,
S01112,0,Cesano Boscone,,,
S01022,0,Milano Tibaldi - Bocconi,,,
S01929,0,Seveso Baruccana,,,
S01086,0,Cesano Maderno,,,
S01934,0,Ceriano Laghetto-Solaro,,,
S07431,0,L`Aquila Campo Di Pile,,,
S11973,0,Reggio Di Calabria Archi,,,
S11974,0,Reggio Di Calabria Pentimele,,,
S11975,0,Reggio Di Calabria S.Caterina,,,
S08737,0,S. Gennaro,,,
N00201,0,Brescia,,,
N00209,0,Provaglio - Timoline,,,
N00208,0,Borgonato - Adro,,,
N00206,0,Passirano,,,
N00205,0,Paderno,,,
N00204,0,Castegnato,,,
N00202,0,Borgo S. Giovanni,,,
S11001,0,Potenza Univ.,,,
S07013,0,Perugia Silvestrini,,,
S07026,0,Nepezzano-Piano D'Accio,,,
N00085,0,Camnago Lentate,,,
N00003,0,Milano Bovisa,,,
N00065,0,Seveso,,,
S02018,0,Brunico Nord,,,
S02060,0,Perca,,,
S02016,0,S.Lorenzo,,,
S09988,0,Napoli Afragola,,,
S11123,0,Brindisi Ricerca,,,
S11139,0,Brindisi-Perrino,,,
S05953,0,S.Patrizio,,,
S07023,0,Monsampolo Del T,,,
S07024,0,Colli Del Tronto,,,
S09798,0,Acquamela,,,
S09799,0,Salerno Irno,,,
S08816,0,Compre S.Vincenzo,,,
S08815,0,Ridotti-Collepiano,,,
S08814,0,Roccavivi,,,
S08813,0,Morrea-Castronovo-Rendinara,,,
S08699,0,Pantanella,,,
N00005,0,Novate M.Se,,,
N00001,0,M N Cadorna,,,
N00068,0,Mariano Comense,,,
N00044,0,Como Nord Lago,,,
N00024,0,Varese Nord,,,
N00043,0,Como Nord Borghi,,,
N00100,0,Milano Nord Domodossola,,,
N00013,0,Saronno,,,
N00034,0,Rovello Porro,,,
N00035,0,Rovellasca - Manera,,,
N00036,0,Lomazzo,,,
N00037,0,Caslino Al Piano,,,
N00038,0,Cadorago,,,
N00039,0,Fino Mornasco,,,
N00040,0,Portichetto - Luisago,,,
N00041,0,Grandate - Breccia,,,
N00042,0,Como Nord Camerlata,,,
N00067,0,Cabiate,,,
N00066,0,Meda,,,
N00064,0,Cesano Maderno,,,
N00063,0,Bovisio M. - Mombello,,,
N00062,0,Varedo,,,
N00061,0,Palazzolo M.Se,,,
N00060,0,Paderno Dugnano,,,
N00263,0,Cormano-Cusano Milanino,,,
N00057,0,M.N. Bruzzano,,,
N00056,0,M.N. Affori,,,
N00004,0,M.N. Quarto Oggiaro,,,
N00006,0,Bollate Centro,,,
N00007,0,Bollate Nord,,,
N00008,0,Garbagnate Parco Groane,,,
N00009,0,Garbagnate M.Se,,,
N00010,0,Cesate,,,
N00011,0,Caronno - Pertusella,,,
N00012,0,Saronno Sud,,,
N00023,0,Malnate,,,
N00022,0,Vedano,,,
N00021,0,Venegono Sup. - Castiglio,,,
N00020,0,Venegono Inf.,,,
N00019,0,Tradate,,,
N00018,0,Abbiate Guazzone,,,
N00017,0,Locate V. - Carbonate,,,
N00016,0,Mozzate,,,
N00015,0,Cislago,,,
N00014,0,Gerenzano - Turate,,,
S00884,0,Rivarolo,,,
S09842,0,Franciosa,,,
S01417,0,Prata Camportaccio,,,
S12902,0,Olbia Terranova,,,
N00096,0,Seregno,,,
N00086,0,Barruccana,,,
N00087,0,Ceriano Laghetto,,,
S13104,0,,,,
N00079,0,Asso,,,
N00078,0,Canzo,,,
N00077,0,Caslino D'Erba,,,
N00076,0,Pontelambro - Castelmarte,,,
N00074,0,Erba,,,
N00073,0,Merone,,,
N00072,0,Lambrugo - Lurago,,,
N00071,0,Inverigo,,,
N00070,0,Arosio,,,
N00069,0,Carugo - Giussano,,,
S05151,0,Pistoia Ovest,,,
S07415,0,L'Aquila Sassa N.S.I.,,,
N00217,0,Pisogne,,,
N00226,0,Breno,,,
N00212,0,Sulzano,,,
N00213,0,Sale Marasino,,,
N00214,0,Marone - Zone,,,
N00218,0,Piancamuno - Gratacasolo,,,
N00220,0,Darfo - Corna,,,
N00221,0,Boario Terme,,,
N00223,0,Pian Di Borno,,,
N00224,0,Cogno - Esine,,,
N00225,0,Cividate - Malegno,,,
S05921,0,Ciano D'Enza,,,
S05936,0,Via Fanti - Tribunale,,,
S05935,0,Reggio S.Stefano,,,
S05934,0,Reggio All'Angelo,,,
S05932,0,Cavriago,,,
S05931,0,Cavriago S.Nicolo',,,
S05930,0,C.C.9 Bivio Parco,,,
S05929,0,Barco,,,
S05928,0,Fossa,,,
S05927,0,Bibbiano,,,
S05925,0,Corniano,,,
S05924,0,Piazzola,,,
S05923,0,S.Polo D'Enza,,,
S05922,0,Ciano Via Tedaldo Da Canossa,,,
S05960,0,Guastalla,,,
S05949,0,Reggio S.Croce,,,
S05191,0,Reggio Stadio Giglio,,,
S05195,0,Reggio Mediopadana,,,
S05947,0,Pratofontana,,,
S05946,0,Bagnolo In Piano,,,
S05945,0,Bagnolo Soave,,,
S05944,0,Pieve Rossa,,,
S05943,0,S.Tomaso,,,
S05942,0,Vezzola,,,
S05941,0,S.Giovanni (Fer),,,
S05940,0,Novellara,,,
S05939,0,S.Bernardino,,,
S05938,0,S.Giacomo (Fsc),,,
S05019,0,Roveri,,,
S05999,0,Consandolo,,,
S05018,0,Molinella,,,
S05998,0,Guarda,,,
S05997,0,Mezzolara,,,
S05996,0,Budrio Centro,,,
S05017,0,Budrio,,,
S05995,0,Castenaso,,,
S05994,0,Castenaso Stellina,,,
S05993,0,Ca' Dell'Orbo,,,
S05957,0,Codisotto,,,
S05958,0,Luzzara,,,
S05959,0,Tagliata,,,
S05961,0,Gualtieri,,,
S05962,0,Pieve Saliceto,,,
S05963,0,Boretto,,,
S05964,0,Brescello Viadana,,,
N00211,0,Pilzone,,,
N00215,0,Vello,,,
N00216,0,Toline,,,
S11969,0,Reggio Di Calabria Bocale,,,
S07006,0,Perugia Universita',,,
S07020,0,Perugia Capitini,,,
N00033,0,Laveno,,,
N00032,0,Cittiglio,,,
N00031,0,Gemonio,,,
N00030,0,Cocquio - Trevisago,,,
N00028,0,Gavirate,,,
N00027,0,Barasso - Comerio,,,
N00026,0,Morosolo - Casciago,,,
N00025,0,Varese Casbeno,,,
S08302,0,Sipicciano S.Nicola,,,
S06806,0,Barberino Val D`Elsa,,,
S06003,0,Luni,,,
S12810,0,Cagliari S.Gilla,,,
S12809,0,Assemini Carmine,,,
S12808,0,Assemini S. Lucia,,,
S08550,0,Aielli,,,
S08548,0,Collarmele,,,
S05011,0,Vaio Ospedale,,,
S00618,0,Vievola,,,
S00619,0,Tende,,,
S00634,0,La Brigue,,,
S00620,0,St.Dalmas De Tende,,,
S00621,0,Fontan Saorge,,,
S01078,0,Milano Affori,,,
S01079,0,Milano Bruzzano Parco Nord,,,
S01082,0,Paderno Dugnano,,,
S01083,0,Palazzolo Milanese,,,
S01084,0,Varedo,,,
S01085,0,Bovisio Masciago,,,
S07314,0,Macerata Universita',,,
S05799,0,Codigoro,,,
S05196,0,Ferrara Boschetto,,,
S05193,0,Ferrara-Cona Ospedale,,,
S05169,0,Cona F. C.,,,
S05170,0,Quartesana,,,
S05171,0,Masi Torello,,,
S05172,0,Tresigallo - Correggi,,,
S05173,0,Rovereto - S.V. - Medelana,,,
S05174,0,Dogato,,,
S05175,0,Ostellato,,,
S05176,0,Migliarino,,,
S05177,0,Valcesura,,,
S05178,0,Migliaro,,,
S05179,0,Massafiscaglia,,,
S05166,0,Vigarano Pieve,,,
S05165,0,Bondeno,,,
S05164,0,Stellata Ficarolo,,,
S05162,0,Felonica Po,,,
S05161,0,Sermide,,,
S05159,0,Magnacavallo,,,
S05158,0,Schivenoglia,,,
S05156,0,Quistello,,,
S05155,0,San Benedetto Po,,,
S05154,0,Pegognaga,,,
S05719,0,Coronella,,,
N00055,0,Novara Nord,,,
S01088,0,Cabiate,,,
S01087,0,Meda,,,
N00029,0,Gavirate Verbano,,,
N00045,0,Rescaldina,,,
N00046,0,Castellanza,,,
N00047,0,Busto Arsizio,,,
N00049,0,Vanzaghello - Magnago,,,
N00050,0,Castano Primo,,,
N00051,0,Turbigo,,,
N00054,0,Galliate,,,
S00201,0,Modane,Modane,45.235.247,664.102
N00107,0,Busto Arsizio Rfi,,,
N00081,0,Ferno Lonate Pozzolo,,,
S05194,0,Sassuolo Radici,,,
S05985,0,Pratissolo,,,
S05984,0,Scandiano,,,
S05983,0,Chiozza,,,
S05982,0,Casalgrande,,,
S05981,0,Dinazzano,,,
S05980,0,Villalunga,,,
S05979,0,Veggia,,,
S05986,0,Pm Bosco,,,
S09122,0,Traccia,,,
S05190,0,Citta' Del Ragazzo,,,
S05926,0,Bibbiano Via Monti,,,
S05192,0,S.Lazzaro,,,
S06071,0,Pratovecchio Stia,,,
S07022,0,Spinet.V.S.Pio X,,,
S07417,0,L'Aquila S. Gregorio,,,
S07436,0,Bazzano (Aq),,,
S02598,0,Piove Di Sacco,,,
S11756,0,Bivio S.Antonello,,,
S01109,0,Cormano-Cusano Milanino,,,
S01066,0,Milano Cadorna,,,
S01067,0,Milano Domodossola,,,
S01724,0,Gerenzano-Turate,,,
S01725,0,Cislago,,,
S01726,0,Mozzate,,,
S01727,0,Locate Varesino-Carbonate,,,
S01728,0,Abbiate Guazzone,,,
S01729,0,Tradate,,,
S01734,0,Venegono Inferiore,,,
S01735,0,Venegono Superiore-Castiglione O.,,,
S01736,0,Vedano Olona,,,
S01737,0,Malnate,,,
S01738,0,Varese Nord,,,
S01739,0,Varese Casbeno,,,
S01740,0,Morosolo Casciago,,,
S01741,0,Barasso-Comerio,,,
S01742,0,Gavirate,,,
S01743,0,Gavirate Verbano,,,
S01744,0,Cocquio Trevisago,,,
S01745,0,Gemonio,,,
S01746,0,Cittiglio,,,
S01747,0,Laveno Mombello Lago,,,
S01755,0,Rovello Porro,,,
S01756,0,Rovellasca-Manera,,,
S01757,0,Lomazzo,,,
S01758,0,Caslino Al Piano,,,
S01759,0,Cadorago,,,
S01760,0,Fino Mornasco,,,
S01761,0,Portichetto-Luisago,,,
S01762,0,Grandate-Breccia,,,
S09998,0,Como Camerlata,,,
S01764,0,Como Borghi,,,
S01765,0,Como Lago,,,
S09999,0,Brescia,,,
S01797,0,Brescia Borgo San Giovanni,,,
S01795,0,Castegnato,,,
S01794,0,Paderno Franciacorta,,,
S01793,0,Passirano,,,
S01789,0,Bornato-Calino,,,
S01788,0,Borgonato-Adro,,,
S01787,0,Provaglio-Timoline,,,
S01021,0,Iseo,,,
S01786,0,Pilzone,,,
S01785,0,Sulzano,,,
S01784,0,Sale Marasino,,,
S01783,0,Marone-Zone,,,
S01091,0,Carugo-Giussano,,,
S01092,0,Arosio,,,
S01093,0,Inverigo,,,
S01094,0,Lambrugo-Lurago D'Erba,,,
S01096,0,Erba,,,
S01097,0,Pontelambro-Castelmarte,,,
S01098,0,Caslino D'Erba,,,
S01099,0,Canzo,,,
S01753,0,Vanzaghello-Magnago,,,
S01752,0,Castano Primo,,,
S01751,0,Turbigo,,,
S01748,0,Galliate,,,
S00023,0,Novara Nord,,,
S01906,0,,,,
S13143,0,Mendrisio,,,
S01005,0,Breno,,,
S01774,0,Cividate-Malegno,,,
S01775,0,Cogno-Esine,,,
S01776,0,Pian Di Borno,,,
S01778,0,Boario Terme,,,
S01006,0,Darfo-Corna,,,
S01780,0,Pian Camuno-Gratacasolo,,,
S01014,0,Pisogne,,,
S01781,0,Toline,,,
S01782,0,Vello,,,
S05209,0,Biasca,,,
S05212,0,Castione,,,
S05213,0,Bellinzona,,,
S05214,0,Giubiasco,,,
S05219,0,Lamone-Cadempino,,,
S05300,0,Lugano,,,
Z05304,0,Capolago-Riva S.Vitale,,,
S19901,0,Mendrisio S. Martino,,,
S05218,0,Taverne-Torricella,,,
S05217,0,Mezzovico,,,
S05216,0,Rivera-Bironico,,,
S05400,0,Locarno,,,
S05401,0,Tenero,,,
S05402,0,Gordola,,,
S05412,0,Riazzino,,,
S05404,0,Cadenazzo,,,
S05415,0,S.Antonino,,,
N00053,0,Ponte Ticino,,,
S01749,0,Galliate Parco Del Ticino,,,
N00091,0,Groane,,,
S01927,0,Ceriano Laghetto Groane,,,
S01146,0,Malpensa Aeroporto T2,,,